{
"type": "FeatureCollection",
"features": [
{ "type": "Feature", "properties": { "grades": "0.05,0.05,0.05,0.05,0.05,0.05,0.05,0.05,0.05,0.05,0.05" }, "geometry": { "type": "LineString", "coordinates": [ [ 2.1808216, 48.6996769 ], [ 2.1796976, 48.7016296 ], [ 2.1794039, 48.7018807 ], [ 2.1809894, 48.702081 ], [ 2.1811782, 48.7028862 ], [ 2.1812153, 48.7031443 ], [ 2.1814052, 48.7034784 ], [ 2.18157, 48.7034919 ], [ 2.1814212, 48.703552 ], [ 2.1813425, 48.7035955 ], [ 2.1813118, 48.7036829 ], [ 2.1816453, 48.7059744 ] ] } },
{ "type": "Feature", "properties": { "grades": "0.05,0.05,0.05,0.05,0.05,0.05,0.05,0.05,0.05,0.05,0.05,0.05" }, "geometry": { "type": "LineString", "coordinates": [ [ 2.1808216, 48.6996769 ], [ 2.1796976, 48.7016296 ], [ 2.1794039, 48.7018807 ], [ 2.1809894, 48.702081 ], [ 2.1811782, 48.7028862 ], [ 2.1812153, 48.7031443 ], [ 2.1814052, 48.7034784 ], [ 2.18157, 48.7034919 ], [ 2.1814212, 48.703552 ], [ 2.1813425, 48.7035955 ], [ 2.1813118, 48.7036829 ], [ 2.1816453, 48.7059744 ], [ 2.1814564, 48.7060033 ] ] } },
{ "type": "Feature", "properties": { "grades": "0.05,0.05,0.05,0.05,0.05,0.05,0.05,0.05,0.05,0.05" }, "geometry": { "type": "LineString", "coordinates": [ [ 2.1808216, 48.6996769 ], [ 2.1796976, 48.7016296 ], [ 2.1794039, 48.7018807 ], [ 2.1809894, 48.702081 ], [ 2.1811782, 48.7028862 ], [ 2.1812153, 48.7031443 ], [ 2.1814052, 48.7034784 ], [ 2.1814212, 48.703552 ], [ 2.1813425, 48.7035955 ], [ 2.1813118, 48.7036829 ], [ 2.1816453, 48.7059744 ] ] } },
{ "type": "Feature", "properties": { "grades": "0.05,0.05,0.05,0.05,0.05,0.05,0.05,0.05,0.05,0.05,0.05" }, "geometry": { "type": "LineString", "coordinates": [ [ 2.1808216, 48.6996769 ], [ 2.1796976, 48.7016296 ], [ 2.1794039, 48.7018807 ], [ 2.1809894, 48.702081 ], [ 2.1811782, 48.7028862 ], [ 2.1812153, 48.7031443 ], [ 2.1814052, 48.7034784 ], [ 2.1814212, 48.703552 ], [ 2.1813425, 48.7035955 ], [ 2.1813118, 48.7036829 ], [ 2.1816453, 48.7059744 ], [ 2.1814564, 48.7060033 ] ] } },
{ "type": "Feature", "properties": { "grades": "0.05,0.05,0.05,0.05,0.05,0.05,0.05,0.05,0.05,0.05,0.05,0.05,0.05,0.05" }, "geometry": { "type": "LineString", "coordinates": [ [ 2.1955173, 48.7008828 ], [ 2.1947072, 48.7025817 ], [ 2.1940154, 48.7038768 ], [ 2.1924311, 48.703687 ], [ 2.1907464, 48.7068709 ], [ 2.1898369, 48.7072579 ], [ 2.1891292, 48.7072323 ], [ 2.1888682, 48.7072466 ], [ 2.1887428, 48.7073048 ], [ 2.1885584, 48.7072594 ], [ 2.188236, 48.7072855 ], [ 2.1874183, 48.7086049 ], [ 2.187312, 48.7087966 ], [ 2.1871068, 48.7091793 ], [ 2.18624, 48.709959 ] ] } },
{ "type": "Feature", "properties": { "grades": "0.05,0.05,0.05,0.05,0.05,0.05,0.05,0.05,0.05,0.05,0.05,0.05,0.05,0.05" }, "geometry": { "type": "LineString", "coordinates": [ [ 2.1955173, 48.7008828 ], [ 2.1947072, 48.7025817 ], [ 2.1940154, 48.7038768 ], [ 2.1924311, 48.703687 ], [ 2.1907464, 48.7068709 ], [ 2.1898369, 48.7072579 ], [ 2.1891292, 48.7072323 ], [ 2.1888682, 48.7072466 ], [ 2.1887428, 48.7073048 ], [ 2.1885584, 48.7072594 ], [ 2.188236, 48.7072855 ], [ 2.1874183, 48.7086049 ], [ 2.187312, 48.7087966 ], [ 2.1871068, 48.7091793 ], [ 2.1828113, 48.7119071 ] ] } },
{ "type": "Feature", "properties": { "grades": "0.05,0.05,0.05,0.05,0.05,0.05,0.05,0.05,0.05,0.05,0.05,0.05,0.05,0.05,0.05" }, "geometry": { "type": "LineString", "coordinates": [ [ 2.1955173, 48.7008828 ], [ 2.1947072, 48.7025817 ], [ 2.1940154, 48.7038768 ], [ 2.1924311, 48.703687 ], [ 2.1907464, 48.7068709 ], [ 2.1898369, 48.7072579 ], [ 2.1891292, 48.7072323 ], [ 2.1888682, 48.7072466 ], [ 2.1887428, 48.7073048 ], [ 2.1885584, 48.7072594 ], [ 2.188236, 48.7072855 ], [ 2.1874183, 48.7086049 ], [ 2.187312, 48.7087966 ], [ 2.1871068, 48.7091793 ], [ 2.1828113, 48.7119071 ], [ 2.174183, 48.7142252 ] ] } },
{ "type": "Feature", "properties": { "grades": "0.05,0.05,0.05,0.05,0.05,0.05,0.05,0.05,0.05,0.05,0.05,0.05,0.05,0.05,0.05" }, "geometry": { "type": "LineString", "coordinates": [ [ 2.1955173, 48.7008828 ], [ 2.1947072, 48.7025817 ], [ 2.1940154, 48.7038768 ], [ 2.1924311, 48.703687 ], [ 2.1907464, 48.7068709 ], [ 2.1898369, 48.7072579 ], [ 2.1891292, 48.7072323 ], [ 2.1888682, 48.7072466 ], [ 2.1887428, 48.7073048 ], [ 2.1885584, 48.7072594 ], [ 2.188236, 48.7072855 ], [ 2.1874183, 48.7086049 ], [ 2.187312, 48.7087966 ], [ 2.1871068, 48.7091793 ], [ 2.1828113, 48.7119071 ], [ 2.1793174, 48.7134406 ] ] } },
{ "type": "Feature", "properties": { "grades": "0.05,0.05,0.05,0.05,0.05,0.05,0.05,0.05,0.05,0.05,0.05,0.05,0.05,0.05,0.05,0.05" }, "geometry": { "type": "LineString", "coordinates": [ [ 2.1955173, 48.7008828 ], [ 2.1947072, 48.7025817 ], [ 2.1940154, 48.7038768 ], [ 2.1924311, 48.703687 ], [ 2.1907464, 48.7068709 ], [ 2.1898369, 48.7072579 ], [ 2.1891292, 48.7072323 ], [ 2.1888682, 48.7072466 ], [ 2.1887428, 48.7073048 ], [ 2.1885584, 48.7072594 ], [ 2.188236, 48.7072855 ], [ 2.1874183, 48.7086049 ], [ 2.187312, 48.7087966 ], [ 2.1871068, 48.7091793 ], [ 2.1828113, 48.7119071 ], [ 2.174183, 48.7142252 ], [ 2.1739726, 48.7141531 ] ] } },
{ "type": "Feature", "properties": { "grades": "0.05,0.05,0.05,0.05,0.05,0.05,0.05,0.05,0.05,0.05,0.05,0.05,0.05,0.05,0.05,0.05,0.05" }, "geometry": { "type": "LineString", "coordinates": [ [ 2.1955173, 48.7008828 ], [ 2.1947072, 48.7025817 ], [ 2.1940154, 48.7038768 ], [ 2.1924311, 48.703687 ], [ 2.1907464, 48.7068709 ], [ 2.1898369, 48.7072579 ], [ 2.1891292, 48.7072323 ], [ 2.1888682, 48.7072466 ], [ 2.1887428, 48.7073048 ], [ 2.1885584, 48.7072594 ], [ 2.188236, 48.7072855 ], [ 2.1874183, 48.7086049 ], [ 2.187312, 48.7087966 ], [ 2.1871068, 48.7091793 ], [ 2.1828113, 48.7119071 ], [ 2.174183, 48.7142252 ], [ 2.1739726, 48.7141531 ], [ 2.1738665, 48.7141421 ] ] } },
{ "type": "Feature", "properties": { "grades": "0.05,0.05,0.05,0.05,0.05,0.05,0.05,0.05,0.05,0.05,0.05,0.05,0.05,0.05,0.05,0.05,0.05,0.05" }, "geometry": { "type": "LineString", "coordinates": [ [ 2.1955173, 48.7008828 ], [ 2.1947072, 48.7025817 ], [ 2.1940154, 48.7038768 ], [ 2.1924311, 48.703687 ], [ 2.1907464, 48.7068709 ], [ 2.1898369, 48.7072579 ], [ 2.1891292, 48.7072323 ], [ 2.1888682, 48.7072466 ], [ 2.1887428, 48.7073048 ], [ 2.1885584, 48.7072594 ], [ 2.188236, 48.7072855 ], [ 2.1874183, 48.7086049 ], [ 2.187312, 48.7087966 ], [ 2.1871068, 48.7091793 ], [ 2.1828113, 48.7119071 ], [ 2.174183, 48.7142252 ], [ 2.1739726, 48.7141531 ], [ 2.1738665, 48.7141421 ], [ 2.1734148, 48.7143919 ] ] } },
{ "type": "Feature", "properties": { "grades": "0.05,0.05,0.05,0.05,0.05,0.05,0.05,0.05,0.05,0.05,0.05,0.05,0.05,0.05" }, "geometry": { "type": "LineString", "coordinates": [ [ 2.1948502, 48.7008047 ], [ 2.1947072, 48.7025817 ], [ 2.1940154, 48.7038768 ], [ 2.1924311, 48.703687 ], [ 2.1907464, 48.7068709 ], [ 2.1898369, 48.7072579 ], [ 2.1891292, 48.7072323 ], [ 2.1888682, 48.7072466 ], [ 2.1887428, 48.7073048 ], [ 2.1885584, 48.7072594 ], [ 2.188236, 48.7072855 ], [ 2.1874183, 48.7086049 ], [ 2.187312, 48.7087966 ], [ 2.1871068, 48.7091793 ], [ 2.18624, 48.709959 ] ] } },
{ "type": "Feature", "properties": { "grades": "0.05,0.05,0.05,0.05,0.05,0.05,0.05,0.05,0.05,0.05,0.05,0.05,0.05,0.05" }, "geometry": { "type": "LineString", "coordinates": [ [ 2.1948502, 48.7008047 ], [ 2.1947072, 48.7025817 ], [ 2.1940154, 48.7038768 ], [ 2.1924311, 48.703687 ], [ 2.1907464, 48.7068709 ], [ 2.1898369, 48.7072579 ], [ 2.1891292, 48.7072323 ], [ 2.1888682, 48.7072466 ], [ 2.1887428, 48.7073048 ], [ 2.1885584, 48.7072594 ], [ 2.188236, 48.7072855 ], [ 2.1874183, 48.7086049 ], [ 2.187312, 48.7087966 ], [ 2.1871068, 48.7091793 ], [ 2.1828113, 48.7119071 ] ] } },
{ "type": "Feature", "properties": { "grades": "0.05,0.05,0.05,0.05,0.05,0.05,0.05,0.05,0.05,0.05,0.05,0.05,0.05,0.05,0.05" }, "geometry": { "type": "LineString", "coordinates": [ [ 2.1948502, 48.7008047 ], [ 2.1947072, 48.7025817 ], [ 2.1940154, 48.7038768 ], [ 2.1924311, 48.703687 ], [ 2.1907464, 48.7068709 ], [ 2.1898369, 48.7072579 ], [ 2.1891292, 48.7072323 ], [ 2.1888682, 48.7072466 ], [ 2.1887428, 48.7073048 ], [ 2.1885584, 48.7072594 ], [ 2.188236, 48.7072855 ], [ 2.1874183, 48.7086049 ], [ 2.187312, 48.7087966 ], [ 2.1871068, 48.7091793 ], [ 2.1828113, 48.7119071 ], [ 2.174183, 48.7142252 ] ] } },
{ "type": "Feature", "properties": { "grades": "0.05,0.05,0.05,0.05,0.05,0.05,0.05,0.05,0.05,0.05,0.05,0.05,0.05,0.05,0.05" }, "geometry": { "type": "LineString", "coordinates": [ [ 2.1948502, 48.7008047 ], [ 2.1947072, 48.7025817 ], [ 2.1940154, 48.7038768 ], [ 2.1924311, 48.703687 ], [ 2.1907464, 48.7068709 ], [ 2.1898369, 48.7072579 ], [ 2.1891292, 48.7072323 ], [ 2.1888682, 48.7072466 ], [ 2.1887428, 48.7073048 ], [ 2.1885584, 48.7072594 ], [ 2.188236, 48.7072855 ], [ 2.1874183, 48.7086049 ], [ 2.187312, 48.7087966 ], [ 2.1871068, 48.7091793 ], [ 2.1828113, 48.7119071 ], [ 2.1793174, 48.7134406 ] ] } },
{ "type": "Feature", "properties": { "grades": "0.05,0.05,0.05,0.05,0.05,0.05,0.05,0.05,0.05,0.05,0.05,0.05,0.05,0.05,0.05,0.05" }, "geometry": { "type": "LineString", "coordinates": [ [ 2.1948502, 48.7008047 ], [ 2.1947072, 48.7025817 ], [ 2.1940154, 48.7038768 ], [ 2.1924311, 48.703687 ], [ 2.1907464, 48.7068709 ], [ 2.1898369, 48.7072579 ], [ 2.1891292, 48.7072323 ], [ 2.1888682, 48.7072466 ], [ 2.1887428, 48.7073048 ], [ 2.1885584, 48.7072594 ], [ 2.188236, 48.7072855 ], [ 2.1874183, 48.7086049 ], [ 2.187312, 48.7087966 ], [ 2.1871068, 48.7091793 ], [ 2.1828113, 48.7119071 ], [ 2.174183, 48.7142252 ], [ 2.1739726, 48.7141531 ] ] } },
{ "type": "Feature", "properties": { "grades": "0.05,0.05,0.05,0.05,0.05,0.05,0.05,0.05,0.05,0.05,0.05,0.05,0.05,0.05,0.05,0.05,0.05" }, "geometry": { "type": "LineString", "coordinates": [ [ 2.1948502, 48.7008047 ], [ 2.1947072, 48.7025817 ], [ 2.1940154, 48.7038768 ], [ 2.1924311, 48.703687 ], [ 2.1907464, 48.7068709 ], [ 2.1898369, 48.7072579 ], [ 2.1891292, 48.7072323 ], [ 2.1888682, 48.7072466 ], [ 2.1887428, 48.7073048 ], [ 2.1885584, 48.7072594 ], [ 2.188236, 48.7072855 ], [ 2.1874183, 48.7086049 ], [ 2.187312, 48.7087966 ], [ 2.1871068, 48.7091793 ], [ 2.1828113, 48.7119071 ], [ 2.174183, 48.7142252 ], [ 2.1739726, 48.7141531 ], [ 2.1738665, 48.7141421 ] ] } },
{ "type": "Feature", "properties": { "grades": "0.05,0.05,0.05,0.05,0.05,0.05,0.05,0.05,0.05,0.05,0.05,0.05,0.05,0.05,0.05,0.05,0.05,0.05" }, "geometry": { "type": "LineString", "coordinates": [ [ 2.1948502, 48.7008047 ], [ 2.1947072, 48.7025817 ], [ 2.1940154, 48.7038768 ], [ 2.1924311, 48.703687 ], [ 2.1907464, 48.7068709 ], [ 2.1898369, 48.7072579 ], [ 2.1891292, 48.7072323 ], [ 2.1888682, 48.7072466 ], [ 2.1887428, 48.7073048 ], [ 2.1885584, 48.7072594 ], [ 2.188236, 48.7072855 ], [ 2.1874183, 48.7086049 ], [ 2.187312, 48.7087966 ], [ 2.1871068, 48.7091793 ], [ 2.1828113, 48.7119071 ], [ 2.174183, 48.7142252 ], [ 2.1739726, 48.7141531 ], [ 2.1738665, 48.7141421 ], [ 2.1734148, 48.7143919 ] ] } },
{ "type": "Feature", "properties": { "grades": "0.05,0.05,0.05,0.05,0.05,0.05,0.05,0.05,0.05,0.05,0.05,0.05,0.05,0.05,0.05" }, "geometry": { "type": "LineString", "coordinates": [ [ 2.1948502, 48.7008047 ], [ 2.1955173, 48.7008828 ], [ 2.1947072, 48.7025817 ], [ 2.1940154, 48.7038768 ], [ 2.1924311, 48.703687 ], [ 2.1907464, 48.7068709 ], [ 2.1898369, 48.7072579 ], [ 2.1891292, 48.7072323 ], [ 2.1888682, 48.7072466 ], [ 2.1887428, 48.7073048 ], [ 2.1885584, 48.7072594 ], [ 2.188236, 48.7072855 ], [ 2.1874183, 48.7086049 ], [ 2.187312, 48.7087966 ], [ 2.1871068, 48.7091793 ], [ 2.18624, 48.709959 ] ] } },
{ "type": "Feature", "properties": { "grades": "0.05,0.05,0.05,0.05,0.05,0.05,0.05,0.05,0.05,0.05,0.05,0.05,0.05,0.05,0.05" }, "geometry": { "type": "LineString", "coordinates": [ [ 2.1948502, 48.7008047 ], [ 2.1955173, 48.7008828 ], [ 2.1947072, 48.7025817 ], [ 2.1940154, 48.7038768 ], [ 2.1924311, 48.703687 ], [ 2.1907464, 48.7068709 ], [ 2.1898369, 48.7072579 ], [ 2.1891292, 48.7072323 ], [ 2.1888682, 48.7072466 ], [ 2.1887428, 48.7073048 ], [ 2.1885584, 48.7072594 ], [ 2.188236, 48.7072855 ], [ 2.1874183, 48.7086049 ], [ 2.187312, 48.7087966 ], [ 2.1871068, 48.7091793 ], [ 2.1828113, 48.7119071 ] ] } },
{ "type": "Feature", "properties": { "grades": "0.05,0.05,0.05,0.05,0.05,0.05,0.05,0.05,0.05,0.05,0.05,0.05,0.05,0.05,0.05,0.05" }, "geometry": { "type": "LineString", "coordinates": [ [ 2.1948502, 48.7008047 ], [ 2.1955173, 48.7008828 ], [ 2.1947072, 48.7025817 ], [ 2.1940154, 48.7038768 ], [ 2.1924311, 48.703687 ], [ 2.1907464, 48.7068709 ], [ 2.1898369, 48.7072579 ], [ 2.1891292, 48.7072323 ], [ 2.1888682, 48.7072466 ], [ 2.1887428, 48.7073048 ], [ 2.1885584, 48.7072594 ], [ 2.188236, 48.7072855 ], [ 2.1874183, 48.7086049 ], [ 2.187312, 48.7087966 ], [ 2.1871068, 48.7091793 ], [ 2.1828113, 48.7119071 ], [ 2.174183, 48.7142252 ] ] } },
{ "type": "Feature", "properties": { "grades": "0.05,0.05,0.05,0.05,0.05,0.05,0.05,0.05,0.05,0.05,0.05,0.05,0.05,0.05,0.05,0.05" }, "geometry": { "type": "LineString", "coordinates": [ [ 2.1948502, 48.7008047 ], [ 2.1955173, 48.7008828 ], [ 2.1947072, 48.7025817 ], [ 2.1940154, 48.7038768 ], [ 2.1924311, 48.703687 ], [ 2.1907464, 48.7068709 ], [ 2.1898369, 48.7072579 ], [ 2.1891292, 48.7072323 ], [ 2.1888682, 48.7072466 ], [ 2.1887428, 48.7073048 ], [ 2.1885584, 48.7072594 ], [ 2.188236, 48.7072855 ], [ 2.1874183, 48.7086049 ], [ 2.187312, 48.7087966 ], [ 2.1871068, 48.7091793 ], [ 2.1828113, 48.7119071 ], [ 2.1793174, 48.7134406 ] ] } },
{ "type": "Feature", "properties": { "grades": "0.05,0.05,0.05,0.05,0.05,0.05,0.05,0.05,0.05,0.05,0.05,0.05,0.05,0.05,0.05,0.05,0.05" }, "geometry": { "type": "LineString", "coordinates": [ [ 2.1948502, 48.7008047 ], [ 2.1955173, 48.7008828 ], [ 2.1947072, 48.7025817 ], [ 2.1940154, 48.7038768 ], [ 2.1924311, 48.703687 ], [ 2.1907464, 48.7068709 ], [ 2.1898369, 48.7072579 ], [ 2.1891292, 48.7072323 ], [ 2.1888682, 48.7072466 ], [ 2.1887428, 48.7073048 ], [ 2.1885584, 48.7072594 ], [ 2.188236, 48.7072855 ], [ 2.1874183, 48.7086049 ], [ 2.187312, 48.7087966 ], [ 2.1871068, 48.7091793 ], [ 2.1828113, 48.7119071 ], [ 2.174183, 48.7142252 ], [ 2.1739726, 48.7141531 ] ] } },
{ "type": "Feature", "properties": { "grades": "0.05,0.05,0.05,0.05,0.05,0.05,0.05,0.05,0.05,0.05,0.05,0.05,0.05,0.05,0.05,0.05,0.05,0.05" }, "geometry": { "type": "LineString", "coordinates": [ [ 2.1948502, 48.7008047 ], [ 2.1955173, 48.7008828 ], [ 2.1947072, 48.7025817 ], [ 2.1940154, 48.7038768 ], [ 2.1924311, 48.703687 ], [ 2.1907464, 48.7068709 ], [ 2.1898369, 48.7072579 ], [ 2.1891292, 48.7072323 ], [ 2.1888682, 48.7072466 ], [ 2.1887428, 48.7073048 ], [ 2.1885584, 48.7072594 ], [ 2.188236, 48.7072855 ], [ 2.1874183, 48.7086049 ], [ 2.187312, 48.7087966 ], [ 2.1871068, 48.7091793 ], [ 2.1828113, 48.7119071 ], [ 2.174183, 48.7142252 ], [ 2.1739726, 48.7141531 ], [ 2.1738665, 48.7141421 ] ] } },
{ "type": "Feature", "properties": { "grades": "0.05,0.05,0.05,0.05,0.05,0.05,0.05,0.05,0.05,0.05,0.05,0.05,0.05,0.05,0.05,0.05,0.05,0.05,0.05" }, "geometry": { "type": "LineString", "coordinates": [ [ 2.1948502, 48.7008047 ], [ 2.1955173, 48.7008828 ], [ 2.1947072, 48.7025817 ], [ 2.1940154, 48.7038768 ], [ 2.1924311, 48.703687 ], [ 2.1907464, 48.7068709 ], [ 2.1898369, 48.7072579 ], [ 2.1891292, 48.7072323 ], [ 2.1888682, 48.7072466 ], [ 2.1887428, 48.7073048 ], [ 2.1885584, 48.7072594 ], [ 2.188236, 48.7072855 ], [ 2.1874183, 48.7086049 ], [ 2.187312, 48.7087966 ], [ 2.1871068, 48.7091793 ], [ 2.1828113, 48.7119071 ], [ 2.174183, 48.7142252 ], [ 2.1739726, 48.7141531 ], [ 2.1738665, 48.7141421 ], [ 2.1734148, 48.7143919 ] ] } },
{ "type": "Feature", "properties": { "grades": "0.05,0.05,0.05,0.05,0.05,0.05,0.05,0.05,0.05,0.05,0.05" }, "geometry": { "type": "LineString", "coordinates": [ [ 2.1957045, 48.702659 ], [ 2.1957456, 48.7039774 ], [ 2.1959211, 48.7040121 ], [ 2.1958351, 48.7040894 ], [ 2.1959366, 48.7047393 ], [ 2.1960076, 48.7047998 ], [ 2.1958762, 48.7048411 ], [ 2.1952308, 48.7059336 ], [ 2.1953003, 48.7067984 ], [ 2.1934133, 48.7071262 ], [ 2.1931264, 48.7072502 ], [ 2.1921564, 48.7083131 ] ] } },
{ "type": "Feature", "properties": { "grades": "0.05,0.05,0.05,0.05,0.05,0.05,0.05,0.05,0.05,0.05,0.05,0.05" }, "geometry": { "type": "LineString", "coordinates": [ [ 2.1957045, 48.702659 ], [ 2.1957456, 48.7039774 ], [ 2.1959211, 48.7040121 ], [ 2.1958351, 48.7040894 ], [ 2.1959366, 48.7047393 ], [ 2.1960076, 48.7047998 ], [ 2.1958762, 48.7048411 ], [ 2.1952308, 48.7059336 ], [ 2.1953003, 48.7067984 ], [ 2.1934133, 48.7071262 ], [ 2.1931264, 48.7072502 ], [ 2.1902738, 48.7081156 ], [ 2.1908331, 48.7084832 ] ] } },
{ "type": "Feature", "properties": { "grades": "0.05,0.05,0.05,0.05,0.05,0.05,0.05,0.05,0.05,0.05,0.05,0.05" }, "geometry": { "type": "LineString", "coordinates": [ [ 2.1957045, 48.702659 ], [ 2.1957456, 48.7039774 ], [ 2.1959211, 48.7040121 ], [ 2.1958351, 48.7040894 ], [ 2.1959366, 48.7047393 ], [ 2.1960076, 48.7047998 ], [ 2.1958762, 48.7048411 ], [ 2.1952308, 48.7059336 ], [ 2.1953003, 48.7067984 ], [ 2.1934133, 48.7071262 ], [ 2.1931264, 48.7072502 ], [ 2.1902738, 48.7081156 ], [ 2.1898258, 48.7095833 ] ] } },
{ "type": "Feature", "properties": { "grades": "0.05,0.05,0.05,0.05,0.05,0.05,0.05,0.05,0.05,0.05,0.05,0.05" }, "geometry": { "type": "LineString", "coordinates": [ [ 2.1957045, 48.702659 ], [ 2.1957456, 48.7039774 ], [ 2.1959211, 48.7040121 ], [ 2.1958351, 48.7040894 ], [ 2.1959366, 48.7047393 ], [ 2.1960076, 48.7047998 ], [ 2.1958762, 48.7048411 ], [ 2.1952308, 48.7059336 ], [ 2.1953003, 48.7067984 ], [ 2.1957482, 48.7068623 ], [ 2.1972353, 48.7072327 ], [ 2.1973199, 48.7078652 ], [ 2.1953178, 48.7079032 ] ] } },
{ "type": "Feature", "properties": { "grades": "0.05,0.05,0.05,0.05,0.05,0.05,0.05,0.05,0.05,0.05,0.05,0.05,0.05" }, "geometry": { "type": "LineString", "coordinates": [ [ 2.1957045, 48.702659 ], [ 2.1957456, 48.7039774 ], [ 2.1959211, 48.7040121 ], [ 2.1958351, 48.7040894 ], [ 2.1959366, 48.7047393 ], [ 2.1960076, 48.7047998 ], [ 2.1958762, 48.7048411 ], [ 2.1952308, 48.7059336 ], [ 2.1953003, 48.7067984 ], [ 2.1957482, 48.7068623 ], [ 2.1972353, 48.7072327 ], [ 2.1973199, 48.7078652 ], [ 2.1953178, 48.7079032 ], [ 2.1927729, 48.70845 ] ] } },
{ "type": "Feature", "properties": { "grades": "0.05,0.05,0.05,0.05,0.05,0.05,0.05,0.05,0.05,0.05,0.05,0.05,0.05" }, "geometry": { "type": "LineString", "coordinates": [ [ 2.1957045, 48.702659 ], [ 2.1957456, 48.7039774 ], [ 2.1959211, 48.7040121 ], [ 2.1958351, 48.7040894 ], [ 2.1959366, 48.7047393 ], [ 2.1960076, 48.7047998 ], [ 2.1958762, 48.7048411 ], [ 2.1952308, 48.7059336 ], [ 2.1953003, 48.7067984 ], [ 2.1957482, 48.7068623 ], [ 2.1972353, 48.7072327 ], [ 2.1973199, 48.7078652 ], [ 2.1953178, 48.7079032 ], [ 2.1982422, 48.7086752 ] ] } },
{ "type": "Feature", "properties": { "grades": "0.05,0.05,0.05,0.05,0.05,0.05,0.05,0.05" }, "geometry": { "type": "LineString", "coordinates": [ [ 2.1939864, 48.7004942 ], [ 2.1931547, 48.7026639 ], [ 2.1919592, 48.7062004 ], [ 2.1925422, 48.7064325 ], [ 2.1926267, 48.706503 ], [ 2.1928651, 48.7067014 ], [ 2.1934133, 48.7071262 ], [ 2.1931264, 48.7072502 ], [ 2.1921564, 48.7083131 ] ] } },
{ "type": "Feature", "properties": { "grades": "0.05,0.05,0.05,0.05,0.05,0.05,0.05,0.05,0.05" }, "geometry": { "type": "LineString", "coordinates": [ [ 2.1939864, 48.7004942 ], [ 2.1931547, 48.7026639 ], [ 2.1919592, 48.7062004 ], [ 2.1925422, 48.7064325 ], [ 2.1926267, 48.706503 ], [ 2.1928651, 48.7067014 ], [ 2.1934133, 48.7071262 ], [ 2.1931264, 48.7072502 ], [ 2.1902738, 48.7081156 ], [ 2.1908331, 48.7084832 ] ] } },
{ "type": "Feature", "properties": { "grades": "0.05,0.05,0.05,0.05,0.05,0.05,0.05,0.05,0.05" }, "geometry": { "type": "LineString", "coordinates": [ [ 2.1939864, 48.7004942 ], [ 2.1931547, 48.7026639 ], [ 2.1919592, 48.7062004 ], [ 2.1925422, 48.7064325 ], [ 2.1926267, 48.706503 ], [ 2.1928651, 48.7067014 ], [ 2.1934133, 48.7071262 ], [ 2.1931264, 48.7072502 ], [ 2.1902738, 48.7081156 ], [ 2.1898258, 48.7095833 ] ] } },
{ "type": "Feature", "properties": { "grades": "0.05,0.05,0.05,0.05,0.05,0.05,0.05,0.05,0.05,0.05,0.05,0.05" }, "geometry": { "type": "LineString", "coordinates": [ [ 2.1735926, 48.7020258 ], [ 2.1773514, 48.7014737 ], [ 2.1796976, 48.7016296 ], [ 2.1794039, 48.7018807 ], [ 2.1809894, 48.702081 ], [ 2.1811782, 48.7028862 ], [ 2.1812153, 48.7031443 ], [ 2.1814052, 48.7034784 ], [ 2.18157, 48.7034919 ], [ 2.1814212, 48.703552 ], [ 2.1813425, 48.7035955 ], [ 2.1813118, 48.7036829 ], [ 2.1816453, 48.7059744 ] ] } },
{ "type": "Feature", "properties": { "grades": "0.05,0.05,0.05,0.05,0.05,0.05,0.05,0.05,0.05,0.05,0.05,0.05,0.05" }, "geometry": { "type": "LineString", "coordinates": [ [ 2.1735926, 48.7020258 ], [ 2.1773514, 48.7014737 ], [ 2.1796976, 48.7016296 ], [ 2.1794039, 48.7018807 ], [ 2.1809894, 48.702081 ], [ 2.1811782, 48.7028862 ], [ 2.1812153, 48.7031443 ], [ 2.1814052, 48.7034784 ], [ 2.18157, 48.7034919 ], [ 2.1814212, 48.703552 ], [ 2.1813425, 48.7035955 ], [ 2.1813118, 48.7036829 ], [ 2.1816453, 48.7059744 ], [ 2.1814564, 48.7060033 ] ] } },
{ "type": "Feature", "properties": { "grades": "0.05,0.05,0.05,0.05,0.05,0.05,0.05,0.05,0.05,0.05,0.05" }, "geometry": { "type": "LineString", "coordinates": [ [ 2.1735926, 48.7020258 ], [ 2.1773514, 48.7014737 ], [ 2.1796976, 48.7016296 ], [ 2.1794039, 48.7018807 ], [ 2.1809894, 48.702081 ], [ 2.1811782, 48.7028862 ], [ 2.1812153, 48.7031443 ], [ 2.1814052, 48.7034784 ], [ 2.1814212, 48.703552 ], [ 2.1813425, 48.7035955 ], [ 2.1813118, 48.7036829 ], [ 2.1816453, 48.7059744 ] ] } },
{ "type": "Feature", "properties": { "grades": "0.05,0.05,0.05,0.05,0.05,0.05,0.05,0.05,0.05,0.05,0.05,0.05" }, "geometry": { "type": "LineString", "coordinates": [ [ 2.1735926, 48.7020258 ], [ 2.1773514, 48.7014737 ], [ 2.1796976, 48.7016296 ], [ 2.1794039, 48.7018807 ], [ 2.1809894, 48.702081 ], [ 2.1811782, 48.7028862 ], [ 2.1812153, 48.7031443 ], [ 2.1814052, 48.7034784 ], [ 2.1814212, 48.703552 ], [ 2.1813425, 48.7035955 ], [ 2.1813118, 48.7036829 ], [ 2.1816453, 48.7059744 ], [ 2.1814564, 48.7060033 ] ] } },
{ "type": "Feature", "properties": { "grades": "0.05,0.05,0.05,0.05,0.05,0.05,0.05,0.05,0.05" }, "geometry": { "type": "LineString", "coordinates": [ [ 2.1958351, 48.7040894 ], [ 2.1959366, 48.7047393 ], [ 2.1960076, 48.7047998 ], [ 2.1958762, 48.7048411 ], [ 2.1952308, 48.7059336 ], [ 2.1953003, 48.7067984 ], [ 2.1934133, 48.7071262 ], [ 2.1931264, 48.7072502 ], [ 2.1902738, 48.7081156 ], [ 2.1898258, 48.7095833 ] ] } },
{ "type": "Feature", "properties": { "grades": "0.05,0.05,0.05,0.05,0.05,0.05,0.05,0.05,0.05" }, "geometry": { "type": "LineString", "coordinates": [ [ 2.1958351, 48.7040894 ], [ 2.1959366, 48.7047393 ], [ 2.1960076, 48.7047998 ], [ 2.1958762, 48.7048411 ], [ 2.1952308, 48.7059336 ], [ 2.1953003, 48.7067984 ], [ 2.1957482, 48.7068623 ], [ 2.1972353, 48.7072327 ], [ 2.1973199, 48.7078652 ], [ 2.1953178, 48.7079032 ] ] } },
{ "type": "Feature", "properties": { "grades": "0.05,0.05,0.05,0.05,0.05,0.05,0.05,0.05,0.05,0.05" }, "geometry": { "type": "LineString", "coordinates": [ [ 2.1958351, 48.7040894 ], [ 2.1959366, 48.7047393 ], [ 2.1960076, 48.7047998 ], [ 2.1958762, 48.7048411 ], [ 2.1952308, 48.7059336 ], [ 2.1953003, 48.7067984 ], [ 2.1957482, 48.7068623 ], [ 2.1972353, 48.7072327 ], [ 2.1973199, 48.7078652 ], [ 2.1953178, 48.7079032 ], [ 2.1927729, 48.70845 ] ] } },
{ "type": "Feature", "properties": { "grades": "0.05,0.05,0.05,0.05,0.05,0.05,0.05,0.05,0.05,0.05" }, "geometry": { "type": "LineString", "coordinates": [ [ 2.1958351, 48.7040894 ], [ 2.1959366, 48.7047393 ], [ 2.1960076, 48.7047998 ], [ 2.1958762, 48.7048411 ], [ 2.1952308, 48.7059336 ], [ 2.1953003, 48.7067984 ], [ 2.1957482, 48.7068623 ], [ 2.1972353, 48.7072327 ], [ 2.1973199, 48.7078652 ], [ 2.1953178, 48.7079032 ], [ 2.1982422, 48.7086752 ] ] } },
{ "type": "Feature", "properties": { "grades": "0.05,0.05,0.05,0.05,0.05,0.05,0.05,0.05,0.05,0.05,0.05" }, "geometry": { "type": "LineString", "coordinates": [ [ 2.1957456, 48.7039774 ], [ 2.1959211, 48.7040121 ], [ 2.1958351, 48.7040894 ], [ 2.1959366, 48.7047393 ], [ 2.1960076, 48.7047998 ], [ 2.1958762, 48.7048411 ], [ 2.1952308, 48.7059336 ], [ 2.1953003, 48.7067984 ], [ 2.1934133, 48.7071262 ], [ 2.1931264, 48.7072502 ], [ 2.1902738, 48.7081156 ], [ 2.1898258, 48.7095833 ] ] } },
{ "type": "Feature", "properties": { "grades": "0.05,0.05,0.05,0.05,0.05,0.05,0.05,0.05,0.05,0.05,0.05" }, "geometry": { "type": "LineString", "coordinates": [ [ 2.1957456, 48.7039774 ], [ 2.1959211, 48.7040121 ], [ 2.1958351, 48.7040894 ], [ 2.1959366, 48.7047393 ], [ 2.1960076, 48.7047998 ], [ 2.1958762, 48.7048411 ], [ 2.1952308, 48.7059336 ], [ 2.1953003, 48.7067984 ], [ 2.1957482, 48.7068623 ], [ 2.1972353, 48.7072327 ], [ 2.1973199, 48.7078652 ], [ 2.1953178, 48.7079032 ] ] } },
{ "type": "Feature", "properties": { "grades": "0.05,0.05,0.05,0.05,0.05,0.05,0.05,0.05,0.05,0.05,0.05,0.05" }, "geometry": { "type": "LineString", "coordinates": [ [ 2.1957456, 48.7039774 ], [ 2.1959211, 48.7040121 ], [ 2.1958351, 48.7040894 ], [ 2.1959366, 48.7047393 ], [ 2.1960076, 48.7047998 ], [ 2.1958762, 48.7048411 ], [ 2.1952308, 48.7059336 ], [ 2.1953003, 48.7067984 ], [ 2.1957482, 48.7068623 ], [ 2.1972353, 48.7072327 ], [ 2.1973199, 48.7078652 ], [ 2.1953178, 48.7079032 ], [ 2.1927729, 48.70845 ] ] } },
{ "type": "Feature", "properties": { "grades": "0.05,0.05,0.05,0.05,0.05,0.05,0.05,0.05,0.05,0.05,0.05,0.05" }, "geometry": { "type": "LineString", "coordinates": [ [ 2.1957456, 48.7039774 ], [ 2.1959211, 48.7040121 ], [ 2.1958351, 48.7040894 ], [ 2.1959366, 48.7047393 ], [ 2.1960076, 48.7047998 ], [ 2.1958762, 48.7048411 ], [ 2.1952308, 48.7059336 ], [ 2.1953003, 48.7067984 ], [ 2.1957482, 48.7068623 ], [ 2.1972353, 48.7072327 ], [ 2.1973199, 48.7078652 ], [ 2.1953178, 48.7079032 ], [ 2.1982422, 48.7086752 ] ] } },
{ "type": "Feature", "properties": { "grades": "0.05,0.05,0.05,0.05,0.05,0.05,0.05" }, "geometry": { "type": "LineString", "coordinates": [ [ 2.1923919, 48.7058338 ], [ 2.1952308, 48.7059336 ], [ 2.1953003, 48.7067984 ], [ 2.1957482, 48.7068623 ], [ 2.1972353, 48.7072327 ], [ 2.1973199, 48.7078652 ], [ 2.1953178, 48.7079032 ], [ 2.1927729, 48.70845 ] ] } },
{ "type": "Feature", "properties": { "grades": "0.05,0.05,0.05,0.05,0.05,0.05,0.05" }, "geometry": { "type": "LineString", "coordinates": [ [ 2.1923919, 48.7058338 ], [ 2.1952308, 48.7059336 ], [ 2.1953003, 48.7067984 ], [ 2.1957482, 48.7068623 ], [ 2.1972353, 48.7072327 ], [ 2.1973199, 48.7078652 ], [ 2.1953178, 48.7079032 ], [ 2.1982422, 48.7086752 ] ] } },
{ "type": "Feature", "properties": { "grades": "0.05,0.05,0.05,0.05,0.05,0.05" }, "geometry": { "type": "LineString", "coordinates": [ [ 2.1885584, 48.7072594 ], [ 2.188236, 48.7072855 ], [ 2.1874183, 48.7086049 ], [ 2.187312, 48.7087966 ], [ 2.1871068, 48.7091793 ], [ 2.1828113, 48.7119071 ], [ 2.174183, 48.7142252 ] ] } },
{ "type": "Feature", "properties": { "grades": "0.05,0.05,0.05,0.05,0.05,0.05,0.05" }, "geometry": { "type": "LineString", "coordinates": [ [ 2.1885584, 48.7072594 ], [ 2.188236, 48.7072855 ], [ 2.1874183, 48.7086049 ], [ 2.187312, 48.7087966 ], [ 2.1871068, 48.7091793 ], [ 2.1828113, 48.7119071 ], [ 2.174183, 48.7142252 ], [ 2.1739726, 48.7141531 ] ] } },
{ "type": "Feature", "properties": { "grades": "0.05,0.05,0.05,0.05,0.05,0.05,0.05,0.05" }, "geometry": { "type": "LineString", "coordinates": [ [ 2.1885584, 48.7072594 ], [ 2.188236, 48.7072855 ], [ 2.1874183, 48.7086049 ], [ 2.187312, 48.7087966 ], [ 2.1871068, 48.7091793 ], [ 2.1828113, 48.7119071 ], [ 2.174183, 48.7142252 ], [ 2.1739726, 48.7141531 ], [ 2.1738665, 48.7141421 ] ] } },
{ "type": "Feature", "properties": { "grades": "0.05,0.05,0.05,0.05,0.05,0.05,0.05,0.05,0.05" }, "geometry": { "type": "LineString", "coordinates": [ [ 2.1885584, 48.7072594 ], [ 2.188236, 48.7072855 ], [ 2.1874183, 48.7086049 ], [ 2.187312, 48.7087966 ], [ 2.1871068, 48.7091793 ], [ 2.1828113, 48.7119071 ], [ 2.174183, 48.7142252 ], [ 2.1739726, 48.7141531 ], [ 2.1738665, 48.7141421 ], [ 2.1734148, 48.7143919 ] ] } },
{ "type": "Feature", "properties": { "grades": "0.05,0.05,0.05,0.05,0.05,0.05,0.05,0.05" }, "geometry": { "type": "LineString", "coordinates": [ [ 2.1888682, 48.7072466 ], [ 2.1887428, 48.7073048 ], [ 2.1885584, 48.7072594 ], [ 2.188236, 48.7072855 ], [ 2.1874183, 48.7086049 ], [ 2.187312, 48.7087966 ], [ 2.1871068, 48.7091793 ], [ 2.1828113, 48.7119071 ], [ 2.174183, 48.7142252 ] ] } },
{ "type": "Feature", "properties": { "grades": "0.05,0.05,0.05,0.05,0.05,0.05,0.05,0.05,0.05" }, "geometry": { "type": "LineString", "coordinates": [ [ 2.1888682, 48.7072466 ], [ 2.1887428, 48.7073048 ], [ 2.1885584, 48.7072594 ], [ 2.188236, 48.7072855 ], [ 2.1874183, 48.7086049 ], [ 2.187312, 48.7087966 ], [ 2.1871068, 48.7091793 ], [ 2.1828113, 48.7119071 ], [ 2.174183, 48.7142252 ], [ 2.1739726, 48.7141531 ] ] } },
{ "type": "Feature", "properties": { "grades": "0.05,0.05,0.05,0.05,0.05,0.05,0.05,0.05,0.05,0.05" }, "geometry": { "type": "LineString", "coordinates": [ [ 2.1888682, 48.7072466 ], [ 2.1887428, 48.7073048 ], [ 2.1885584, 48.7072594 ], [ 2.188236, 48.7072855 ], [ 2.1874183, 48.7086049 ], [ 2.187312, 48.7087966 ], [ 2.1871068, 48.7091793 ], [ 2.1828113, 48.7119071 ], [ 2.174183, 48.7142252 ], [ 2.1739726, 48.7141531 ], [ 2.1738665, 48.7141421 ] ] } },
{ "type": "Feature", "properties": { "grades": "0.05,0.05,0.05,0.05,0.05,0.05,0.05,0.05,0.05,0.05,0.05" }, "geometry": { "type": "LineString", "coordinates": [ [ 2.1888682, 48.7072466 ], [ 2.1887428, 48.7073048 ], [ 2.1885584, 48.7072594 ], [ 2.188236, 48.7072855 ], [ 2.1874183, 48.7086049 ], [ 2.187312, 48.7087966 ], [ 2.1871068, 48.7091793 ], [ 2.1828113, 48.7119071 ], [ 2.174183, 48.7142252 ], [ 2.1739726, 48.7141531 ], [ 2.1738665, 48.7141421 ], [ 2.1734148, 48.7143919 ] ] } },
{ "type": "Feature", "properties": { "grades": "0.05,0.05,0.05,0.05" }, "geometry": { "type": "LineString", "coordinates": [ [ 2.1988864, 48.706947 ], [ 2.1972353, 48.7072327 ], [ 2.1973199, 48.7078652 ], [ 2.1953178, 48.7079032 ], [ 2.1982422, 48.7086752 ] ] } },
{ "type": "Feature", "properties": { "grades": "0.05,0.05,0.05,0.05,0.05,0.05,0.05" }, "geometry": { "type": "LineString", "coordinates": [ [ 2.1958762, 48.7048411 ], [ 2.1952308, 48.7059336 ], [ 2.1953003, 48.7067984 ], [ 2.1957482, 48.7068623 ], [ 2.1972353, 48.7072327 ], [ 2.1973199, 48.7078652 ], [ 2.1953178, 48.7079032 ], [ 2.1927729, 48.70845 ] ] } },
{ "type": "Feature", "properties": { "grades": "0.05,0.05,0.05,0.05,0.05,0.05,0.05" }, "geometry": { "type": "LineString", "coordinates": [ [ 2.1958762, 48.7048411 ], [ 2.1952308, 48.7059336 ], [ 2.1953003, 48.7067984 ], [ 2.1957482, 48.7068623 ], [ 2.1972353, 48.7072327 ], [ 2.1973199, 48.7078652 ], [ 2.1953178, 48.7079032 ], [ 2.1982422, 48.7086752 ] ] } },
{ "type": "Feature", "properties": { "grades": "0.05,0.05,0.05,0.05,0.05,0.05,0.05,0.05" }, "geometry": { "type": "LineString", "coordinates": [ [ 2.1960076, 48.7047998 ], [ 2.1958762, 48.7048411 ], [ 2.1952308, 48.7059336 ], [ 2.1953003, 48.7067984 ], [ 2.1957482, 48.7068623 ], [ 2.1972353, 48.7072327 ], [ 2.1973199, 48.7078652 ], [ 2.1953178, 48.7079032 ], [ 2.1927729, 48.70845 ] ] } },
{ "type": "Feature", "properties": { "grades": "0.05,0.05,0.05,0.05,0.05,0.05,0.05,0.05" }, "geometry": { "type": "LineString", "coordinates": [ [ 2.1960076, 48.7047998 ], [ 2.1958762, 48.7048411 ], [ 2.1952308, 48.7059336 ], [ 2.1953003, 48.7067984 ], [ 2.1957482, 48.7068623 ], [ 2.1972353, 48.7072327 ], [ 2.1973199, 48.7078652 ], [ 2.1953178, 48.7079032 ], [ 2.1982422, 48.7086752 ] ] } },
{ "type": "Feature", "properties": { "grades": "0.05,0.05,0.05,0.05,0.05,0.05,0.05,0.05" }, "geometry": { "type": "LineString", "coordinates": [ [ 2.1931547, 48.7026639 ], [ 2.1919592, 48.7062004 ], [ 2.1925422, 48.7064325 ], [ 2.1926267, 48.706503 ], [ 2.1928651, 48.7067014 ], [ 2.1934133, 48.7071262 ], [ 2.1931264, 48.7072502 ], [ 2.1902738, 48.7081156 ], [ 2.1908331, 48.7084832 ] ] } },
{ "type": "Feature", "properties": { "grades": "0.05,0.05,0.05,0.05,0.05,0.05,0.05,0.05" }, "geometry": { "type": "LineString", "coordinates": [ [ 2.1931547, 48.7026639 ], [ 2.1919592, 48.7062004 ], [ 2.1925422, 48.7064325 ], [ 2.1926267, 48.706503 ], [ 2.1928651, 48.7067014 ], [ 2.1934133, 48.7071262 ], [ 2.1931264, 48.7072502 ], [ 2.1902738, 48.7081156 ], [ 2.1898258, 48.7095833 ] ] } },
{ "type": "Feature", "properties": { "grades": "0.05,0.05,0.05" }, "geometry": { "type": "LineString", "coordinates": [ [ 2.187312, 48.7087966 ], [ 2.1871068, 48.7091793 ], [ 2.1828113, 48.7119071 ], [ 2.174183, 48.7142252 ] ] } },
{ "type": "Feature", "properties": { "grades": "0.05,0.05,0.05,0.05" }, "geometry": { "type": "LineString", "coordinates": [ [ 2.187312, 48.7087966 ], [ 2.1871068, 48.7091793 ], [ 2.1828113, 48.7119071 ], [ 2.174183, 48.7142252 ], [ 2.1739726, 48.7141531 ] ] } },
{ "type": "Feature", "properties": { "grades": "0.05,0.05,0.05,0.05,0.05" }, "geometry": { "type": "LineString", "coordinates": [ [ 2.187312, 48.7087966 ], [ 2.1871068, 48.7091793 ], [ 2.1828113, 48.7119071 ], [ 2.174183, 48.7142252 ], [ 2.1739726, 48.7141531 ], [ 2.1738665, 48.7141421 ] ] } },
{ "type": "Feature", "properties": { "grades": "0.05,0.05,0.05,0.05,0.05,0.05" }, "geometry": { "type": "LineString", "coordinates": [ [ 2.187312, 48.7087966 ], [ 2.1871068, 48.7091793 ], [ 2.1828113, 48.7119071 ], [ 2.174183, 48.7142252 ], [ 2.1739726, 48.7141531 ], [ 2.1738665, 48.7141421 ], [ 2.1734148, 48.7143919 ] ] } },
{ "type": "Feature", "properties": { "grades": "0.05,0.05,0.05,0.05,0.05,0.05,0.05,0.05" }, "geometry": { "type": "LineString", "coordinates": [ [ 2.1794274, 48.7028407 ], [ 2.1811782, 48.7028862 ], [ 2.1812153, 48.7031443 ], [ 2.1814052, 48.7034784 ], [ 2.18157, 48.7034919 ], [ 2.1814212, 48.703552 ], [ 2.1813425, 48.7035955 ], [ 2.1813118, 48.7036829 ], [ 2.1816453, 48.7059744 ] ] } },
{ "type": "Feature", "properties": { "grades": "0.05,0.05,0.05,0.05,0.05,0.05,0.05,0.05,0.05" }, "geometry": { "type": "LineString", "coordinates": [ [ 2.1794274, 48.7028407 ], [ 2.1811782, 48.7028862 ], [ 2.1812153, 48.7031443 ], [ 2.1814052, 48.7034784 ], [ 2.18157, 48.7034919 ], [ 2.1814212, 48.703552 ], [ 2.1813425, 48.7035955 ], [ 2.1813118, 48.7036829 ], [ 2.1816453, 48.7059744 ], [ 2.1814564, 48.7060033 ] ] } },
{ "type": "Feature", "properties": { "grades": "0.05,0.05,0.05,0.05,0.05,0.05,0.05" }, "geometry": { "type": "LineString", "coordinates": [ [ 2.1794274, 48.7028407 ], [ 2.1811782, 48.7028862 ], [ 2.1812153, 48.7031443 ], [ 2.1814052, 48.7034784 ], [ 2.1814212, 48.703552 ], [ 2.1813425, 48.7035955 ], [ 2.1813118, 48.7036829 ], [ 2.1816453, 48.7059744 ] ] } },
{ "type": "Feature", "properties": { "grades": "0.05,0.05,0.05,0.05,0.05,0.05,0.05,0.05" }, "geometry": { "type": "LineString", "coordinates": [ [ 2.1794274, 48.7028407 ], [ 2.1811782, 48.7028862 ], [ 2.1812153, 48.7031443 ], [ 2.1814052, 48.7034784 ], [ 2.1814212, 48.703552 ], [ 2.1813425, 48.7035955 ], [ 2.1813118, 48.7036829 ], [ 2.1816453, 48.7059744 ], [ 2.1814564, 48.7060033 ] ] } },
{ "type": "Feature", "properties": { "grades": "0.05,0.05,0.05,0.05,0.05" }, "geometry": { "type": "LineString", "coordinates": [ [ 2.1814052, 48.7034784 ], [ 2.18157, 48.7034919 ], [ 2.1814212, 48.703552 ], [ 2.1813425, 48.7035955 ], [ 2.1813118, 48.7036829 ], [ 2.1816453, 48.7059744 ] ] } },
{ "type": "Feature", "properties": { "grades": "0.05,0.05,0.05,0.05,0.05,0.05" }, "geometry": { "type": "LineString", "coordinates": [ [ 2.1814052, 48.7034784 ], [ 2.18157, 48.7034919 ], [ 2.1814212, 48.703552 ], [ 2.1813425, 48.7035955 ], [ 2.1813118, 48.7036829 ], [ 2.1816453, 48.7059744 ], [ 2.1814564, 48.7060033 ] ] } },
{ "type": "Feature", "properties": { "grades": "0.05,0.05,0.05,0.05" }, "geometry": { "type": "LineString", "coordinates": [ [ 2.1814052, 48.7034784 ], [ 2.1814212, 48.703552 ], [ 2.1813425, 48.7035955 ], [ 2.1813118, 48.7036829 ], [ 2.1816453, 48.7059744 ] ] } },
{ "type": "Feature", "properties": { "grades": "0.05,0.05,0.05,0.05,0.05" }, "geometry": { "type": "LineString", "coordinates": [ [ 2.1814052, 48.7034784 ], [ 2.1814212, 48.703552 ], [ 2.1813425, 48.7035955 ], [ 2.1813118, 48.7036829 ], [ 2.1816453, 48.7059744 ], [ 2.1814564, 48.7060033 ] ] } },
{ "type": "Feature", "properties": { "grades": "0.05,0.05" }, "geometry": { "type": "LineString", "coordinates": [ [ 2.1813425, 48.7035955 ], [ 2.1813118, 48.7036829 ], [ 2.1816453, 48.7059744 ] ] } },
{ "type": "Feature", "properties": { "grades": "0.05,0.05,0.05" }, "geometry": { "type": "LineString", "coordinates": [ [ 2.1813425, 48.7035955 ], [ 2.1813118, 48.7036829 ], [ 2.1816453, 48.7059744 ], [ 2.1814564, 48.7060033 ] ] } },
{ "type": "Feature", "properties": { "grades": "0.05,0.05,0.05,0.05" }, "geometry": { "type": "LineString", "coordinates": [ [ 2.18157, 48.7034919 ], [ 2.1814212, 48.703552 ], [ 2.1813425, 48.7035955 ], [ 2.1813118, 48.7036829 ], [ 2.1816453, 48.7059744 ] ] } },
{ "type": "Feature", "properties": { "grades": "0.05,0.05,0.05,0.05,0.05" }, "geometry": { "type": "LineString", "coordinates": [ [ 2.18157, 48.7034919 ], [ 2.1814212, 48.703552 ], [ 2.1813425, 48.7035955 ], [ 2.1813118, 48.7036829 ], [ 2.1816453, 48.7059744 ], [ 2.1814564, 48.7060033 ] ] } },
{ "type": "Feature", "properties": { "grades": "0.05,0.05,0.05" }, "geometry": { "type": "LineString", "coordinates": [ [ 2.1812053, 48.7035289 ], [ 2.1813425, 48.7035955 ], [ 2.1813118, 48.7036829 ], [ 2.1816453, 48.7059744 ] ] } },
{ "type": "Feature", "properties": { "grades": "0.05,0.05,0.05,0.05" }, "geometry": { "type": "LineString", "coordinates": [ [ 2.1812053, 48.7035289 ], [ 2.1813425, 48.7035955 ], [ 2.1813118, 48.7036829 ], [ 2.1816453, 48.7059744 ], [ 2.1814564, 48.7060033 ] ] } },
{ "type": "Feature", "properties": { "grades": "0.05,0.05,0.05,0.05,0.05,0.05,0.05,0.05,0.05,0.05" }, "geometry": { "type": "LineString", "coordinates": [ [ 2.1845885, 48.6966555 ], [ 2.1845591, 48.6965612 ], [ 2.1845789, 48.6965381 ], [ 2.1845486, 48.6964113 ], [ 2.1825195, 48.6942342 ], [ 2.1824256, 48.6941366 ], [ 2.1811122, 48.6925342 ], [ 2.1811253, 48.691774 ], [ 2.181429, 48.6899519 ], [ 2.1832311, 48.6880969 ], [ 2.1845664, 48.6870219 ] ] } },
{ "type": "Feature", "properties": { "grades": "0.05,0.05,0.05,0.05,0.05,0.05,0.05,0.05,0.05,0.05" }, "geometry": { "type": "LineString", "coordinates": [ [ 2.1845885, 48.6966555 ], [ 2.1845591, 48.6965612 ], [ 2.1845789, 48.6965381 ], [ 2.1845486, 48.6964113 ], [ 2.1825195, 48.6942342 ], [ 2.1824256, 48.6941366 ], [ 2.1811122, 48.6925342 ], [ 2.1811253, 48.691774 ], [ 2.181429, 48.6899519 ], [ 2.1832311, 48.6880969 ], [ 2.1814471, 48.6880872 ] ] } },
{ "type": "Feature", "properties": { "grades": "0.05,0.05,0.05,0.05,0.05,0.05,0.05,0.05,0.05,0.05,0.05" }, "geometry": { "type": "LineString", "coordinates": [ [ 2.1845885, 48.6966555 ], [ 2.1845591, 48.6965612 ], [ 2.1845789, 48.6965381 ], [ 2.1845486, 48.6964113 ], [ 2.1825195, 48.6942342 ], [ 2.1824256, 48.6941366 ], [ 2.1811122, 48.6925342 ], [ 2.1811253, 48.691774 ], [ 2.181429, 48.6899519 ], [ 2.1832311, 48.6880969 ], [ 2.1814471, 48.6880872 ], [ 2.1805708, 48.6876533 ] ] } },
{ "type": "Feature", "properties": { "grades": "0.05,0.05,0.05,0.05,0.05,0.05,0.05,0.05,0.05,0.05,0.05,0.05,0.05" }, "geometry": { "type": "LineString", "coordinates": [ [ 2.1845885, 48.6966555 ], [ 2.1845591, 48.6965612 ], [ 2.1845789, 48.6965381 ], [ 2.1845486, 48.6964113 ], [ 2.1825195, 48.6942342 ], [ 2.1824256, 48.6941366 ], [ 2.1811122, 48.6925342 ], [ 2.1811253, 48.691774 ], [ 2.181429, 48.6899519 ], [ 2.1832311, 48.6880969 ], [ 2.1814471, 48.6880872 ], [ 2.1805708, 48.6876533 ], [ 2.1806329, 48.6874369 ], [ 2.1796785, 48.6875626 ] ] } },
{ "type": "Feature", "properties": { "grades": "0.05,0.05,0.05,0.05,0.05,0.05,0.05,0.05,0.05,0.05,0.05" }, "geometry": { "type": "LineString", "coordinates": [ [ 2.1845885, 48.6966555 ], [ 2.1845591, 48.6965612 ], [ 2.1845789, 48.6965381 ], [ 2.1845486, 48.6964113 ], [ 2.1825195, 48.6942342 ], [ 2.1824256, 48.6941366 ], [ 2.1811122, 48.6925342 ], [ 2.1811253, 48.691774 ], [ 2.181429, 48.6899519 ], [ 2.1832311, 48.6880969 ], [ 2.1845664, 48.6870219 ], [ 2.1839053, 48.686569 ] ] } },
{ "type": "Feature", "properties": { "grades": "0.05,0.05,0.05,0.05,0.05,0.05,0.05,0.05,0.05,0.05,0.05" }, "geometry": { "type": "LineString", "coordinates": [ [ 2.1845885, 48.6966555 ], [ 2.1845591, 48.6965612 ], [ 2.1845789, 48.6965381 ], [ 2.1845486, 48.6964113 ], [ 2.1825195, 48.6942342 ], [ 2.1824256, 48.6941366 ], [ 2.1811122, 48.6925342 ], [ 2.1811253, 48.691774 ], [ 2.181429, 48.6899519 ], [ 2.1832311, 48.6880969 ], [ 2.1845664, 48.6870219 ], [ 2.1863376, 48.6864837 ] ] } },
{ "type": "Feature", "properties": { "grades": "0.05,0.05,0.05,0.05,0.05,0.05,0.05,0.05,0.05,0.05,0.05,0.05" }, "geometry": { "type": "LineString", "coordinates": [ [ 2.1845885, 48.6966555 ], [ 2.1845591, 48.6965612 ], [ 2.1845789, 48.6965381 ], [ 2.1845486, 48.6964113 ], [ 2.1825195, 48.6942342 ], [ 2.1824256, 48.6941366 ], [ 2.1811122, 48.6925342 ], [ 2.1811253, 48.691774 ], [ 2.181429, 48.6899519 ], [ 2.1832311, 48.6880969 ], [ 2.1845664, 48.6870219 ], [ 2.1863376, 48.6864837 ], [ 2.1872428, 48.6862357 ] ] } },
{ "type": "Feature", "properties": { "grades": "0.05,0.05,0.05,0.05,0.05,0.05,0.05,0.05,0.05,0.05,0.05,0.05,0.05" }, "geometry": { "type": "LineString", "coordinates": [ [ 2.1845885, 48.6966555 ], [ 2.1845591, 48.6965612 ], [ 2.1845789, 48.6965381 ], [ 2.1845486, 48.6964113 ], [ 2.1825195, 48.6942342 ], [ 2.1824256, 48.6941366 ], [ 2.1811122, 48.6925342 ], [ 2.1811253, 48.691774 ], [ 2.181429, 48.6899519 ], [ 2.1832311, 48.6880969 ], [ 2.1845664, 48.6870219 ], [ 2.1863376, 48.6864837 ], [ 2.1872428, 48.6862357 ], [ 2.1879699, 48.6851707 ] ] } },
{ "type": "Feature", "properties": { "grades": "0.05,0.05,0.05,0.05,0.05,0.05,0.05,0.05,0.05,0.05,0.05,0.05" }, "geometry": { "type": "LineString", "coordinates": [ [ 2.1845885, 48.6966555 ], [ 2.1845591, 48.6965612 ], [ 2.1845789, 48.6965381 ], [ 2.1845486, 48.6964113 ], [ 2.1825195, 48.6942342 ], [ 2.1824256, 48.6941366 ], [ 2.1811122, 48.6925342 ], [ 2.1811253, 48.691774 ], [ 2.181429, 48.6899519 ], [ 2.1832311, 48.6880969 ], [ 2.1845664, 48.6870219 ], [ 2.1839053, 48.686569 ], [ 2.1838157, 48.6857572 ] ] } },
{ "type": "Feature", "properties": { "grades": "0.05,0.05,0.05,0.05,0.05,0.05,0.05,0.05,0.05,0.05,0.05,0.05,0.05" }, "geometry": { "type": "LineString", "coordinates": [ [ 2.1845885, 48.6966555 ], [ 2.1845591, 48.6965612 ], [ 2.1845789, 48.6965381 ], [ 2.1845486, 48.6964113 ], [ 2.1825195, 48.6942342 ], [ 2.1824256, 48.6941366 ], [ 2.1811122, 48.6925342 ], [ 2.1811253, 48.691774 ], [ 2.181429, 48.6899519 ], [ 2.1832311, 48.6880969 ], [ 2.1845664, 48.6870219 ], [ 2.1839053, 48.686569 ], [ 2.1838157, 48.6857572 ], [ 2.1836103, 48.6848082 ] ] } },
{ "type": "Feature", "properties": { "grades": "0.05,0.05,0.05,0.05,0.05,0.05,0.05,0.05,0.05,0.05,0.05,0.05,0.05" }, "geometry": { "type": "LineString", "coordinates": [ [ 2.1845885, 48.6966555 ], [ 2.1845591, 48.6965612 ], [ 2.1845789, 48.6965381 ], [ 2.1845486, 48.6964113 ], [ 2.1825195, 48.6942342 ], [ 2.1824256, 48.6941366 ], [ 2.1811122, 48.6925342 ], [ 2.1811253, 48.691774 ], [ 2.181429, 48.6899519 ], [ 2.1832311, 48.6880969 ], [ 2.1845664, 48.6870219 ], [ 2.1839053, 48.686569 ], [ 2.1838157, 48.6857572 ], [ 2.1831181, 48.6857748 ] ] } },
{ "type": "Feature", "properties": { "grades": "0.05,0.05,0.05,0.05,0.05,0.05,0.05,0.05,0.05,0.05,0.05,0.05,0.05,0.05" }, "geometry": { "type": "LineString", "coordinates": [ [ 2.1845885, 48.6966555 ], [ 2.1845591, 48.6965612 ], [ 2.1845789, 48.6965381 ], [ 2.1845486, 48.6964113 ], [ 2.1825195, 48.6942342 ], [ 2.1824256, 48.6941366 ], [ 2.1811122, 48.6925342 ], [ 2.1811253, 48.691774 ], [ 2.181429, 48.6899519 ], [ 2.1832311, 48.6880969 ], [ 2.1845664, 48.6870219 ], [ 2.1839053, 48.686569 ], [ 2.1838157, 48.6857572 ], [ 2.1836103, 48.6848082 ], [ 2.1834155, 48.6840234 ] ] } },
{ "type": "Feature", "properties": { "grades": "0.05,0.05,0.05,0.05,0.05,0.05,0.05,0.05,0.05,0.05,0.05" }, "geometry": { "type": "LineString", "coordinates": [ [ 2.1845885, 48.6966555 ], [ 2.1845591, 48.6965612 ], [ 2.1845789, 48.6965381 ], [ 2.1845486, 48.6964113 ], [ 2.1825195, 48.6942342 ], [ 2.1824256, 48.6941366 ], [ 2.1811122, 48.6925342 ], [ 2.1811253, 48.691774 ], [ 2.1798754, 48.6916568 ], [ 2.179681, 48.6909561 ], [ 2.1784147, 48.6906239 ], [ 2.1779981, 48.6899871 ] ] } },
{ "type": "Feature", "properties": { "grades": "0.05,0.05,0.05,0.05,0.05,0.05,0.05,0.05,0.05,0.05,0.05" }, "geometry": { "type": "LineString", "coordinates": [ [ 2.1845885, 48.6966555 ], [ 2.1845591, 48.6965612 ], [ 2.1845789, 48.6965381 ], [ 2.1845486, 48.6964113 ], [ 2.1825195, 48.6942342 ], [ 2.1824256, 48.6941366 ], [ 2.1811122, 48.6925342 ], [ 2.1811253, 48.691774 ], [ 2.1798754, 48.6916568 ], [ 2.179681, 48.6909561 ], [ 2.1784147, 48.6906239 ], [ 2.1748821, 48.6906773 ] ] } },
{ "type": "Feature", "properties": { "grades": "0.05,0.05,0.05,0.05,0.05,0.05,0.05,0.05,0.05,0.05,0.05,0.05,0.05" }, "geometry": { "type": "LineString", "coordinates": [ [ 2.1845885, 48.6966555 ], [ 2.1845591, 48.6965612 ], [ 2.1845789, 48.6965381 ], [ 2.1845486, 48.6964113 ], [ 2.1825195, 48.6942342 ], [ 2.1824256, 48.6941366 ], [ 2.1811122, 48.6925342 ], [ 2.1811253, 48.691774 ], [ 2.1798754, 48.6916568 ], [ 2.179681, 48.6909561 ], [ 2.1784147, 48.6906239 ], [ 2.1748821, 48.6906773 ], [ 2.177453, 48.6897118 ], [ 2.1770107, 48.6893703 ] ] } },
{ "type": "Feature", "properties": { "grades": "0.05,0.05,0.05,0.05,0.05,0.05,0.05,0.05,0.05,0.05,0.05,0.05,0.05" }, "geometry": { "type": "LineString", "coordinates": [ [ 2.1845885, 48.6966555 ], [ 2.1845591, 48.6965612 ], [ 2.1845789, 48.6965381 ], [ 2.1845486, 48.6964113 ], [ 2.1825195, 48.6942342 ], [ 2.1824256, 48.6941366 ], [ 2.1811122, 48.6925342 ], [ 2.1811253, 48.691774 ], [ 2.1798754, 48.6916568 ], [ 2.179681, 48.6909561 ], [ 2.1784147, 48.6906239 ], [ 2.1779981, 48.6899871 ], [ 2.177453, 48.6897118 ], [ 2.1770107, 48.6893703 ] ] } },
{ "type": "Feature", "properties": { "grades": "0.05,0.05,0.05,0.05,0.05,0.05,0.05,0.05,0.05,0.05,0.05" }, "geometry": { "type": "LineString", "coordinates": [ [ 2.1845885, 48.6966555 ], [ 2.1845591, 48.6965612 ], [ 2.1845789, 48.6965381 ], [ 2.1845486, 48.6964113 ], [ 2.1825195, 48.6942342 ], [ 2.1824256, 48.6941366 ], [ 2.1811122, 48.6925342 ], [ 2.1811253, 48.691774 ], [ 2.1798754, 48.6916568 ], [ 2.179681, 48.6909561 ], [ 2.1814471, 48.6880872 ], [ 2.1805708, 48.6876533 ] ] } },
{ "type": "Feature", "properties": { "grades": "0.05,0.05,0.05,0.05,0.05,0.05,0.05,0.05,0.05,0.05,0.05,0.05,0.05" }, "geometry": { "type": "LineString", "coordinates": [ [ 2.1845885, 48.6966555 ], [ 2.1845591, 48.6965612 ], [ 2.1845789, 48.6965381 ], [ 2.1845486, 48.6964113 ], [ 2.1825195, 48.6942342 ], [ 2.1824256, 48.6941366 ], [ 2.1811122, 48.6925342 ], [ 2.1811253, 48.691774 ], [ 2.1798754, 48.6916568 ], [ 2.179681, 48.6909561 ], [ 2.1814471, 48.6880872 ], [ 2.1805708, 48.6876533 ], [ 2.1806329, 48.6874369 ], [ 2.1796785, 48.6875626 ] ] } },
{ "type": "Feature", "properties": { "grades": "0.05,0.05,0.05,0.05,0.05,0.05" }, "geometry": { "type": "LineString", "coordinates": [ [ 2.1871551, 48.707699 ], [ 2.1863577, 48.7080236 ], [ 2.1861206, 48.7080007 ], [ 2.1854938, 48.7077296 ], [ 2.1856358, 48.7058096 ], [ 2.1849935, 48.7056715 ], [ 2.1800434, 48.7076911 ] ] } },
{ "type": "Feature", "properties": { "grades": "0.05,0.05,0.05,0.05,0.05,0.05" }, "geometry": { "type": "LineString", "coordinates": [ [ 2.1824256, 48.6941366 ], [ 2.1811122, 48.6925342 ], [ 2.1811253, 48.691774 ], [ 2.181429, 48.6899519 ], [ 2.1832311, 48.6880969 ], [ 2.1814471, 48.6880872 ], [ 2.1805708, 48.6876533 ] ] } },
{ "type": "Feature", "properties": { "grades": "0.05,0.05,0.05,0.05,0.05,0.05,0.05,0.05" }, "geometry": { "type": "LineString", "coordinates": [ [ 2.1824256, 48.6941366 ], [ 2.1811122, 48.6925342 ], [ 2.1811253, 48.691774 ], [ 2.181429, 48.6899519 ], [ 2.1832311, 48.6880969 ], [ 2.1814471, 48.6880872 ], [ 2.1805708, 48.6876533 ], [ 2.1806329, 48.6874369 ], [ 2.1796785, 48.6875626 ] ] } },
{ "type": "Feature", "properties": { "grades": "0.05,0.05,0.05,0.05,0.05,0.05" }, "geometry": { "type": "LineString", "coordinates": [ [ 2.1824256, 48.6941366 ], [ 2.1811122, 48.6925342 ], [ 2.1811253, 48.691774 ], [ 2.181429, 48.6899519 ], [ 2.1832311, 48.6880969 ], [ 2.1845664, 48.6870219 ], [ 2.1839053, 48.686569 ] ] } },
{ "type": "Feature", "properties": { "grades": "0.05,0.05,0.05,0.05,0.05,0.05" }, "geometry": { "type": "LineString", "coordinates": [ [ 2.1824256, 48.6941366 ], [ 2.1811122, 48.6925342 ], [ 2.1811253, 48.691774 ], [ 2.181429, 48.6899519 ], [ 2.1832311, 48.6880969 ], [ 2.1845664, 48.6870219 ], [ 2.1863376, 48.6864837 ] ] } },
{ "type": "Feature", "properties": { "grades": "0.05,0.05,0.05,0.05,0.05,0.05,0.05" }, "geometry": { "type": "LineString", "coordinates": [ [ 2.1824256, 48.6941366 ], [ 2.1811122, 48.6925342 ], [ 2.1811253, 48.691774 ], [ 2.181429, 48.6899519 ], [ 2.1832311, 48.6880969 ], [ 2.1845664, 48.6870219 ], [ 2.1863376, 48.6864837 ], [ 2.1872428, 48.6862357 ] ] } },
{ "type": "Feature", "properties": { "grades": "0.05,0.05,0.05,0.05,0.05,0.05,0.05,0.05" }, "geometry": { "type": "LineString", "coordinates": [ [ 2.1824256, 48.6941366 ], [ 2.1811122, 48.6925342 ], [ 2.1811253, 48.691774 ], [ 2.181429, 48.6899519 ], [ 2.1832311, 48.6880969 ], [ 2.1845664, 48.6870219 ], [ 2.1863376, 48.6864837 ], [ 2.1872428, 48.6862357 ], [ 2.1879699, 48.6851707 ] ] } },
{ "type": "Feature", "properties": { "grades": "0.05,0.05,0.05,0.05,0.05,0.05,0.05" }, "geometry": { "type": "LineString", "coordinates": [ [ 2.1824256, 48.6941366 ], [ 2.1811122, 48.6925342 ], [ 2.1811253, 48.691774 ], [ 2.181429, 48.6899519 ], [ 2.1832311, 48.6880969 ], [ 2.1845664, 48.6870219 ], [ 2.1839053, 48.686569 ], [ 2.1838157, 48.6857572 ] ] } },
{ "type": "Feature", "properties": { "grades": "0.05,0.05,0.05,0.05,0.05,0.05,0.05,0.05" }, "geometry": { "type": "LineString", "coordinates": [ [ 2.1824256, 48.6941366 ], [ 2.1811122, 48.6925342 ], [ 2.1811253, 48.691774 ], [ 2.181429, 48.6899519 ], [ 2.1832311, 48.6880969 ], [ 2.1845664, 48.6870219 ], [ 2.1839053, 48.686569 ], [ 2.1838157, 48.6857572 ], [ 2.1836103, 48.6848082 ] ] } },
{ "type": "Feature", "properties": { "grades": "0.05,0.05,0.05,0.05,0.05,0.05,0.05,0.05" }, "geometry": { "type": "LineString", "coordinates": [ [ 2.1824256, 48.6941366 ], [ 2.1811122, 48.6925342 ], [ 2.1811253, 48.691774 ], [ 2.181429, 48.6899519 ], [ 2.1832311, 48.6880969 ], [ 2.1845664, 48.6870219 ], [ 2.1839053, 48.686569 ], [ 2.1838157, 48.6857572 ], [ 2.1831181, 48.6857748 ] ] } },
{ "type": "Feature", "properties": { "grades": "0.05,0.05,0.05,0.05,0.05,0.05,0.05,0.05,0.05" }, "geometry": { "type": "LineString", "coordinates": [ [ 2.1824256, 48.6941366 ], [ 2.1811122, 48.6925342 ], [ 2.1811253, 48.691774 ], [ 2.181429, 48.6899519 ], [ 2.1832311, 48.6880969 ], [ 2.1845664, 48.6870219 ], [ 2.1839053, 48.686569 ], [ 2.1838157, 48.6857572 ], [ 2.1836103, 48.6848082 ], [ 2.1834155, 48.6840234 ] ] } },
{ "type": "Feature", "properties": { "grades": "0.05,0.05,0.05,0.05,0.05,0.05" }, "geometry": { "type": "LineString", "coordinates": [ [ 2.1824256, 48.6941366 ], [ 2.1811122, 48.6925342 ], [ 2.1811253, 48.691774 ], [ 2.1798754, 48.6916568 ], [ 2.179681, 48.6909561 ], [ 2.1784147, 48.6906239 ], [ 2.1779981, 48.6899871 ] ] } },
{ "type": "Feature", "properties": { "grades": "0.05,0.05,0.05,0.05,0.05,0.05" }, "geometry": { "type": "LineString", "coordinates": [ [ 2.1824256, 48.6941366 ], [ 2.1811122, 48.6925342 ], [ 2.1811253, 48.691774 ], [ 2.1798754, 48.6916568 ], [ 2.179681, 48.6909561 ], [ 2.1784147, 48.6906239 ], [ 2.1748821, 48.6906773 ] ] } },
{ "type": "Feature", "properties": { "grades": "0.05,0.05,0.05,0.05,0.05,0.05,0.05,0.05" }, "geometry": { "type": "LineString", "coordinates": [ [ 2.1824256, 48.6941366 ], [ 2.1811122, 48.6925342 ], [ 2.1811253, 48.691774 ], [ 2.1798754, 48.6916568 ], [ 2.179681, 48.6909561 ], [ 2.1784147, 48.6906239 ], [ 2.1748821, 48.6906773 ], [ 2.177453, 48.6897118 ], [ 2.1770107, 48.6893703 ] ] } },
{ "type": "Feature", "properties": { "grades": "0.05,0.05,0.05,0.05,0.05,0.05,0.05,0.05" }, "geometry": { "type": "LineString", "coordinates": [ [ 2.1824256, 48.6941366 ], [ 2.1811122, 48.6925342 ], [ 2.1811253, 48.691774 ], [ 2.1798754, 48.6916568 ], [ 2.179681, 48.6909561 ], [ 2.1784147, 48.6906239 ], [ 2.1779981, 48.6899871 ], [ 2.177453, 48.6897118 ], [ 2.1770107, 48.6893703 ] ] } },
{ "type": "Feature", "properties": { "grades": "0.05,0.05,0.05,0.05,0.05,0.05" }, "geometry": { "type": "LineString", "coordinates": [ [ 2.1824256, 48.6941366 ], [ 2.1811122, 48.6925342 ], [ 2.1811253, 48.691774 ], [ 2.1798754, 48.6916568 ], [ 2.179681, 48.6909561 ], [ 2.1814471, 48.6880872 ], [ 2.1805708, 48.6876533 ] ] } },
{ "type": "Feature", "properties": { "grades": "0.05,0.05,0.05,0.05,0.05,0.05,0.05,0.05" }, "geometry": { "type": "LineString", "coordinates": [ [ 2.1824256, 48.6941366 ], [ 2.1811122, 48.6925342 ], [ 2.1811253, 48.691774 ], [ 2.1798754, 48.6916568 ], [ 2.179681, 48.6909561 ], [ 2.1814471, 48.6880872 ], [ 2.1805708, 48.6876533 ], [ 2.1806329, 48.6874369 ], [ 2.1796785, 48.6875626 ] ] } },
{ "type": "Feature", "properties": { "grades": "0.05,0.05,0.05,0.05,0.05,0.05" }, "geometry": { "type": "LineString", "coordinates": [ [ 2.1909514, 48.7052546 ], [ 2.1893133, 48.7064186 ], [ 2.1874533, 48.7061163 ], [ 2.1872948, 48.7060815 ], [ 2.1856358, 48.7058096 ], [ 2.1849935, 48.7056715 ], [ 2.1800434, 48.7076911 ] ] } },
{ "type": "Feature", "properties": { "grades": "0.05,0.05,0.05,0.05,0.05,0.05,0.05,0.05" }, "geometry": { "type": "LineString", "coordinates": [ [ 2.1845789, 48.6965381 ], [ 2.1845486, 48.6964113 ], [ 2.1825195, 48.6942342 ], [ 2.1824256, 48.6941366 ], [ 2.1811122, 48.6925342 ], [ 2.1811253, 48.691774 ], [ 2.181429, 48.6899519 ], [ 2.1832311, 48.6880969 ], [ 2.1845664, 48.6870219 ] ] } },
{ "type": "Feature", "properties": { "grades": "0.05,0.05,0.05,0.05,0.05,0.05,0.05,0.05" }, "geometry": { "type": "LineString", "coordinates": [ [ 2.1845789, 48.6965381 ], [ 2.1845486, 48.6964113 ], [ 2.1825195, 48.6942342 ], [ 2.1824256, 48.6941366 ], [ 2.1811122, 48.6925342 ], [ 2.1811253, 48.691774 ], [ 2.181429, 48.6899519 ], [ 2.1832311, 48.6880969 ], [ 2.1814471, 48.6880872 ] ] } },
{ "type": "Feature", "properties": { "grades": "0.05,0.05,0.05,0.05,0.05,0.05,0.05,0.05,0.05" }, "geometry": { "type": "LineString", "coordinates": [ [ 2.1845789, 48.6965381 ], [ 2.1845486, 48.6964113 ], [ 2.1825195, 48.6942342 ], [ 2.1824256, 48.6941366 ], [ 2.1811122, 48.6925342 ], [ 2.1811253, 48.691774 ], [ 2.181429, 48.6899519 ], [ 2.1832311, 48.6880969 ], [ 2.1814471, 48.6880872 ], [ 2.1805708, 48.6876533 ] ] } },
{ "type": "Feature", "properties": { "grades": "0.05,0.05,0.05,0.05,0.05,0.05,0.05,0.05,0.05,0.05,0.05" }, "geometry": { "type": "LineString", "coordinates": [ [ 2.1845789, 48.6965381 ], [ 2.1845486, 48.6964113 ], [ 2.1825195, 48.6942342 ], [ 2.1824256, 48.6941366 ], [ 2.1811122, 48.6925342 ], [ 2.1811253, 48.691774 ], [ 2.181429, 48.6899519 ], [ 2.1832311, 48.6880969 ], [ 2.1814471, 48.6880872 ], [ 2.1805708, 48.6876533 ], [ 2.1806329, 48.6874369 ], [ 2.1796785, 48.6875626 ] ] } },
{ "type": "Feature", "properties": { "grades": "0.05,0.05,0.05,0.05,0.05,0.05,0.05,0.05,0.05" }, "geometry": { "type": "LineString", "coordinates": [ [ 2.1845789, 48.6965381 ], [ 2.1845486, 48.6964113 ], [ 2.1825195, 48.6942342 ], [ 2.1824256, 48.6941366 ], [ 2.1811122, 48.6925342 ], [ 2.1811253, 48.691774 ], [ 2.181429, 48.6899519 ], [ 2.1832311, 48.6880969 ], [ 2.1845664, 48.6870219 ], [ 2.1839053, 48.686569 ] ] } },
{ "type": "Feature", "properties": { "grades": "0.05,0.05,0.05,0.05,0.05,0.05,0.05,0.05,0.05" }, "geometry": { "type": "LineString", "coordinates": [ [ 2.1845789, 48.6965381 ], [ 2.1845486, 48.6964113 ], [ 2.1825195, 48.6942342 ], [ 2.1824256, 48.6941366 ], [ 2.1811122, 48.6925342 ], [ 2.1811253, 48.691774 ], [ 2.181429, 48.6899519 ], [ 2.1832311, 48.6880969 ], [ 2.1845664, 48.6870219 ], [ 2.1863376, 48.6864837 ] ] } },
{ "type": "Feature", "properties": { "grades": "0.05,0.05,0.05,0.05,0.05,0.05,0.05,0.05,0.05,0.05" }, "geometry": { "type": "LineString", "coordinates": [ [ 2.1845789, 48.6965381 ], [ 2.1845486, 48.6964113 ], [ 2.1825195, 48.6942342 ], [ 2.1824256, 48.6941366 ], [ 2.1811122, 48.6925342 ], [ 2.1811253, 48.691774 ], [ 2.181429, 48.6899519 ], [ 2.1832311, 48.6880969 ], [ 2.1845664, 48.6870219 ], [ 2.1863376, 48.6864837 ], [ 2.1872428, 48.6862357 ] ] } },
{ "type": "Feature", "properties": { "grades": "0.05,0.05,0.05,0.05,0.05,0.05,0.05,0.05,0.05,0.05,0.05" }, "geometry": { "type": "LineString", "coordinates": [ [ 2.1845789, 48.6965381 ], [ 2.1845486, 48.6964113 ], [ 2.1825195, 48.6942342 ], [ 2.1824256, 48.6941366 ], [ 2.1811122, 48.6925342 ], [ 2.1811253, 48.691774 ], [ 2.181429, 48.6899519 ], [ 2.1832311, 48.6880969 ], [ 2.1845664, 48.6870219 ], [ 2.1863376, 48.6864837 ], [ 2.1872428, 48.6862357 ], [ 2.1879699, 48.6851707 ] ] } },
{ "type": "Feature", "properties": { "grades": "0.05,0.05,0.05,0.05,0.05,0.05,0.05,0.05,0.05,0.05" }, "geometry": { "type": "LineString", "coordinates": [ [ 2.1845789, 48.6965381 ], [ 2.1845486, 48.6964113 ], [ 2.1825195, 48.6942342 ], [ 2.1824256, 48.6941366 ], [ 2.1811122, 48.6925342 ], [ 2.1811253, 48.691774 ], [ 2.181429, 48.6899519 ], [ 2.1832311, 48.6880969 ], [ 2.1845664, 48.6870219 ], [ 2.1839053, 48.686569 ], [ 2.1838157, 48.6857572 ] ] } },
{ "type": "Feature", "properties": { "grades": "0.05,0.05,0.05,0.05,0.05,0.05,0.05,0.05,0.05,0.05,0.05" }, "geometry": { "type": "LineString", "coordinates": [ [ 2.1845789, 48.6965381 ], [ 2.1845486, 48.6964113 ], [ 2.1825195, 48.6942342 ], [ 2.1824256, 48.6941366 ], [ 2.1811122, 48.6925342 ], [ 2.1811253, 48.691774 ], [ 2.181429, 48.6899519 ], [ 2.1832311, 48.6880969 ], [ 2.1845664, 48.6870219 ], [ 2.1839053, 48.686569 ], [ 2.1838157, 48.6857572 ], [ 2.1836103, 48.6848082 ] ] } },
{ "type": "Feature", "properties": { "grades": "0.05,0.05,0.05,0.05,0.05,0.05,0.05,0.05,0.05,0.05,0.05" }, "geometry": { "type": "LineString", "coordinates": [ [ 2.1845789, 48.6965381 ], [ 2.1845486, 48.6964113 ], [ 2.1825195, 48.6942342 ], [ 2.1824256, 48.6941366 ], [ 2.1811122, 48.6925342 ], [ 2.1811253, 48.691774 ], [ 2.181429, 48.6899519 ], [ 2.1832311, 48.6880969 ], [ 2.1845664, 48.6870219 ], [ 2.1839053, 48.686569 ], [ 2.1838157, 48.6857572 ], [ 2.1831181, 48.6857748 ] ] } },
{ "type": "Feature", "properties": { "grades": "0.05,0.05,0.05,0.05,0.05,0.05,0.05,0.05,0.05,0.05,0.05,0.05" }, "geometry": { "type": "LineString", "coordinates": [ [ 2.1845789, 48.6965381 ], [ 2.1845486, 48.6964113 ], [ 2.1825195, 48.6942342 ], [ 2.1824256, 48.6941366 ], [ 2.1811122, 48.6925342 ], [ 2.1811253, 48.691774 ], [ 2.181429, 48.6899519 ], [ 2.1832311, 48.6880969 ], [ 2.1845664, 48.6870219 ], [ 2.1839053, 48.686569 ], [ 2.1838157, 48.6857572 ], [ 2.1836103, 48.6848082 ], [ 2.1834155, 48.6840234 ] ] } },
{ "type": "Feature", "properties": { "grades": "0.05,0.05,0.05,0.05,0.05,0.05,0.05,0.05,0.05" }, "geometry": { "type": "LineString", "coordinates": [ [ 2.1845789, 48.6965381 ], [ 2.1845486, 48.6964113 ], [ 2.1825195, 48.6942342 ], [ 2.1824256, 48.6941366 ], [ 2.1811122, 48.6925342 ], [ 2.1811253, 48.691774 ], [ 2.1798754, 48.6916568 ], [ 2.179681, 48.6909561 ], [ 2.1784147, 48.6906239 ], [ 2.1779981, 48.6899871 ] ] } },
{ "type": "Feature", "properties": { "grades": "0.05,0.05,0.05,0.05,0.05,0.05,0.05,0.05,0.05" }, "geometry": { "type": "LineString", "coordinates": [ [ 2.1845789, 48.6965381 ], [ 2.1845486, 48.6964113 ], [ 2.1825195, 48.6942342 ], [ 2.1824256, 48.6941366 ], [ 2.1811122, 48.6925342 ], [ 2.1811253, 48.691774 ], [ 2.1798754, 48.6916568 ], [ 2.179681, 48.6909561 ], [ 2.1784147, 48.6906239 ], [ 2.1748821, 48.6906773 ] ] } },
{ "type": "Feature", "properties": { "grades": "0.05,0.05,0.05,0.05,0.05,0.05,0.05,0.05,0.05,0.05,0.05" }, "geometry": { "type": "LineString", "coordinates": [ [ 2.1845789, 48.6965381 ], [ 2.1845486, 48.6964113 ], [ 2.1825195, 48.6942342 ], [ 2.1824256, 48.6941366 ], [ 2.1811122, 48.6925342 ], [ 2.1811253, 48.691774 ], [ 2.1798754, 48.6916568 ], [ 2.179681, 48.6909561 ], [ 2.1784147, 48.6906239 ], [ 2.1748821, 48.6906773 ], [ 2.177453, 48.6897118 ], [ 2.1770107, 48.6893703 ] ] } },
{ "type": "Feature", "properties": { "grades": "0.05,0.05,0.05,0.05,0.05,0.05,0.05,0.05,0.05,0.05,0.05" }, "geometry": { "type": "LineString", "coordinates": [ [ 2.1845789, 48.6965381 ], [ 2.1845486, 48.6964113 ], [ 2.1825195, 48.6942342 ], [ 2.1824256, 48.6941366 ], [ 2.1811122, 48.6925342 ], [ 2.1811253, 48.691774 ], [ 2.1798754, 48.6916568 ], [ 2.179681, 48.6909561 ], [ 2.1784147, 48.6906239 ], [ 2.1779981, 48.6899871 ], [ 2.177453, 48.6897118 ], [ 2.1770107, 48.6893703 ] ] } },
{ "type": "Feature", "properties": { "grades": "0.05,0.05,0.05,0.05,0.05,0.05,0.05,0.05,0.05" }, "geometry": { "type": "LineString", "coordinates": [ [ 2.1845789, 48.6965381 ], [ 2.1845486, 48.6964113 ], [ 2.1825195, 48.6942342 ], [ 2.1824256, 48.6941366 ], [ 2.1811122, 48.6925342 ], [ 2.1811253, 48.691774 ], [ 2.1798754, 48.6916568 ], [ 2.179681, 48.6909561 ], [ 2.1814471, 48.6880872 ], [ 2.1805708, 48.6876533 ] ] } },
{ "type": "Feature", "properties": { "grades": "0.05,0.05,0.05,0.05,0.05,0.05,0.05,0.05,0.05,0.05,0.05" }, "geometry": { "type": "LineString", "coordinates": [ [ 2.1845789, 48.6965381 ], [ 2.1845486, 48.6964113 ], [ 2.1825195, 48.6942342 ], [ 2.1824256, 48.6941366 ], [ 2.1811122, 48.6925342 ], [ 2.1811253, 48.691774 ], [ 2.1798754, 48.6916568 ], [ 2.179681, 48.6909561 ], [ 2.1814471, 48.6880872 ], [ 2.1805708, 48.6876533 ], [ 2.1806329, 48.6874369 ], [ 2.1796785, 48.6875626 ] ] } },
{ "type": "Feature", "properties": { "grades": "0.05,0.05,0.05,0.05,0.05,0.05,0.05,0.05,0.05" }, "geometry": { "type": "LineString", "coordinates": [ [ 2.1845591, 48.6965612 ], [ 2.1845789, 48.6965381 ], [ 2.1845486, 48.6964113 ], [ 2.1825195, 48.6942342 ], [ 2.1824256, 48.6941366 ], [ 2.1811122, 48.6925342 ], [ 2.1811253, 48.691774 ], [ 2.181429, 48.6899519 ], [ 2.1832311, 48.6880969 ], [ 2.1845664, 48.6870219 ] ] } },
{ "type": "Feature", "properties": { "grades": "0.05,0.05,0.05,0.05,0.05,0.05,0.05,0.05,0.05" }, "geometry": { "type": "LineString", "coordinates": [ [ 2.1845591, 48.6965612 ], [ 2.1845789, 48.6965381 ], [ 2.1845486, 48.6964113 ], [ 2.1825195, 48.6942342 ], [ 2.1824256, 48.6941366 ], [ 2.1811122, 48.6925342 ], [ 2.1811253, 48.691774 ], [ 2.181429, 48.6899519 ], [ 2.1832311, 48.6880969 ], [ 2.1814471, 48.6880872 ] ] } },
{ "type": "Feature", "properties": { "grades": "0.05,0.05,0.05,0.05,0.05,0.05,0.05,0.05,0.05,0.05" }, "geometry": { "type": "LineString", "coordinates": [ [ 2.1845591, 48.6965612 ], [ 2.1845789, 48.6965381 ], [ 2.1845486, 48.6964113 ], [ 2.1825195, 48.6942342 ], [ 2.1824256, 48.6941366 ], [ 2.1811122, 48.6925342 ], [ 2.1811253, 48.691774 ], [ 2.181429, 48.6899519 ], [ 2.1832311, 48.6880969 ], [ 2.1814471, 48.6880872 ], [ 2.1805708, 48.6876533 ] ] } },
{ "type": "Feature", "properties": { "grades": "0.05,0.05,0.05,0.05,0.05,0.05,0.05,0.05,0.05,0.05,0.05,0.05" }, "geometry": { "type": "LineString", "coordinates": [ [ 2.1845591, 48.6965612 ], [ 2.1845789, 48.6965381 ], [ 2.1845486, 48.6964113 ], [ 2.1825195, 48.6942342 ], [ 2.1824256, 48.6941366 ], [ 2.1811122, 48.6925342 ], [ 2.1811253, 48.691774 ], [ 2.181429, 48.6899519 ], [ 2.1832311, 48.6880969 ], [ 2.1814471, 48.6880872 ], [ 2.1805708, 48.6876533 ], [ 2.1806329, 48.6874369 ], [ 2.1796785, 48.6875626 ] ] } },
{ "type": "Feature", "properties": { "grades": "0.05,0.05,0.05,0.05,0.05,0.05,0.05,0.05,0.05,0.05" }, "geometry": { "type": "LineString", "coordinates": [ [ 2.1845591, 48.6965612 ], [ 2.1845789, 48.6965381 ], [ 2.1845486, 48.6964113 ], [ 2.1825195, 48.6942342 ], [ 2.1824256, 48.6941366 ], [ 2.1811122, 48.6925342 ], [ 2.1811253, 48.691774 ], [ 2.181429, 48.6899519 ], [ 2.1832311, 48.6880969 ], [ 2.1845664, 48.6870219 ], [ 2.1839053, 48.686569 ] ] } },
{ "type": "Feature", "properties": { "grades": "0.05,0.05,0.05,0.05,0.05,0.05,0.05,0.05,0.05,0.05" }, "geometry": { "type": "LineString", "coordinates": [ [ 2.1845591, 48.6965612 ], [ 2.1845789, 48.6965381 ], [ 2.1845486, 48.6964113 ], [ 2.1825195, 48.6942342 ], [ 2.1824256, 48.6941366 ], [ 2.1811122, 48.6925342 ], [ 2.1811253, 48.691774 ], [ 2.181429, 48.6899519 ], [ 2.1832311, 48.6880969 ], [ 2.1845664, 48.6870219 ], [ 2.1863376, 48.6864837 ] ] } },
{ "type": "Feature", "properties": { "grades": "0.05,0.05,0.05,0.05,0.05,0.05,0.05,0.05,0.05,0.05,0.05" }, "geometry": { "type": "LineString", "coordinates": [ [ 2.1845591, 48.6965612 ], [ 2.1845789, 48.6965381 ], [ 2.1845486, 48.6964113 ], [ 2.1825195, 48.6942342 ], [ 2.1824256, 48.6941366 ], [ 2.1811122, 48.6925342 ], [ 2.1811253, 48.691774 ], [ 2.181429, 48.6899519 ], [ 2.1832311, 48.6880969 ], [ 2.1845664, 48.6870219 ], [ 2.1863376, 48.6864837 ], [ 2.1872428, 48.6862357 ] ] } },
{ "type": "Feature", "properties": { "grades": "0.05,0.05,0.05,0.05,0.05,0.05,0.05,0.05,0.05,0.05,0.05,0.05" }, "geometry": { "type": "LineString", "coordinates": [ [ 2.1845591, 48.6965612 ], [ 2.1845789, 48.6965381 ], [ 2.1845486, 48.6964113 ], [ 2.1825195, 48.6942342 ], [ 2.1824256, 48.6941366 ], [ 2.1811122, 48.6925342 ], [ 2.1811253, 48.691774 ], [ 2.181429, 48.6899519 ], [ 2.1832311, 48.6880969 ], [ 2.1845664, 48.6870219 ], [ 2.1863376, 48.6864837 ], [ 2.1872428, 48.6862357 ], [ 2.1879699, 48.6851707 ] ] } },
{ "type": "Feature", "properties": { "grades": "0.05,0.05,0.05,0.05,0.05,0.05,0.05,0.05,0.05,0.05,0.05" }, "geometry": { "type": "LineString", "coordinates": [ [ 2.1845591, 48.6965612 ], [ 2.1845789, 48.6965381 ], [ 2.1845486, 48.6964113 ], [ 2.1825195, 48.6942342 ], [ 2.1824256, 48.6941366 ], [ 2.1811122, 48.6925342 ], [ 2.1811253, 48.691774 ], [ 2.181429, 48.6899519 ], [ 2.1832311, 48.6880969 ], [ 2.1845664, 48.6870219 ], [ 2.1839053, 48.686569 ], [ 2.1838157, 48.6857572 ] ] } },
{ "type": "Feature", "properties": { "grades": "0.05,0.05,0.05,0.05,0.05,0.05,0.05,0.05,0.05,0.05,0.05,0.05" }, "geometry": { "type": "LineString", "coordinates": [ [ 2.1845591, 48.6965612 ], [ 2.1845789, 48.6965381 ], [ 2.1845486, 48.6964113 ], [ 2.1825195, 48.6942342 ], [ 2.1824256, 48.6941366 ], [ 2.1811122, 48.6925342 ], [ 2.1811253, 48.691774 ], [ 2.181429, 48.6899519 ], [ 2.1832311, 48.6880969 ], [ 2.1845664, 48.6870219 ], [ 2.1839053, 48.686569 ], [ 2.1838157, 48.6857572 ], [ 2.1836103, 48.6848082 ] ] } },
{ "type": "Feature", "properties": { "grades": "0.05,0.05,0.05,0.05,0.05,0.05,0.05,0.05,0.05,0.05,0.05,0.05" }, "geometry": { "type": "LineString", "coordinates": [ [ 2.1845591, 48.6965612 ], [ 2.1845789, 48.6965381 ], [ 2.1845486, 48.6964113 ], [ 2.1825195, 48.6942342 ], [ 2.1824256, 48.6941366 ], [ 2.1811122, 48.6925342 ], [ 2.1811253, 48.691774 ], [ 2.181429, 48.6899519 ], [ 2.1832311, 48.6880969 ], [ 2.1845664, 48.6870219 ], [ 2.1839053, 48.686569 ], [ 2.1838157, 48.6857572 ], [ 2.1831181, 48.6857748 ] ] } },
{ "type": "Feature", "properties": { "grades": "0.05,0.05,0.05,0.05,0.05,0.05,0.05,0.05,0.05,0.05,0.05,0.05,0.05" }, "geometry": { "type": "LineString", "coordinates": [ [ 2.1845591, 48.6965612 ], [ 2.1845789, 48.6965381 ], [ 2.1845486, 48.6964113 ], [ 2.1825195, 48.6942342 ], [ 2.1824256, 48.6941366 ], [ 2.1811122, 48.6925342 ], [ 2.1811253, 48.691774 ], [ 2.181429, 48.6899519 ], [ 2.1832311, 48.6880969 ], [ 2.1845664, 48.6870219 ], [ 2.1839053, 48.686569 ], [ 2.1838157, 48.6857572 ], [ 2.1836103, 48.6848082 ], [ 2.1834155, 48.6840234 ] ] } },
{ "type": "Feature", "properties": { "grades": "0.05,0.05,0.05,0.05,0.05,0.05,0.05,0.05,0.05,0.05" }, "geometry": { "type": "LineString", "coordinates": [ [ 2.1845591, 48.6965612 ], [ 2.1845789, 48.6965381 ], [ 2.1845486, 48.6964113 ], [ 2.1825195, 48.6942342 ], [ 2.1824256, 48.6941366 ], [ 2.1811122, 48.6925342 ], [ 2.1811253, 48.691774 ], [ 2.1798754, 48.6916568 ], [ 2.179681, 48.6909561 ], [ 2.1784147, 48.6906239 ], [ 2.1779981, 48.6899871 ] ] } },
{ "type": "Feature", "properties": { "grades": "0.05,0.05,0.05,0.05,0.05,0.05,0.05,0.05,0.05,0.05" }, "geometry": { "type": "LineString", "coordinates": [ [ 2.1845591, 48.6965612 ], [ 2.1845789, 48.6965381 ], [ 2.1845486, 48.6964113 ], [ 2.1825195, 48.6942342 ], [ 2.1824256, 48.6941366 ], [ 2.1811122, 48.6925342 ], [ 2.1811253, 48.691774 ], [ 2.1798754, 48.6916568 ], [ 2.179681, 48.6909561 ], [ 2.1784147, 48.6906239 ], [ 2.1748821, 48.6906773 ] ] } },
{ "type": "Feature", "properties": { "grades": "0.05,0.05,0.05,0.05,0.05,0.05,0.05,0.05,0.05,0.05,0.05,0.05" }, "geometry": { "type": "LineString", "coordinates": [ [ 2.1845591, 48.6965612 ], [ 2.1845789, 48.6965381 ], [ 2.1845486, 48.6964113 ], [ 2.1825195, 48.6942342 ], [ 2.1824256, 48.6941366 ], [ 2.1811122, 48.6925342 ], [ 2.1811253, 48.691774 ], [ 2.1798754, 48.6916568 ], [ 2.179681, 48.6909561 ], [ 2.1784147, 48.6906239 ], [ 2.1748821, 48.6906773 ], [ 2.177453, 48.6897118 ], [ 2.1770107, 48.6893703 ] ] } },
{ "type": "Feature", "properties": { "grades": "0.05,0.05,0.05,0.05,0.05,0.05,0.05,0.05,0.05,0.05,0.05,0.05" }, "geometry": { "type": "LineString", "coordinates": [ [ 2.1845591, 48.6965612 ], [ 2.1845789, 48.6965381 ], [ 2.1845486, 48.6964113 ], [ 2.1825195, 48.6942342 ], [ 2.1824256, 48.6941366 ], [ 2.1811122, 48.6925342 ], [ 2.1811253, 48.691774 ], [ 2.1798754, 48.6916568 ], [ 2.179681, 48.6909561 ], [ 2.1784147, 48.6906239 ], [ 2.1779981, 48.6899871 ], [ 2.177453, 48.6897118 ], [ 2.1770107, 48.6893703 ] ] } },
{ "type": "Feature", "properties": { "grades": "0.05,0.05,0.05,0.05,0.05,0.05,0.05,0.05,0.05,0.05" }, "geometry": { "type": "LineString", "coordinates": [ [ 2.1845591, 48.6965612 ], [ 2.1845789, 48.6965381 ], [ 2.1845486, 48.6964113 ], [ 2.1825195, 48.6942342 ], [ 2.1824256, 48.6941366 ], [ 2.1811122, 48.6925342 ], [ 2.1811253, 48.691774 ], [ 2.1798754, 48.6916568 ], [ 2.179681, 48.6909561 ], [ 2.1814471, 48.6880872 ], [ 2.1805708, 48.6876533 ] ] } },
{ "type": "Feature", "properties": { "grades": "0.05,0.05,0.05,0.05,0.05,0.05,0.05,0.05,0.05,0.05,0.05,0.05" }, "geometry": { "type": "LineString", "coordinates": [ [ 2.1845591, 48.6965612 ], [ 2.1845789, 48.6965381 ], [ 2.1845486, 48.6964113 ], [ 2.1825195, 48.6942342 ], [ 2.1824256, 48.6941366 ], [ 2.1811122, 48.6925342 ], [ 2.1811253, 48.691774 ], [ 2.1798754, 48.6916568 ], [ 2.179681, 48.6909561 ], [ 2.1814471, 48.6880872 ], [ 2.1805708, 48.6876533 ], [ 2.1806329, 48.6874369 ], [ 2.1796785, 48.6875626 ] ] } },
{ "type": "Feature", "properties": { "grades": "0.05,0.05,0.05,0.05,0.05,0.05,0.05,0.05,0.05,0.05,0.05" }, "geometry": { "type": "LineString", "coordinates": [ [ 2.1847371, 48.696707 ], [ 2.1845885, 48.6966555 ], [ 2.1845591, 48.6965612 ], [ 2.1845789, 48.6965381 ], [ 2.1845486, 48.6964113 ], [ 2.1825195, 48.6942342 ], [ 2.1824256, 48.6941366 ], [ 2.1811122, 48.6925342 ], [ 2.1811253, 48.691774 ], [ 2.181429, 48.6899519 ], [ 2.1832311, 48.6880969 ], [ 2.1845664, 48.6870219 ] ] } },
{ "type": "Feature", "properties": { "grades": "0.05,0.05,0.05,0.05,0.05,0.05,0.05,0.05,0.05,0.05,0.05" }, "geometry": { "type": "LineString", "coordinates": [ [ 2.1847371, 48.696707 ], [ 2.1845885, 48.6966555 ], [ 2.1845591, 48.6965612 ], [ 2.1845789, 48.6965381 ], [ 2.1845486, 48.6964113 ], [ 2.1825195, 48.6942342 ], [ 2.1824256, 48.6941366 ], [ 2.1811122, 48.6925342 ], [ 2.1811253, 48.691774 ], [ 2.181429, 48.6899519 ], [ 2.1832311, 48.6880969 ], [ 2.1814471, 48.6880872 ] ] } },
{ "type": "Feature", "properties": { "grades": "0.05,0.05,0.05,0.05,0.05,0.05,0.05,0.05,0.05,0.05,0.05,0.05" }, "geometry": { "type": "LineString", "coordinates": [ [ 2.1847371, 48.696707 ], [ 2.1845885, 48.6966555 ], [ 2.1845591, 48.6965612 ], [ 2.1845789, 48.6965381 ], [ 2.1845486, 48.6964113 ], [ 2.1825195, 48.6942342 ], [ 2.1824256, 48.6941366 ], [ 2.1811122, 48.6925342 ], [ 2.1811253, 48.691774 ], [ 2.181429, 48.6899519 ], [ 2.1832311, 48.6880969 ], [ 2.1814471, 48.6880872 ], [ 2.1805708, 48.6876533 ] ] } },
{ "type": "Feature", "properties": { "grades": "0.05,0.05,0.05,0.05,0.05,0.05,0.05,0.05,0.05,0.05,0.05,0.05,0.05,0.05" }, "geometry": { "type": "LineString", "coordinates": [ [ 2.1847371, 48.696707 ], [ 2.1845885, 48.6966555 ], [ 2.1845591, 48.6965612 ], [ 2.1845789, 48.6965381 ], [ 2.1845486, 48.6964113 ], [ 2.1825195, 48.6942342 ], [ 2.1824256, 48.6941366 ], [ 2.1811122, 48.6925342 ], [ 2.1811253, 48.691774 ], [ 2.181429, 48.6899519 ], [ 2.1832311, 48.6880969 ], [ 2.1814471, 48.6880872 ], [ 2.1805708, 48.6876533 ], [ 2.1806329, 48.6874369 ], [ 2.1796785, 48.6875626 ] ] } },
{ "type": "Feature", "properties": { "grades": "0.05,0.05,0.05,0.05,0.05,0.05,0.05,0.05,0.05,0.05,0.05,0.05" }, "geometry": { "type": "LineString", "coordinates": [ [ 2.1847371, 48.696707 ], [ 2.1845885, 48.6966555 ], [ 2.1845591, 48.6965612 ], [ 2.1845789, 48.6965381 ], [ 2.1845486, 48.6964113 ], [ 2.1825195, 48.6942342 ], [ 2.1824256, 48.6941366 ], [ 2.1811122, 48.6925342 ], [ 2.1811253, 48.691774 ], [ 2.181429, 48.6899519 ], [ 2.1832311, 48.6880969 ], [ 2.1845664, 48.6870219 ], [ 2.1839053, 48.686569 ] ] } },
{ "type": "Feature", "properties": { "grades": "0.05,0.05,0.05,0.05,0.05,0.05,0.05,0.05,0.05,0.05,0.05,0.05" }, "geometry": { "type": "LineString", "coordinates": [ [ 2.1847371, 48.696707 ], [ 2.1845885, 48.6966555 ], [ 2.1845591, 48.6965612 ], [ 2.1845789, 48.6965381 ], [ 2.1845486, 48.6964113 ], [ 2.1825195, 48.6942342 ], [ 2.1824256, 48.6941366 ], [ 2.1811122, 48.6925342 ], [ 2.1811253, 48.691774 ], [ 2.181429, 48.6899519 ], [ 2.1832311, 48.6880969 ], [ 2.1845664, 48.6870219 ], [ 2.1863376, 48.6864837 ] ] } },
{ "type": "Feature", "properties": { "grades": "0.05,0.05,0.05,0.05,0.05,0.05,0.05,0.05,0.05,0.05,0.05,0.05,0.05" }, "geometry": { "type": "LineString", "coordinates": [ [ 2.1847371, 48.696707 ], [ 2.1845885, 48.6966555 ], [ 2.1845591, 48.6965612 ], [ 2.1845789, 48.6965381 ], [ 2.1845486, 48.6964113 ], [ 2.1825195, 48.6942342 ], [ 2.1824256, 48.6941366 ], [ 2.1811122, 48.6925342 ], [ 2.1811253, 48.691774 ], [ 2.181429, 48.6899519 ], [ 2.1832311, 48.6880969 ], [ 2.1845664, 48.6870219 ], [ 2.1863376, 48.6864837 ], [ 2.1872428, 48.6862357 ] ] } },
{ "type": "Feature", "properties": { "grades": "0.05,0.05,0.05,0.05,0.05,0.05,0.05,0.05,0.05,0.05,0.05,0.05,0.05,0.05" }, "geometry": { "type": "LineString", "coordinates": [ [ 2.1847371, 48.696707 ], [ 2.1845885, 48.6966555 ], [ 2.1845591, 48.6965612 ], [ 2.1845789, 48.6965381 ], [ 2.1845486, 48.6964113 ], [ 2.1825195, 48.6942342 ], [ 2.1824256, 48.6941366 ], [ 2.1811122, 48.6925342 ], [ 2.1811253, 48.691774 ], [ 2.181429, 48.6899519 ], [ 2.1832311, 48.6880969 ], [ 2.1845664, 48.6870219 ], [ 2.1863376, 48.6864837 ], [ 2.1872428, 48.6862357 ], [ 2.1879699, 48.6851707 ] ] } },
{ "type": "Feature", "properties": { "grades": "0.05,0.05,0.05,0.05,0.05,0.05,0.05,0.05,0.05,0.05,0.05,0.05,0.05" }, "geometry": { "type": "LineString", "coordinates": [ [ 2.1847371, 48.696707 ], [ 2.1845885, 48.6966555 ], [ 2.1845591, 48.6965612 ], [ 2.1845789, 48.6965381 ], [ 2.1845486, 48.6964113 ], [ 2.1825195, 48.6942342 ], [ 2.1824256, 48.6941366 ], [ 2.1811122, 48.6925342 ], [ 2.1811253, 48.691774 ], [ 2.181429, 48.6899519 ], [ 2.1832311, 48.6880969 ], [ 2.1845664, 48.6870219 ], [ 2.1839053, 48.686569 ], [ 2.1838157, 48.6857572 ] ] } },
{ "type": "Feature", "properties": { "grades": "0.05,0.05,0.05,0.05,0.05,0.05,0.05,0.05,0.05,0.05,0.05,0.05,0.05,0.05" }, "geometry": { "type": "LineString", "coordinates": [ [ 2.1847371, 48.696707 ], [ 2.1845885, 48.6966555 ], [ 2.1845591, 48.6965612 ], [ 2.1845789, 48.6965381 ], [ 2.1845486, 48.6964113 ], [ 2.1825195, 48.6942342 ], [ 2.1824256, 48.6941366 ], [ 2.1811122, 48.6925342 ], [ 2.1811253, 48.691774 ], [ 2.181429, 48.6899519 ], [ 2.1832311, 48.6880969 ], [ 2.1845664, 48.6870219 ], [ 2.1839053, 48.686569 ], [ 2.1838157, 48.6857572 ], [ 2.1836103, 48.6848082 ] ] } },
{ "type": "Feature", "properties": { "grades": "0.05,0.05,0.05,0.05,0.05,0.05,0.05,0.05,0.05,0.05,0.05,0.05,0.05,0.05" }, "geometry": { "type": "LineString", "coordinates": [ [ 2.1847371, 48.696707 ], [ 2.1845885, 48.6966555 ], [ 2.1845591, 48.6965612 ], [ 2.1845789, 48.6965381 ], [ 2.1845486, 48.6964113 ], [ 2.1825195, 48.6942342 ], [ 2.1824256, 48.6941366 ], [ 2.1811122, 48.6925342 ], [ 2.1811253, 48.691774 ], [ 2.181429, 48.6899519 ], [ 2.1832311, 48.6880969 ], [ 2.1845664, 48.6870219 ], [ 2.1839053, 48.686569 ], [ 2.1838157, 48.6857572 ], [ 2.1831181, 48.6857748 ] ] } },
{ "type": "Feature", "properties": { "grades": "0.05,0.05,0.05,0.05,0.05,0.05,0.05,0.05,0.05,0.05,0.05,0.05,0.05,0.05,0.05" }, "geometry": { "type": "LineString", "coordinates": [ [ 2.1847371, 48.696707 ], [ 2.1845885, 48.6966555 ], [ 2.1845591, 48.6965612 ], [ 2.1845789, 48.6965381 ], [ 2.1845486, 48.6964113 ], [ 2.1825195, 48.6942342 ], [ 2.1824256, 48.6941366 ], [ 2.1811122, 48.6925342 ], [ 2.1811253, 48.691774 ], [ 2.181429, 48.6899519 ], [ 2.1832311, 48.6880969 ], [ 2.1845664, 48.6870219 ], [ 2.1839053, 48.686569 ], [ 2.1838157, 48.6857572 ], [ 2.1836103, 48.6848082 ], [ 2.1834155, 48.6840234 ] ] } },
{ "type": "Feature", "properties": { "grades": "0.05,0.05,0.05,0.05,0.05,0.05,0.05,0.05,0.05,0.05,0.05" }, "geometry": { "type": "LineString", "coordinates": [ [ 2.1847371, 48.696707 ], [ 2.1845885, 48.6966555 ], [ 2.1845591, 48.6965612 ], [ 2.1845789, 48.6965381 ], [ 2.1845486, 48.6964113 ], [ 2.1825195, 48.6942342 ], [ 2.1824256, 48.6941366 ], [ 2.1811122, 48.6925342 ], [ 2.1811253, 48.691774 ], [ 2.1798754, 48.6916568 ], [ 2.179681, 48.6909561 ], [ 2.1784147, 48.6906239 ] ] } },
{ "type": "Feature", "properties": { "grades": "0.05,0.05,0.05,0.05,0.05,0.05,0.05,0.05,0.05,0.05,0.05,0.05" }, "geometry": { "type": "LineString", "coordinates": [ [ 2.1847371, 48.696707 ], [ 2.1845885, 48.6966555 ], [ 2.1845591, 48.6965612 ], [ 2.1845789, 48.6965381 ], [ 2.1845486, 48.6964113 ], [ 2.1825195, 48.6942342 ], [ 2.1824256, 48.6941366 ], [ 2.1811122, 48.6925342 ], [ 2.1811253, 48.691774 ], [ 2.1798754, 48.6916568 ], [ 2.179681, 48.6909561 ], [ 2.1784147, 48.6906239 ], [ 2.1779981, 48.6899871 ] ] } },
{ "type": "Feature", "properties": { "grades": "0.05,0.05,0.05,0.05,0.05,0.05,0.05,0.05,0.05,0.05,0.05,0.05" }, "geometry": { "type": "LineString", "coordinates": [ [ 2.1847371, 48.696707 ], [ 2.1845885, 48.6966555 ], [ 2.1845591, 48.6965612 ], [ 2.1845789, 48.6965381 ], [ 2.1845486, 48.6964113 ], [ 2.1825195, 48.6942342 ], [ 2.1824256, 48.6941366 ], [ 2.1811122, 48.6925342 ], [ 2.1811253, 48.691774 ], [ 2.1798754, 48.6916568 ], [ 2.179681, 48.6909561 ], [ 2.1784147, 48.6906239 ], [ 2.1748821, 48.6906773 ] ] } },
{ "type": "Feature", "properties": { "grades": "0.05,0.05,0.05,0.05,0.05,0.05,0.05,0.05,0.05,0.05,0.05,0.05,0.05,0.05" }, "geometry": { "type": "LineString", "coordinates": [ [ 2.1847371, 48.696707 ], [ 2.1845885, 48.6966555 ], [ 2.1845591, 48.6965612 ], [ 2.1845789, 48.6965381 ], [ 2.1845486, 48.6964113 ], [ 2.1825195, 48.6942342 ], [ 2.1824256, 48.6941366 ], [ 2.1811122, 48.6925342 ], [ 2.1811253, 48.691774 ], [ 2.1798754, 48.6916568 ], [ 2.179681, 48.6909561 ], [ 2.1784147, 48.6906239 ], [ 2.1748821, 48.6906773 ], [ 2.177453, 48.6897118 ], [ 2.1770107, 48.6893703 ] ] } },
{ "type": "Feature", "properties": { "grades": "0.05,0.05,0.05,0.05,0.05,0.05,0.05,0.05,0.05,0.05,0.05,0.05,0.05,0.05" }, "geometry": { "type": "LineString", "coordinates": [ [ 2.1847371, 48.696707 ], [ 2.1845885, 48.6966555 ], [ 2.1845591, 48.6965612 ], [ 2.1845789, 48.6965381 ], [ 2.1845486, 48.6964113 ], [ 2.1825195, 48.6942342 ], [ 2.1824256, 48.6941366 ], [ 2.1811122, 48.6925342 ], [ 2.1811253, 48.691774 ], [ 2.1798754, 48.6916568 ], [ 2.179681, 48.6909561 ], [ 2.1784147, 48.6906239 ], [ 2.1779981, 48.6899871 ], [ 2.177453, 48.6897118 ], [ 2.1770107, 48.6893703 ] ] } },
{ "type": "Feature", "properties": { "grades": "0.05,0.05,0.05,0.05,0.05,0.05,0.05,0.05,0.05,0.05,0.05,0.05" }, "geometry": { "type": "LineString", "coordinates": [ [ 2.1847371, 48.696707 ], [ 2.1845885, 48.6966555 ], [ 2.1845591, 48.6965612 ], [ 2.1845789, 48.6965381 ], [ 2.1845486, 48.6964113 ], [ 2.1825195, 48.6942342 ], [ 2.1824256, 48.6941366 ], [ 2.1811122, 48.6925342 ], [ 2.1811253, 48.691774 ], [ 2.1798754, 48.6916568 ], [ 2.179681, 48.6909561 ], [ 2.1814471, 48.6880872 ], [ 2.1805708, 48.6876533 ] ] } },
{ "type": "Feature", "properties": { "grades": "0.05,0.05,0.05,0.05,0.05,0.05,0.05,0.05,0.05,0.05,0.05,0.05,0.05,0.05" }, "geometry": { "type": "LineString", "coordinates": [ [ 2.1847371, 48.696707 ], [ 2.1845885, 48.6966555 ], [ 2.1845591, 48.6965612 ], [ 2.1845789, 48.6965381 ], [ 2.1845486, 48.6964113 ], [ 2.1825195, 48.6942342 ], [ 2.1824256, 48.6941366 ], [ 2.1811122, 48.6925342 ], [ 2.1811253, 48.691774 ], [ 2.1798754, 48.6916568 ], [ 2.179681, 48.6909561 ], [ 2.1814471, 48.6880872 ], [ 2.1805708, 48.6876533 ], [ 2.1806329, 48.6874369 ], [ 2.1796785, 48.6875626 ] ] } },
{ "type": "Feature", "properties": { "grades": "0.05,0.05,0.05,0.05,0.05,0.05,0.05,0.05,0.05,0.05,0.05,0.05" }, "geometry": { "type": "LineString", "coordinates": [ [ 2.1770987, 48.7006613 ], [ 2.1773514, 48.7014737 ], [ 2.1796976, 48.7016296 ], [ 2.1794039, 48.7018807 ], [ 2.1809894, 48.702081 ], [ 2.1811782, 48.7028862 ], [ 2.1812153, 48.7031443 ], [ 2.1814052, 48.7034784 ], [ 2.18157, 48.7034919 ], [ 2.1814212, 48.703552 ], [ 2.1813425, 48.7035955 ], [ 2.1813118, 48.7036829 ], [ 2.1816453, 48.7059744 ] ] } },
{ "type": "Feature", "properties": { "grades": "0.05,0.05,0.05,0.05,0.05,0.05,0.05,0.05,0.05,0.05,0.05,0.05,0.05" }, "geometry": { "type": "LineString", "coordinates": [ [ 2.1770987, 48.7006613 ], [ 2.1773514, 48.7014737 ], [ 2.1796976, 48.7016296 ], [ 2.1794039, 48.7018807 ], [ 2.1809894, 48.702081 ], [ 2.1811782, 48.7028862 ], [ 2.1812153, 48.7031443 ], [ 2.1814052, 48.7034784 ], [ 2.18157, 48.7034919 ], [ 2.1814212, 48.703552 ], [ 2.1813425, 48.7035955 ], [ 2.1813118, 48.7036829 ], [ 2.1816453, 48.7059744 ], [ 2.1814564, 48.7060033 ] ] } },
{ "type": "Feature", "properties": { "grades": "0.05,0.05,0.05,0.05,0.05,0.05,0.05,0.05,0.05,0.05,0.05" }, "geometry": { "type": "LineString", "coordinates": [ [ 2.1770987, 48.7006613 ], [ 2.1773514, 48.7014737 ], [ 2.1796976, 48.7016296 ], [ 2.1794039, 48.7018807 ], [ 2.1809894, 48.702081 ], [ 2.1811782, 48.7028862 ], [ 2.1812153, 48.7031443 ], [ 2.1814052, 48.7034784 ], [ 2.1814212, 48.703552 ], [ 2.1813425, 48.7035955 ], [ 2.1813118, 48.7036829 ], [ 2.1816453, 48.7059744 ] ] } },
{ "type": "Feature", "properties": { "grades": "0.05,0.05,0.05,0.05,0.05,0.05,0.05,0.05,0.05,0.05,0.05,0.05" }, "geometry": { "type": "LineString", "coordinates": [ [ 2.1770987, 48.7006613 ], [ 2.1773514, 48.7014737 ], [ 2.1796976, 48.7016296 ], [ 2.1794039, 48.7018807 ], [ 2.1809894, 48.702081 ], [ 2.1811782, 48.7028862 ], [ 2.1812153, 48.7031443 ], [ 2.1814052, 48.7034784 ], [ 2.1814212, 48.703552 ], [ 2.1813425, 48.7035955 ], [ 2.1813118, 48.7036829 ], [ 2.1816453, 48.7059744 ], [ 2.1814564, 48.7060033 ] ] } }
]
}
