<?xml version="1.0" encoding="UTF-8"?>
<gpx version="1.1" creator="YourAppName - https://yourappurl.com"
     xmlns:xsi="http://www.w3.org/2001/XMLSchema-instance"
     xmlns="http://www.topografix.com/GPX/1/1"
     xsi:schemaLocation="http://www.topografix.com/GPX/1/1
                         http://www.topografix.com/GPX/1/1/gpx.xsd">
    <metadata>
        <name>My Route</name>
        <author>
            <name>Your Name or App</name>
        </author>
        <time>2024-06-28T07:33:45.095744</time>
    </metadata>
    <trk>
        <name>My Route</name>
        <trkseg>
            <trkpt lat="48.8053644" lon="2.2592128">
    <ele>121.44</ele>
    <time>2024-06-28T07:33:45.020976</time>
</trkpt>
<trkpt lat="48.8052901" lon="2.2590334">
    <ele>121.453</ele>
    <time>2024-06-28T07:33:45.020976</time>
</trkpt>
<trkpt lat="48.8051987" lon="2.2590231">
    <ele>121.592</ele>
    <time>2024-06-28T07:33:45.020976</time>
</trkpt>
<trkpt lat="48.8048336" lon="2.2586398">
    <ele>123.661</ele>
    <time>2024-06-28T07:33:45.021944</time>
</trkpt>
<trkpt lat="48.8042054" lon="2.2580229">
    <ele>126.281</ele>
    <time>2024-06-28T07:33:45.021944</time>
</trkpt>
<trkpt lat="48.8035745" lon="2.2573743">
    <ele>128.253</ele>
    <time>2024-06-28T07:33:45.021944</time>
</trkpt>
<trkpt lat="48.8034703" lon="2.2571672">
    <ele>128.377</ele>
    <time>2024-06-28T07:33:45.021944</time>
</trkpt>
<trkpt lat="48.8034606" lon="2.2571049">
    <ele>128.416</ele>
    <time>2024-06-28T07:33:45.021944</time>
</trkpt>
<trkpt lat="48.8032562" lon="2.2568371">
    <ele>129.417</ele>
    <time>2024-06-28T07:33:45.022942</time>
</trkpt>
<trkpt lat="48.8032199" lon="2.2568261">
    <ele>129.607</ele>
    <time>2024-06-28T07:33:45.023226</time>
</trkpt>
<trkpt lat="48.8031944" lon="2.2568359">
    <ele>129.716</ele>
    <time>2024-06-28T07:33:45.023398</time>
</trkpt>
<trkpt lat="48.7974522" lon="2.2529541">
    <ele>168.415</ele>
    <time>2024-06-28T07:33:45.023398</time>
</trkpt>
<trkpt lat="48.7924931" lon="2.2523637">
    <ele>167.165</ele>
    <time>2024-06-28T07:33:45.023398</time>
</trkpt>
<trkpt lat="48.7924723" lon="2.252317">
    <ele>167.426</ele>
    <time>2024-06-28T07:33:45.023938</time>
</trkpt>
<trkpt lat="48.7917972" lon="2.2523613">
    <ele>166.307</ele>
    <time>2024-06-28T07:33:45.024053</time>
</trkpt>
<trkpt lat="48.7915573" lon="2.252348">
    <ele>166.312</ele>
    <time>2024-06-28T07:33:45.024053</time>
</trkpt>
<trkpt lat="48.791351" lon="2.2523011">
    <ele>167.404</ele>
    <time>2024-06-28T07:33:45.024053</time>
</trkpt>
<trkpt lat="48.7906126" lon="2.2523527">
    <ele>168.0</ele>
    <time>2024-06-28T07:33:45.024053</time>
</trkpt>
<trkpt lat="48.7904387" lon="2.2524524">
    <ele>168.187</ele>
    <time>2024-06-28T07:33:45.024053</time>
</trkpt>
<trkpt lat="48.7896971" lon="2.2525333">
    <ele>168.897</ele>
    <time>2024-06-28T07:33:45.024935</time>
</trkpt>
<trkpt lat="48.7895302" lon="2.2525577">
    <ele>168.314</ele>
    <time>2024-06-28T07:33:45.025138</time>
</trkpt>
<trkpt lat="48.788879" lon="2.2527202">
    <ele>167.824</ele>
    <time>2024-06-28T07:33:45.025138</time>
</trkpt>
<trkpt lat="48.788394" lon="2.2527827">
    <ele>166.691</ele>
    <time>2024-06-28T07:33:45.025138</time>
</trkpt>
<trkpt lat="48.7882153" lon="2.2528253">
    <ele>166.14</ele>
    <time>2024-06-28T07:33:45.025138</time>
</trkpt>
<trkpt lat="48.7876162" lon="2.2528688">
    <ele>165.803</ele>
    <time>2024-06-28T07:33:45.025931</time>
</trkpt>
<trkpt lat="48.7874709" lon="2.2529797">
    <ele>165.138</ele>
    <time>2024-06-28T07:33:45.025931</time>
</trkpt>
<trkpt lat="48.7851025" lon="2.2534022">
    <ele>166.198</ele>
    <time>2024-06-28T07:33:45.025931</time>
</trkpt>
<trkpt lat="48.7848545" lon="2.2533451">
    <ele>166.714</ele>
    <time>2024-06-28T07:33:45.026532</time>
</trkpt>
<trkpt lat="48.7840109" lon="2.2532717">
    <ele>165.704</ele>
    <time>2024-06-28T07:33:45.026930</time>
</trkpt>
<trkpt lat="48.7838931" lon="2.2532494">
    <ele>165.686</ele>
    <time>2024-06-28T07:33:45.026930</time>
</trkpt>
<trkpt lat="48.7822843" lon="2.2529286">
    <ele>164.564</ele>
    <time>2024-06-28T07:33:45.026930</time>
</trkpt>
<trkpt lat="48.7821566" lon="2.2529078">
    <ele>164.266</ele>
    <time>2024-06-28T07:33:45.027926</time>
</trkpt>
<trkpt lat="48.7815039" lon="2.2527369">
    <ele>165.258</ele>
    <time>2024-06-28T07:33:45.027926</time>
</trkpt>
<trkpt lat="48.7810452" lon="2.2525429">
    <ele>166.392</ele>
    <time>2024-06-28T07:33:45.027926</time>
</trkpt>
<trkpt lat="48.7804432" lon="2.2522362">
    <ele>167.658</ele>
    <time>2024-06-28T07:33:45.027926</time>
</trkpt>
<trkpt lat="48.7796056" lon="2.2515714">
    <ele>169.4</ele>
    <time>2024-06-28T07:33:45.027926</time>
</trkpt>
<trkpt lat="48.7795004" lon="2.2514856">
    <ele>169.827</ele>
    <time>2024-06-28T07:33:45.028926</time>
</trkpt>
<trkpt lat="48.7792618" lon="2.2512911">
    <ele>170.535</ele>
    <time>2024-06-28T07:33:45.029220</time>
</trkpt>
<trkpt lat="48.7782163" lon="2.2506144">
    <ele>170.879</ele>
    <time>2024-06-28T07:33:45.029220</time>
</trkpt>
<trkpt lat="48.7776625" lon="2.2503027">
    <ele>171.774</ele>
    <time>2024-06-28T07:33:45.029220</time>
</trkpt>
<trkpt lat="48.7773864" lon="2.250187">
    <ele>171.596</ele>
    <time>2024-06-28T07:33:45.029922</time>
</trkpt>
<trkpt lat="48.7771387" lon="2.2500832">
    <ele>170.971</ele>
    <time>2024-06-28T07:33:45.030114</time>
</trkpt>
<trkpt lat="48.7765627" lon="2.2484034">
    <ele>171.826</ele>
    <time>2024-06-28T07:33:45.030114</time>
</trkpt>
<trkpt lat="48.7764096" lon="2.2496052">
    <ele>171.729</ele>
    <time>2024-06-28T07:33:45.030471</time>
</trkpt>
<trkpt lat="48.7763597" lon="2.2497683">
    <ele>171.843</ele>
    <time>2024-06-28T07:33:45.030471</time>
</trkpt>
<trkpt lat="48.7748974" lon="2.2495335">
    <ele>171.696</ele>
    <time>2024-06-28T07:33:45.030919</time>
</trkpt>
<trkpt lat="48.7747799" lon="2.2495116">
    <ele>171.65</ele>
    <time>2024-06-28T07:33:45.030919</time>
</trkpt>
<trkpt lat="48.7719131" lon="2.2487471">
    <ele>167.961</ele>
    <time>2024-06-28T07:33:45.030919</time>
</trkpt>
<trkpt lat="48.7708696" lon="2.2482814">
    <ele>165.687</ele>
    <time>2024-06-28T07:33:45.030919</time>
</trkpt>
<trkpt lat="48.7706891" lon="2.2482067">
    <ele>165.283</ele>
    <time>2024-06-28T07:33:45.032131</time>
</trkpt>
<trkpt lat="48.7705715" lon="2.2481573">
    <ele>164.901</ele>
    <time>2024-06-28T07:33:45.032915</time>
</trkpt>
<trkpt lat="48.7700246" lon="2.2483195">
    <ele>165.432</ele>
    <time>2024-06-28T07:33:45.032915</time>
</trkpt>
<trkpt lat="48.7699587" lon="2.2482621">
    <ele>165.918</ele>
    <time>2024-06-28T07:33:45.032915</time>
</trkpt>
<trkpt lat="48.7697488" lon="2.2480952">
    <ele>165.659</ele>
    <time>2024-06-28T07:33:45.032915</time>
</trkpt>
<trkpt lat="48.7695909" lon="2.2480259">
    <ele>167.489</ele>
    <time>2024-06-28T07:33:45.032915</time>
</trkpt>
<trkpt lat="48.7676015" lon="2.2472344">
    <ele>170.582</ele>
    <time>2024-06-28T07:33:45.032915</time>
</trkpt>
<trkpt lat="48.7666421" lon="2.2468527">
    <ele>172.102</ele>
    <time>2024-06-28T07:33:45.032915</time>
</trkpt>
<trkpt lat="48.7659154" lon="2.2465591">
    <ele>171.392</ele>
    <time>2024-06-28T07:33:45.032915</time>
</trkpt>
<trkpt lat="48.7643826" lon="2.2483289">
    <ele>169.433</ele>
    <time>2024-06-28T07:33:45.033912</time>
</trkpt>
<trkpt lat="48.7628712" lon="2.2461081">
    <ele>169.205</ele>
    <time>2024-06-28T07:33:45.033912</time>
</trkpt>
<trkpt lat="48.7628232" lon="2.2459483">
    <ele>169.3</ele>
    <time>2024-06-28T07:33:45.033912</time>
</trkpt>
<trkpt lat="48.7626183" lon="2.245268">
    <ele>170.103</ele>
    <time>2024-06-28T07:33:45.033912</time>
</trkpt>
<trkpt lat="48.7597588" lon="2.2440796">
    <ele>173.629</ele>
    <time>2024-06-28T07:33:45.033912</time>
</trkpt>
<trkpt lat="48.7597431" lon="2.2438884">
    <ele>173.999</ele>
    <time>2024-06-28T07:33:45.034910</time>
</trkpt>
<trkpt lat="48.7596067" lon="2.2437463">
    <ele>174.808</ele>
    <time>2024-06-28T07:33:45.034910</time>
</trkpt>
<trkpt lat="48.7594844" lon="2.2437877">
    <ele>175.371</ele>
    <time>2024-06-28T07:33:45.034910</time>
</trkpt>
<trkpt lat="48.7594061" lon="2.2439573">
    <ele>175.801</ele>
    <time>2024-06-28T07:33:45.034910</time>
</trkpt>
<trkpt lat="48.759428" lon="2.244161">
    <ele>176.256</ele>
    <time>2024-06-28T07:33:45.034910</time>
</trkpt>
<trkpt lat="48.7574157" lon="2.2457109">
    <ele>181.285</ele>
    <time>2024-06-28T07:33:45.035910</time>
</trkpt>
<trkpt lat="48.7558756" lon="2.2469011">
    <ele>180.962</ele>
    <time>2024-06-28T07:33:45.036034</time>
</trkpt>
<trkpt lat="48.7548984" lon="2.2477029">
    <ele>180.182</ele>
    <time>2024-06-28T07:33:45.036034</time>
</trkpt>
<trkpt lat="48.754175" lon="2.2482434">
    <ele>176.762</ele>
    <time>2024-06-28T07:33:45.036034</time>
</trkpt>
<trkpt lat="48.7539423" lon="2.2482604">
    <ele>177.054</ele>
    <time>2024-06-28T07:33:45.036034</time>
</trkpt>
<trkpt lat="48.7530655" lon="2.2465954">
    <ele>179.141</ele>
    <time>2024-06-28T07:33:45.036034</time>
</trkpt>
<trkpt lat="48.7530465" lon="2.2465458">
    <ele>179.143</ele>
    <time>2024-06-28T07:33:45.036906</time>
</trkpt>
<trkpt lat="48.7505283" lon="2.2479851">
    <ele>176.616</ele>
    <time>2024-06-28T07:33:45.036906</time>
</trkpt>
<trkpt lat="48.7492799" lon="2.2487756">
    <ele>173.363</ele>
    <time>2024-06-28T07:33:45.036906</time>
</trkpt>
<trkpt lat="48.748482" lon="2.249278">
    <ele>166.684</ele>
    <time>2024-06-28T07:33:45.036906</time>
</trkpt>
<trkpt lat="48.7484047" lon="2.2493247">
    <ele>164.44</ele>
    <time>2024-06-28T07:33:45.036906</time>
</trkpt>
<trkpt lat="48.748421" lon="2.2494438">
    <ele>162.3</ele>
    <time>2024-06-28T07:33:45.036906</time>
</trkpt>
<trkpt lat="48.7483162" lon="2.2513571">
    <ele>157.484</ele>
    <time>2024-06-28T07:33:45.036906</time>
</trkpt>
<trkpt lat="48.7482816" lon="2.2518564">
    <ele>154.392</ele>
    <time>2024-06-28T07:33:45.037901</time>
</trkpt>
<trkpt lat="48.7482637" lon="2.2521205">
    <ele>153.523</ele>
    <time>2024-06-28T07:33:45.037901</time>
</trkpt>
<trkpt lat="48.7477844" lon="2.2552037">
    <ele>130.073</ele>
    <time>2024-06-28T07:33:45.037901</time>
</trkpt>
<trkpt lat="48.7474091" lon="2.2572725">
    <ele>114.793</ele>
    <time>2024-06-28T07:33:45.037901</time>
</trkpt>
<trkpt lat="48.747355" lon="2.2575644">
    <ele>112.983</ele>
    <time>2024-06-28T07:33:45.037901</time>
</trkpt>
<trkpt lat="48.7473233" lon="2.2576729">
    <ele>112.422</ele>
    <time>2024-06-28T07:33:45.037901</time>
</trkpt>
<trkpt lat="48.7451904" lon="2.2596642">
    <ele>101.032</ele>
    <time>2024-06-28T07:33:45.037901</time>
</trkpt>
<trkpt lat="48.7450941" lon="2.2596246">
    <ele>100.051</ele>
    <time>2024-06-28T07:33:45.037901</time>
</trkpt>
<trkpt lat="48.7450473" lon="2.2593359">
    <ele>99.515</ele>
    <time>2024-06-28T07:33:45.038898</time>
</trkpt>
<trkpt lat="48.7437876" lon="2.2615155">
    <ele>90.814</ele>
    <time>2024-06-28T07:33:45.038898</time>
</trkpt>
<trkpt lat="48.7432399" lon="2.2621768">
    <ele>87.424</ele>
    <time>2024-06-28T07:33:45.038898</time>
</trkpt>
<trkpt lat="48.7430913" lon="2.2623663">
    <ele>87.3</ele>
    <time>2024-06-28T07:33:45.038898</time>
</trkpt>
<trkpt lat="48.7425876" lon="2.2631004">
    <ele>83.343</ele>
    <time>2024-06-28T07:33:45.038898</time>
</trkpt>
<trkpt lat="48.7418386" lon="2.2642684">
    <ele>80.298</ele>
    <time>2024-06-28T07:33:45.038898</time>
</trkpt>
<trkpt lat="48.7410282" lon="2.2655321">
    <ele>75.026</ele>
    <time>2024-06-28T07:33:45.038898</time>
</trkpt>
<trkpt lat="48.7409597" lon="2.2655177">
    <ele>75.748</ele>
    <time>2024-06-28T07:33:45.038898</time>
</trkpt>
<trkpt lat="48.7409421" lon="2.2656599">
    <ele>75.364</ele>
    <time>2024-06-28T07:33:45.038898</time>
</trkpt>
<trkpt lat="48.7409848" lon="2.2656905">
    <ele>75.37</ele>
    <time>2024-06-28T07:33:45.039898</time>
</trkpt>
<trkpt lat="48.7402498" lon="2.2682195">
    <ele>63.859</ele>
    <time>2024-06-28T07:33:45.039898</time>
</trkpt>
<trkpt lat="48.7388953" lon="2.2670775">
    <ele>60.71</ele>
    <time>2024-06-28T07:33:45.040143</time>
</trkpt>
<trkpt lat="48.7377865" lon="2.2677472">
    <ele>57.362</ele>
    <time>2024-06-28T07:33:45.040143</time>
</trkpt>
<trkpt lat="48.7376632" lon="2.2677863">
    <ele>57.667</ele>
    <time>2024-06-28T07:33:45.040143</time>
</trkpt>
<trkpt lat="48.7374957" lon="2.2677007">
    <ele>57.152</ele>
    <time>2024-06-28T07:33:45.040143</time>
</trkpt>
<trkpt lat="48.7374557" lon="2.267691">
    <ele>57.01</ele>
    <time>2024-06-28T07:33:45.040143</time>
</trkpt>
<trkpt lat="48.7374226" lon="2.2676838">
    <ele>56.865</ele>
    <time>2024-06-28T07:33:45.040143</time>
</trkpt>
<trkpt lat="48.7373847" lon="2.2676756">
    <ele>56.929</ele>
    <time>2024-06-28T07:33:45.040143</time>
</trkpt>
<trkpt lat="48.7373262" lon="2.2677137">
    <ele>57.061</ele>
    <time>2024-06-28T07:33:45.040894</time>
</trkpt>
<trkpt lat="48.7372048" lon="2.2676945">
    <ele>57.445</ele>
    <time>2024-06-28T07:33:45.040894</time>
</trkpt>
<trkpt lat="48.7363907" lon="2.2671818">
    <ele>58.222</ele>
    <time>2024-06-28T07:33:45.040894</time>
</trkpt>
<trkpt lat="48.7356669" lon="2.2668793">
    <ele>59.151</ele>
    <time>2024-06-28T07:33:45.040894</time>
</trkpt>
<trkpt lat="48.7354474" lon="2.2668016">
    <ele>59.488</ele>
    <time>2024-06-28T07:33:45.040894</time>
</trkpt>
<trkpt lat="48.7345848" lon="2.2661196">
    <ele>63.226</ele>
    <time>2024-06-28T07:33:45.040894</time>
</trkpt>
<trkpt lat="48.7341041" lon="2.2657557">
    <ele>66.548</ele>
    <time>2024-06-28T07:33:45.040894</time>
</trkpt>
<trkpt lat="48.7329654" lon="2.2656012">
    <ele>71.422</ele>
    <time>2024-06-28T07:33:45.040894</time>
</trkpt>
<trkpt lat="48.7328526" lon="2.2655458">
    <ele>71.813</ele>
    <time>2024-06-28T07:33:45.040894</time>
</trkpt>
<trkpt lat="48.7328018" lon="2.2654859">
    <ele>72.118</ele>
    <time>2024-06-28T07:33:45.041890</time>
</trkpt>
<trkpt lat="48.732675" lon="2.2655413">
    <ele>72.054</ele>
    <time>2024-06-28T07:33:45.041890</time>
</trkpt>
<trkpt lat="48.7325005" lon="2.2655768">
    <ele>72.584</ele>
    <time>2024-06-28T07:33:45.041890</time>
</trkpt>
<trkpt lat="48.7322948" lon="2.265542">
    <ele>73.928</ele>
    <time>2024-06-28T07:33:45.041890</time>
</trkpt>
<trkpt lat="48.7322513" lon="2.2655639">
    <ele>74.155</ele>
    <time>2024-06-28T07:33:45.041890</time>
</trkpt>
<trkpt lat="48.7321379" lon="2.2658161">
    <ele>74.922</ele>
    <time>2024-06-28T07:33:45.041890</time>
</trkpt>
<trkpt lat="48.7322725" lon="2.2661387">
    <ele>72.121</ele>
    <time>2024-06-28T07:33:45.042743</time>
</trkpt>
<trkpt lat="48.7313464" lon="2.2674515">
    <ele>76.527</ele>
    <time>2024-06-28T07:33:45.042886</time>
</trkpt>
<trkpt lat="48.730613" lon="2.2683755">
    <ele>70.546</ele>
    <time>2024-06-28T07:33:45.042886</time>
</trkpt>
<trkpt lat="48.7306069" lon="2.268385">
    <ele>70.546</ele>
    <time>2024-06-28T07:33:45.042886</time>
</trkpt>
<trkpt lat="48.7302531" lon="2.2688535">
    <ele>66.722</ele>
    <time>2024-06-28T07:33:45.042886</time>
</trkpt>
<trkpt lat="48.7300917" lon="2.2690917">
    <ele>65.461</ele>
    <time>2024-06-28T07:33:45.042886</time>
</trkpt>
<trkpt lat="48.7299738" lon="2.2692307">
    <ele>65.62</ele>
    <time>2024-06-28T07:33:45.043884</time>
</trkpt>
<trkpt lat="48.729828" lon="2.2691521">
    <ele>65.492</ele>
    <time>2024-06-28T07:33:45.043884</time>
</trkpt>
<trkpt lat="48.7297276" lon="2.2692161">
    <ele>65.9</ele>
    <time>2024-06-28T07:33:45.043884</time>
</trkpt>
<trkpt lat="48.7296701" lon="2.2695277">
    <ele>66.142</ele>
    <time>2024-06-28T07:33:45.043884</time>
</trkpt>
<trkpt lat="48.7295797" lon="2.2695952">
    <ele>66.22</ele>
    <time>2024-06-28T07:33:45.043884</time>
</trkpt>
<trkpt lat="48.7294766" lon="2.2696641">
    <ele>66.447</ele>
    <time>2024-06-28T07:33:45.043884</time>
</trkpt>
<trkpt lat="48.7290295" lon="2.2700115">
    <ele>68.789</ele>
    <time>2024-06-28T07:33:45.044884</time>
</trkpt>
<trkpt lat="48.7284213" lon="2.2703805">
    <ele>69.87</ele>
    <time>2024-06-28T07:33:45.045165</time>
</trkpt>
<trkpt lat="48.7276377" lon="2.2708533">
    <ele>72.089</ele>
    <time>2024-06-28T07:33:45.045165</time>
</trkpt>
<trkpt lat="48.7272946" lon="2.2710528">
    <ele>72.326</ele>
    <time>2024-06-28T07:33:45.045165</time>
</trkpt>
<trkpt lat="48.7269578" lon="2.271185">
    <ele>73.409</ele>
    <time>2024-06-28T07:33:45.045165</time>
</trkpt>
<trkpt lat="48.7263462" lon="2.2715141">
    <ele>74.593</ele>
    <time>2024-06-28T07:33:45.045879</time>
</trkpt>
<trkpt lat="48.7259603" lon="2.270733">
    <ele>77.527</ele>
    <time>2024-06-28T07:33:45.045879</time>
</trkpt>
<trkpt lat="48.7258996" lon="2.2706148">
    <ele>77.877</ele>
    <time>2024-06-28T07:33:45.045879</time>
</trkpt>
<trkpt lat="48.7251732" lon="2.2692259">
    <ele>79.088</ele>
    <time>2024-06-28T07:33:45.045879</time>
</trkpt>
<trkpt lat="48.724722" lon="2.2683658">
    <ele>82.847</ele>
    <time>2024-06-28T07:33:45.046458</time>
</trkpt>
<trkpt lat="48.7245943" lon="2.2685521">
    <ele>82.04</ele>
    <time>2024-06-28T07:33:45.046458</time>
</trkpt>
<trkpt lat="48.7243866" lon="2.2687923">
    <ele>82.274</ele>
    <time>2024-06-28T07:33:45.046458</time>
</trkpt>
<trkpt lat="48.723865" lon="2.269475">
    <ele>82.21</ele>
    <time>2024-06-28T07:33:45.046876</time>
</trkpt>
<trkpt lat="48.7235368" lon="2.2698971">
    <ele>82.831</ele>
    <time>2024-06-28T07:33:45.046876</time>
</trkpt>
<trkpt lat="48.7230973" lon="2.2704809">
    <ele>83.157</ele>
    <time>2024-06-28T07:33:45.046876</time>
</trkpt>
<trkpt lat="48.7227977" lon="2.2708747">
    <ele>83.273</ele>
    <time>2024-06-28T07:33:45.046876</time>
</trkpt>
<trkpt lat="48.7213051" lon="2.2725465">
    <ele>83.438</ele>
    <time>2024-06-28T07:33:45.046876</time>
</trkpt>
<trkpt lat="48.7211298" lon="2.2725656">
    <ele>83.246</ele>
    <time>2024-06-28T07:33:45.046876</time>
</trkpt>
<trkpt lat="48.7210267" lon="2.2725371">
    <ele>83.964</ele>
    <time>2024-06-28T07:33:45.046876</time>
</trkpt>
<trkpt lat="48.720882" lon="2.2723993">
    <ele>84.66</ele>
    <time>2024-06-28T07:33:45.046876</time>
</trkpt>
<trkpt lat="48.7198738" lon="2.2706328">
    <ele>87.584</ele>
    <time>2024-06-28T07:33:45.046876</time>
</trkpt>
<trkpt lat="48.71926" lon="2.2693195">
    <ele>90.361</ele>
    <time>2024-06-28T07:33:45.047910</time>
</trkpt>
<trkpt lat="48.7188941" lon="2.2675204">
    <ele>93.792</ele>
    <time>2024-06-28T07:33:45.047962</time>
</trkpt>
<trkpt lat="48.7188823" lon="2.2674378">
    <ele>93.794</ele>
    <time>2024-06-28T07:33:45.047962</time>
</trkpt>
<trkpt lat="48.7188789" lon="2.2670436">
    <ele>94.017</ele>
    <time>2024-06-28T07:33:45.047962</time>
</trkpt>
<trkpt lat="48.7189328" lon="2.2667161">
    <ele>94.103</ele>
    <time>2024-06-28T07:33:45.047962</time>
</trkpt>
<trkpt lat="48.7188422" lon="2.2665856">
    <ele>94.201</ele>
    <time>2024-06-28T07:33:45.047962</time>
</trkpt>
<trkpt lat="48.7187815" lon="2.2665654">
    <ele>94.473</ele>
    <time>2024-06-28T07:33:45.047962</time>
</trkpt>
<trkpt lat="48.7187318" lon="2.2662997">
    <ele>95.092</ele>
    <time>2024-06-28T07:33:45.048873</time>
</trkpt>
<trkpt lat="48.7190428" lon="2.2642782">
    <ele>95.93</ele>
    <time>2024-06-28T07:33:45.048873</time>
</trkpt>
<trkpt lat="48.7190582" lon="2.2641787">
    <ele>96.095</ele>
    <time>2024-06-28T07:33:45.048873</time>
</trkpt>
<trkpt lat="48.71931" lon="2.2634243">
    <ele>96.253</ele>
    <time>2024-06-28T07:33:45.048873</time>
</trkpt>
<trkpt lat="48.720119" lon="2.2623249">
    <ele>95.75</ele>
    <time>2024-06-28T07:33:45.048873</time>
</trkpt>
<trkpt lat="48.7198589" lon="2.2618515">
    <ele>97.66</ele>
    <time>2024-06-28T07:33:45.048873</time>
</trkpt>
<trkpt lat="48.719767" lon="2.2617045">
    <ele>97.666</ele>
    <time>2024-06-28T07:33:45.048873</time>
</trkpt>
<trkpt lat="48.7188481" lon="2.2605776">
    <ele>98.084</ele>
    <time>2024-06-28T07:33:45.048873</time>
</trkpt>
<trkpt lat="48.7180288" lon="2.2598534">
    <ele>98.44</ele>
    <time>2024-06-28T07:33:45.048873</time>
</trkpt>
<trkpt lat="48.7179101" lon="2.2597669">
    <ele>96.904</ele>
    <time>2024-06-28T07:33:45.048873</time>
</trkpt>
<trkpt lat="48.7175147" lon="2.260115">
    <ele>95.348</ele>
    <time>2024-06-28T07:33:45.049901</time>
</trkpt>
<trkpt lat="48.7171014" lon="2.2604148">
    <ele>94.996</ele>
    <time>2024-06-28T07:33:45.049901</time>
</trkpt>
<trkpt lat="48.7162188" lon="2.2600112">
    <ele>91.27</ele>
    <time>2024-06-28T07:33:45.049901</time>
</trkpt>
<trkpt lat="48.714233" lon="2.2583427">
    <ele>81.262</ele>
    <time>2024-06-28T07:33:45.049901</time>
</trkpt>
<trkpt lat="48.7142246" lon="2.2582809">
    <ele>81.217</ele>
    <time>2024-06-28T07:33:45.049901</time>
</trkpt>
<trkpt lat="48.7146904" lon="2.2572909">
    <ele>83.26</ele>
    <time>2024-06-28T07:33:45.049901</time>
</trkpt>
<trkpt lat="48.7153837" lon="2.2558784">
    <ele>82.611</ele>
    <time>2024-06-28T07:33:45.049901</time>
</trkpt>
<trkpt lat="48.7155808" lon="2.2556199">
    <ele>83.361</ele>
    <time>2024-06-28T07:33:45.049901</time>
</trkpt>
<trkpt lat="48.7157709" lon="2.2553424">
    <ele>84.47</ele>
    <time>2024-06-28T07:33:45.049901</time>
</trkpt>
<trkpt lat="48.7159515" lon="2.2549734">
    <ele>84.282</ele>
    <time>2024-06-28T07:33:45.050899</time>
</trkpt>
<trkpt lat="48.7170609" lon="2.2521561">
    <ele>90.923</ele>
    <time>2024-06-28T07:33:45.050899</time>
</trkpt>
<trkpt lat="48.7170817" lon="2.2521088">
    <ele>90.871</ele>
    <time>2024-06-28T07:33:45.050899</time>
</trkpt>
<trkpt lat="48.7175777" lon="2.2511661">
    <ele>94.288</ele>
    <time>2024-06-28T07:33:45.050899</time>
</trkpt>
<trkpt lat="48.7178041" lon="2.2505987">
    <ele>94.11</ele>
    <time>2024-06-28T07:33:45.050899</time>
</trkpt>
<trkpt lat="48.7179935" lon="2.25019">
    <ele>92.462</ele>
    <time>2024-06-28T07:33:45.050899</time>
</trkpt>
<trkpt lat="48.718169" lon="2.2502697">
    <ele>92.26</ele>
    <time>2024-06-28T07:33:45.050899</time>
</trkpt>
<trkpt lat="48.7185958" lon="2.2517205">
    <ele>96.399</ele>
    <time>2024-06-28T07:33:45.050899</time>
</trkpt>
<trkpt lat="48.7188537" lon="2.2529041">
    <ele>96.715</ele>
    <time>2024-06-28T07:33:45.050899</time>
</trkpt>
<trkpt lat="48.7191255" lon="2.2529909">
    <ele>98.074</ele>
    <time>2024-06-28T07:33:45.050899</time>
</trkpt>
<trkpt lat="48.7192078" lon="2.2529191">
    <ele>98.265</ele>
    <time>2024-06-28T07:33:45.051895</time>
</trkpt>
<trkpt lat="48.7202255" lon="2.2515913">
    <ele>95.053</ele>
    <time>2024-06-28T07:33:45.051895</time>
</trkpt>
<trkpt lat="48.7198953" lon="2.2510794">
    <ele>94.876</ele>
    <time>2024-06-28T07:33:45.051895</time>
</trkpt>
<trkpt lat="48.7198989" lon="2.2510124">
    <ele>95.262</ele>
    <time>2024-06-28T07:33:45.051895</time>
</trkpt>
<trkpt lat="48.7199095" lon="2.2509509">
    <ele>95.606</ele>
    <time>2024-06-28T07:33:45.051895</time>
</trkpt>
<trkpt lat="48.7210947" lon="2.2513639">
    <ele>93.621</ele>
    <time>2024-06-28T07:33:45.051895</time>
</trkpt>
<trkpt lat="48.7211647" lon="2.2513938">
    <ele>94.211</ele>
    <time>2024-06-28T07:33:45.051895</time>
</trkpt>
<trkpt lat="48.7218256" lon="2.2490815">
    <ele>100.849</ele>
    <time>2024-06-28T07:33:45.051895</time>
</trkpt>
<trkpt lat="48.7243605" lon="2.2415232">
    <ele>98.637</ele>
    <time>2024-06-28T07:33:45.051895</time>
</trkpt>
<trkpt lat="48.7238794" lon="2.2383536">
    <ele>109.54</ele>
    <time>2024-06-28T07:33:45.051895</time>
</trkpt>
<trkpt lat="48.7248304" lon="2.2381911">
    <ele>111.266</ele>
    <time>2024-06-28T07:33:45.052898</time>
</trkpt>
<trkpt lat="48.724851" lon="2.2367549">
    <ele>117.351</ele>
    <time>2024-06-28T07:33:45.052898</time>
</trkpt>
<trkpt lat="48.724851" lon="2.2363257">
    <ele>120.579</ele>
    <time>2024-06-28T07:33:45.052898</time>
</trkpt>
<trkpt lat="48.7248541" lon="2.2355365">
    <ele>126.644</ele>
    <time>2024-06-28T07:33:45.052898</time>
</trkpt>
<trkpt lat="48.7248315" lon="2.235337">
    <ele>127.927</ele>
    <time>2024-06-28T07:33:45.052898</time>
</trkpt>
<trkpt lat="48.7247524" lon="2.2349608">
    <ele>130.198</ele>
    <time>2024-06-28T07:33:45.052898</time>
</trkpt>
<trkpt lat="48.7242479" lon="2.234791">
    <ele>133.04</ele>
    <time>2024-06-28T07:33:45.052898</time>
</trkpt>
<trkpt lat="48.7242662" lon="2.2330628">
    <ele>138.309</ele>
    <time>2024-06-28T07:33:45.052898</time>
</trkpt>
<trkpt lat="48.7243979" lon="2.2316329">
    <ele>140.634</ele>
    <time>2024-06-28T07:33:45.052898</time>
</trkpt>
<trkpt lat="48.7247078" lon="2.2305526">
    <ele>142.142</ele>
    <time>2024-06-28T07:33:45.052898</time>
</trkpt>
<trkpt lat="48.7247897" lon="2.2286053">
    <ele>145.108</ele>
    <time>2024-06-28T07:33:45.053891</time>
</trkpt>
<trkpt lat="48.7250444" lon="2.2233568">
    <ele>139.213</ele>
    <time>2024-06-28T07:33:45.053891</time>
</trkpt>
<trkpt lat="48.7255718" lon="2.2209544">
    <ele>142.721</ele>
    <time>2024-06-28T07:33:45.053891</time>
</trkpt>
<trkpt lat="48.7256884" lon="2.2198389">
    <ele>142.799</ele>
    <time>2024-06-28T07:33:45.053891</time>
</trkpt>
<trkpt lat="48.7273883" lon="2.2205272">
    <ele>139.861</ele>
    <time>2024-06-28T07:33:45.053891</time>
</trkpt>
<trkpt lat="48.7282653" lon="2.2195059">
    <ele>136.72</ele>
    <time>2024-06-28T07:33:45.053891</time>
</trkpt>
<trkpt lat="48.7297374" lon="2.217743">
    <ele>107.66</ele>
    <time>2024-06-28T07:33:45.053891</time>
</trkpt>
<trkpt lat="48.7302405" lon="2.2183766">
    <ele>103.818</ele>
    <time>2024-06-28T07:33:45.053891</time>
</trkpt>
<trkpt lat="48.7312941" lon="2.2175899">
    <ele>96.61</ele>
    <time>2024-06-28T07:33:45.053891</time>
</trkpt>
<trkpt lat="48.7322181" lon="2.2178204">
    <ele>93.403</ele>
    <time>2024-06-28T07:33:45.054883</time>
</trkpt>
<trkpt lat="48.7318484" lon="2.2165309">
    <ele>100.085</ele>
    <time>2024-06-28T07:33:45.054883</time>
</trkpt>
<trkpt lat="48.7319613" lon="2.2151842">
    <ele>103.808</ele>
    <time>2024-06-28T07:33:45.054883</time>
</trkpt>
<trkpt lat="48.733022" lon="2.2152806">
    <ele>95.878</ele>
    <time>2024-06-28T07:33:45.054883</time>
</trkpt>
<trkpt lat="48.7337125" lon="2.215168">
    <ele>88.846</ele>
    <time>2024-06-28T07:33:45.054883</time>
</trkpt>
<trkpt lat="48.7338653" lon="2.2150983">
    <ele>87.784</ele>
    <time>2024-06-28T07:33:45.054883</time>
</trkpt>
<trkpt lat="48.7352222" lon="2.2176442">
    <ele>82.201</ele>
    <time>2024-06-28T07:33:45.054883</time>
</trkpt>
<trkpt lat="48.7358549" lon="2.2210392">
    <ele>80.107</ele>
    <time>2024-06-28T07:33:45.054883</time>
</trkpt>
<trkpt lat="48.736812" lon="2.2216392">
    <ele>82.361</ele>
    <time>2024-06-28T07:33:45.054883</time>
</trkpt>
<trkpt lat="48.7373236" lon="2.2218863">
    <ele>85.961</ele>
    <time>2024-06-28T07:33:45.054883</time>
</trkpt>
<trkpt lat="48.7373101" lon="2.2226727">
    <ele>89.144</ele>
    <time>2024-06-28T07:33:45.054883</time>
</trkpt>
<trkpt lat="48.7372491" lon="2.2246007">
    <ele>91.407</ele>
    <time>2024-06-28T07:33:45.055886</time>
</trkpt>
<trkpt lat="48.7375053" lon="2.225828">
    <ele>91.624</ele>
    <time>2024-06-28T07:33:45.055886</time>
</trkpt>
<trkpt lat="48.737602" lon="2.225924">
    <ele>92.025</ele>
    <time>2024-06-28T07:33:45.055886</time>
</trkpt>
<trkpt lat="48.7386111" lon="2.2261444">
    <ele>90.708</ele>
    <time>2024-06-28T07:33:45.055886</time>
</trkpt>
<trkpt lat="48.7388857" lon="2.2259261">
    <ele>91.933</ele>
    <time>2024-06-28T07:33:45.055886</time>
</trkpt>
<trkpt lat="48.7397502" lon="2.2253003">
    <ele>96.82</ele>
    <time>2024-06-28T07:33:45.055886</time>
</trkpt>
<trkpt lat="48.7417059" lon="2.2241233">
    <ele>98.282</ele>
    <time>2024-06-28T07:33:45.055886</time>
</trkpt>
<trkpt lat="48.7464234" lon="2.2198291">
    <ele>84.809</ele>
    <time>2024-06-28T07:33:45.055886</time>
</trkpt>
<trkpt lat="48.7468754" lon="2.2193698">
    <ele>83.756</ele>
    <time>2024-06-28T07:33:45.055886</time>
</trkpt>
<trkpt lat="48.747851" lon="2.2183967">
    <ele>84.417</ele>
    <time>2024-06-28T07:33:45.056849</time>
</trkpt>
<trkpt lat="48.7487541" lon="2.2168867">
    <ele>87.658</ele>
    <time>2024-06-28T07:33:45.056849</time>
</trkpt>
<trkpt lat="48.7489563" lon="2.2163469">
    <ele>85.93</ele>
    <time>2024-06-28T07:33:45.056849</time>
</trkpt>
<trkpt lat="48.7496312" lon="2.2141926">
    <ele>89.429</ele>
    <time>2024-06-28T07:33:45.056849</time>
</trkpt>
<trkpt lat="48.7496864" lon="2.2140027">
    <ele>89.578</ele>
    <time>2024-06-28T07:33:45.056849</time>
</trkpt>
<trkpt lat="48.7502817" lon="2.2119325">
    <ele>90.835</ele>
    <time>2024-06-28T07:33:45.056849</time>
</trkpt>
<trkpt lat="48.7504813" lon="2.2117048">
    <ele>89.383</ele>
    <time>2024-06-28T07:33:45.056849</time>
</trkpt>
<trkpt lat="48.7507641" lon="2.2122581">
    <ele>85.661</ele>
    <time>2024-06-28T07:33:45.057846</time>
</trkpt>
<trkpt lat="48.7507892" lon="2.2123278">
    <ele>84.898</ele>
    <time>2024-06-28T07:33:45.057846</time>
</trkpt>
<trkpt lat="48.7512103" lon="2.2130479">
    <ele>81.3</ele>
    <time>2024-06-28T07:33:45.057846</time>
</trkpt>
<trkpt lat="48.7516075" lon="2.2136837">
    <ele>79.112</ele>
    <time>2024-06-28T07:33:45.057846</time>
</trkpt>
<trkpt lat="48.7517185" lon="2.2138623">
    <ele>77.983</ele>
    <time>2024-06-28T07:33:45.057846</time>
</trkpt>
<trkpt lat="48.7517522" lon="2.2139081">
    <ele>77.671</ele>
    <time>2024-06-28T07:33:45.057846</time>
</trkpt>
<trkpt lat="48.7524228" lon="2.2148083">
    <ele>74.976</ele>
    <time>2024-06-28T07:33:45.057846</time>
</trkpt>
<trkpt lat="48.7524076" lon="2.2149273">
    <ele>75.637</ele>
    <time>2024-06-28T07:33:45.057846</time>
</trkpt>
<trkpt lat="48.752487" lon="2.2148811">
    <ele>75.268</ele>
    <time>2024-06-28T07:33:45.057846</time>
</trkpt>
<trkpt lat="48.752595" lon="2.2149684">
    <ele>75.108</ele>
    <time>2024-06-28T07:33:45.057846</time>
</trkpt>
<trkpt lat="48.7526897" lon="2.2150882">
    <ele>75.466</ele>
    <time>2024-06-28T07:33:45.058878</time>
</trkpt>
<trkpt lat="48.7528744" lon="2.2153779">
    <ele>76.389</ele>
    <time>2024-06-28T07:33:45.058878</time>
</trkpt>
<trkpt lat="48.7540645" lon="2.2181476">
    <ele>94.216</ele>
    <time>2024-06-28T07:33:45.058878</time>
</trkpt>
<trkpt lat="48.7543081" lon="2.2172914">
    <ele>99.12</ele>
    <time>2024-06-28T07:33:45.058878</time>
</trkpt>
<trkpt lat="48.7544311" lon="2.2168998">
    <ele>100.066</ele>
    <time>2024-06-28T07:33:45.058878</time>
</trkpt>
<trkpt lat="48.7550159" lon="2.215441">
    <ele>97.325</ele>
    <time>2024-06-28T07:33:45.058878</time>
</trkpt>
<trkpt lat="48.7549401" lon="2.2151745">
    <ele>95.049</ele>
    <time>2024-06-28T07:33:45.058878</time>
</trkpt>
<trkpt lat="48.7548965" lon="2.2149743">
    <ele>94.775</ele>
    <time>2024-06-28T07:33:45.058878</time>
</trkpt>
<trkpt lat="48.7549674" lon="2.2146021">
    <ele>96.132</ele>
    <time>2024-06-28T07:33:45.058878</time>
</trkpt>
<trkpt lat="48.755106" lon="2.2139986">
    <ele>97.152</ele>
    <time>2024-06-28T07:33:45.058878</time>
</trkpt>
<trkpt lat="48.7552165" lon="2.2135896">
    <ele>96.883</ele>
    <time>2024-06-28T07:33:45.059849</time>
</trkpt>
<trkpt lat="48.7554494" lon="2.2131072">
    <ele>96.523</ele>
    <time>2024-06-28T07:33:45.059952</time>
</trkpt>
<trkpt lat="48.7559406" lon="2.2124537">
    <ele>96.531</ele>
    <time>2024-06-28T07:33:45.059952</time>
</trkpt>
<trkpt lat="48.7566681" lon="2.2114093">
    <ele>99.55</ele>
    <time>2024-06-28T07:33:45.059952</time>
</trkpt>
<trkpt lat="48.756862" lon="2.2103234">
    <ele>97.639</ele>
    <time>2024-06-28T07:33:45.059952</time>
</trkpt>
<trkpt lat="48.7566105" lon="2.2099891">
    <ele>94.657</ele>
    <time>2024-06-28T07:33:45.059952</time>
</trkpt>
<trkpt lat="48.7564046" lon="2.2097267">
    <ele>91.634</ele>
    <time>2024-06-28T07:33:45.060880</time>
</trkpt>
<trkpt lat="48.7556194" lon="2.2087468">
    <ele>82.502</ele>
    <time>2024-06-28T07:33:45.060880</time>
</trkpt>
<trkpt lat="48.7542975" lon="2.2075028">
    <ele>75.708</ele>
    <time>2024-06-28T07:33:45.060880</time>
</trkpt>
<trkpt lat="48.7535153" lon="2.2068249">
    <ele>79.333</ele>
    <time>2024-06-28T07:33:45.060880</time>
</trkpt>
<trkpt lat="48.7527876" lon="2.2062044">
    <ele>85.104</ele>
    <time>2024-06-28T07:33:45.060880</time>
</trkpt>
<trkpt lat="48.7525662" lon="2.2060185">
    <ele>87.235</ele>
    <time>2024-06-28T07:33:45.060880</time>
</trkpt>
<trkpt lat="48.7521628" lon="2.205678">
    <ele>91.665</ele>
    <time>2024-06-28T07:33:45.060880</time>
</trkpt>
<trkpt lat="48.7509489" lon="2.2097535">
    <ele>88.477</ele>
    <time>2024-06-28T07:33:45.060880</time>
</trkpt>
<trkpt lat="48.7505121" lon="2.2111367">
    <ele>90.226</ele>
    <time>2024-06-28T07:33:45.061837</time>
</trkpt>
<trkpt lat="48.7504753" lon="2.2112464">
    <ele>90.015</ele>
    <time>2024-06-28T07:33:45.061837</time>
</trkpt>
<trkpt lat="48.7502878" lon="2.2113546">
    <ele>93.005</ele>
    <time>2024-06-28T07:33:45.061837</time>
</trkpt>
<trkpt lat="48.7502947" lon="2.2115092">
    <ele>92.263</ele>
    <time>2024-06-28T07:33:45.061837</time>
</trkpt>
<trkpt lat="48.7496225" lon="2.2139636">
    <ele>90.038</ele>
    <time>2024-06-28T07:33:45.061837</time>
</trkpt>
<trkpt lat="48.7493001" lon="2.2151041">
    <ele>89.931</ele>
    <time>2024-06-28T07:33:45.061837</time>
</trkpt>
<trkpt lat="48.7473604" lon="2.2187397">
    <ele>85.158</ele>
    <time>2024-06-28T07:33:45.061837</time>
</trkpt>
<trkpt lat="48.7468765" lon="2.2192055">
    <ele>84.736</ele>
    <time>2024-06-28T07:33:45.061837</time>
</trkpt>
<trkpt lat="48.7452162" lon="2.221149">
    <ele>94.582</ele>
    <time>2024-06-28T07:33:45.061837</time>
</trkpt>
<trkpt lat="48.7441378" lon="2.2227012">
    <ele>100.44</ele>
    <time>2024-06-28T07:33:45.062833</time>
</trkpt>
<trkpt lat="48.7428253" lon="2.2237019">
    <ele>100.717</ele>
    <time>2024-06-28T07:33:45.062833</time>
</trkpt>
<trkpt lat="48.7414906" lon="2.2240118">
    <ele>98.09</ele>
    <time>2024-06-28T07:33:45.062833</time>
</trkpt>
<trkpt lat="48.7414368" lon="2.2240147">
    <ele>98.203</ele>
    <time>2024-06-28T07:33:45.062833</time>
</trkpt>
<trkpt lat="48.7413679" lon="2.2240086">
    <ele>98.361</ele>
    <time>2024-06-28T07:33:45.062833</time>
</trkpt>
<trkpt lat="48.7399554" lon="2.2238729">
    <ele>110.984</ele>
    <time>2024-06-28T07:33:45.062833</time>
</trkpt>
<trkpt lat="48.7400411" lon="2.2230087">
    <ele>114.704</ele>
    <time>2024-06-28T07:33:45.062833</time>
</trkpt>
<trkpt lat="48.7391136" lon="2.2224993">
    <ele>104.72</ele>
    <time>2024-06-28T07:33:45.062833</time>
</trkpt>
<trkpt lat="48.7387324" lon="2.2214787">
    <ele>97.084</ele>
    <time>2024-06-28T07:33:45.062833</time>
</trkpt>
<trkpt lat="48.7385874" lon="2.2211853">
    <ele>95.748</ele>
    <time>2024-06-28T07:33:45.062833</time>
</trkpt>
<trkpt lat="48.7383205" lon="2.2206929">
    <ele>96.614</ele>
    <time>2024-06-28T07:33:45.063864</time>
</trkpt>
<trkpt lat="48.7380584" lon="2.2203543">
    <ele>96.825</ele>
    <time>2024-06-28T07:33:45.063864</time>
</trkpt>
<trkpt lat="48.7367375" lon="2.2185265">
    <ele>85.539</ele>
    <time>2024-06-28T07:33:45.063864</time>
</trkpt>
<trkpt lat="48.7367288" lon="2.2184829">
    <ele>85.934</ele>
    <time>2024-06-28T07:33:45.063864</time>
</trkpt>
<trkpt lat="48.736288" lon="2.2174983">
    <ele>88.498</ele>
    <time>2024-06-28T07:33:45.063864</time>
</trkpt>
<trkpt lat="48.736165" lon="2.2172534">
    <ele>86.92</ele>
    <time>2024-06-28T07:33:45.063864</time>
</trkpt>
<trkpt lat="48.7352222" lon="2.2176442">
    <ele>82.201</ele>
    <time>2024-06-28T07:33:45.063864</time>
</trkpt>
<trkpt lat="48.7344563" lon="2.2179605">
    <ele>83.343</ele>
    <time>2024-06-28T07:33:45.063864</time>
</trkpt>
<trkpt lat="48.7336019" lon="2.2182892">
    <ele>85.434</ele>
    <time>2024-06-28T07:33:45.063864</time>
</trkpt>
<trkpt lat="48.7332373" lon="2.2184407">
    <ele>88.039</ele>
    <time>2024-06-28T07:33:45.064827</time>
</trkpt>
<trkpt lat="48.7332326" lon="2.2179635">
    <ele>88.459</ele>
    <time>2024-06-28T07:33:45.064827</time>
</trkpt>
<trkpt lat="48.7327034" lon="2.2178843">
    <ele>92.31</ele>
    <time>2024-06-28T07:33:45.064827</time>
</trkpt>
<trkpt lat="48.732467" lon="2.2191522">
    <ele>93.986</ele>
    <time>2024-06-28T07:33:45.064827</time>
</trkpt>
<trkpt lat="48.7315591" lon="2.2191353">
    <ele>102.484</ele>
    <time>2024-06-28T07:33:45.065340</time>
</trkpt>
<trkpt lat="48.730604" lon="2.2191167">
    <ele>107.775</ele>
    <time>2024-06-28T07:33:45.065340</time>
</trkpt>
<trkpt lat="48.7296813" lon="2.2195875">
    <ele>118.632</ele>
    <time>2024-06-28T07:33:45.065340</time>
</trkpt>
<trkpt lat="48.7287299" lon="2.2196666">
    <ele>131.2</ele>
    <time>2024-06-28T07:33:45.065340</time>
</trkpt>
<trkpt lat="48.7285279" lon="2.2203017">
    <ele>134.904</ele>
    <time>2024-06-28T07:33:45.065340</time>
</trkpt>
<trkpt lat="48.7295504" lon="2.2223945">
    <ele>125.023</ele>
    <time>2024-06-28T07:33:45.065859</time>
</trkpt>
<trkpt lat="48.7288916" lon="2.2232325">
    <ele>131.002</ele>
    <time>2024-06-28T07:33:45.065859</time>
</trkpt>
<trkpt lat="48.72898" lon="2.2245738">
    <ele>124.116</ele>
    <time>2024-06-28T07:33:45.065859</time>
</trkpt>
<trkpt lat="48.7295756" lon="2.2251913">
    <ele>115.998</ele>
    <time>2024-06-28T07:33:45.065859</time>
</trkpt>
<trkpt lat="48.7301615" lon="2.2266691">
    <ele>104.722</ele>
    <time>2024-06-28T07:33:45.065859</time>
</trkpt>
<trkpt lat="48.7298929" lon="2.2286346">
    <ele>94.016</ele>
    <time>2024-06-28T07:33:45.065859</time>
</trkpt>
<trkpt lat="48.7300913" lon="2.2313135">
    <ele>93.264</ele>
    <time>2024-06-28T07:33:45.065859</time>
</trkpt>
<trkpt lat="48.7304595" lon="2.2322745">
    <ele>98.439</ele>
    <time>2024-06-28T07:33:45.065859</time>
</trkpt>
<trkpt lat="48.7304635" lon="2.233254">
    <ele>96.303</ele>
    <time>2024-06-28T07:33:45.065859</time>
</trkpt>
<trkpt lat="48.7278058" lon="2.2354348">
    <ele>110.135</ele>
    <time>2024-06-28T07:33:45.065859</time>
</trkpt>
<trkpt lat="48.7283429" lon="2.2363781">
    <ele>104.825</ele>
    <time>2024-06-28T07:33:45.065859</time>
</trkpt>
<trkpt lat="48.728023" lon="2.2368547">
    <ele>108.579</ele>
    <time>2024-06-28T07:33:45.066851</time>
</trkpt>
<trkpt lat="48.7279791" lon="2.239392">
    <ele>105.773</ele>
    <time>2024-06-28T07:33:45.066851</time>
</trkpt>
<trkpt lat="48.7273043" lon="2.239331">
    <ele>104.909</ele>
    <time>2024-06-28T07:33:45.066851</time>
</trkpt>
<trkpt lat="48.727342" lon="2.2390495">
    <ele>105.47</ele>
    <time>2024-06-28T07:33:45.066851</time>
</trkpt>
<trkpt lat="48.7248067" lon="2.239466">
    <ele>108.65</ele>
    <time>2024-06-28T07:33:45.066851</time>
</trkpt>
<trkpt lat="48.7248289" lon="2.2386215">
    <ele>111.217</ele>
    <time>2024-06-28T07:33:45.066851</time>
</trkpt>
<trkpt lat="48.7238794" lon="2.2383536">
    <ele>109.54</ele>
    <time>2024-06-28T07:33:45.066851</time>
</trkpt>
<trkpt lat="48.7212948" lon="2.2328494">
    <ele>140.018</ele>
    <time>2024-06-28T07:33:45.066851</time>
</trkpt>
<trkpt lat="48.7187495" lon="2.2314883">
    <ele>148.086</ele>
    <time>2024-06-28T07:33:45.066851</time>
</trkpt>
<trkpt lat="48.7186574" lon="2.2314623">
    <ele>148.585</ele>
    <time>2024-06-28T07:33:45.066851</time>
</trkpt>
<trkpt lat="48.7186261" lon="2.2313499">
    <ele>149.034</ele>
    <time>2024-06-28T07:33:45.067855</time>
</trkpt>
<trkpt lat="48.7186444" lon="2.2311738">
    <ele>149.16</ele>
    <time>2024-06-28T07:33:45.067855</time>
</trkpt>
<trkpt lat="48.7185395" lon="2.2298288">
    <ele>149.314</ele>
    <time>2024-06-28T07:33:45.067855</time>
</trkpt>
<trkpt lat="48.7185712" lon="2.2289426">
    <ele>150.077</ele>
    <time>2024-06-28T07:33:45.067855</time>
</trkpt>
<trkpt lat="48.7186015" lon="2.2280121">
    <ele>150.306</ele>
    <time>2024-06-28T07:33:45.067855</time>
</trkpt>
<trkpt lat="48.7187128" lon="2.2263342">
    <ele>152.685</ele>
    <time>2024-06-28T07:33:45.067855</time>
</trkpt>
<trkpt lat="48.7187297" lon="2.2261329">
    <ele>153.165</ele>
    <time>2024-06-28T07:33:45.067855</time>
</trkpt>
<trkpt lat="48.7190782" lon="2.2257024">
    <ele>151.159</ele>
    <time>2024-06-28T07:33:45.067855</time>
</trkpt>
<trkpt lat="48.7188257" lon="2.2251088">
    <ele>152.01</ele>
    <time>2024-06-28T07:33:45.067855</time>
</trkpt>
<trkpt lat="48.7188347" lon="2.2250507">
    <ele>152.043</ele>
    <time>2024-06-28T07:33:45.067855</time>
</trkpt>
<trkpt lat="48.7198695" lon="2.2249533">
    <ele>149.507</ele>
    <time>2024-06-28T07:33:45.068846</time>
</trkpt>
<trkpt lat="48.7198971" lon="2.224844">
    <ele>149.471</ele>
    <time>2024-06-28T07:33:45.068846</time>
</trkpt>
<trkpt lat="48.7196767" lon="2.2225845">
    <ele>153.009</ele>
    <time>2024-06-28T07:33:45.068846</time>
</trkpt>
<trkpt lat="48.7189408" lon="2.2175487">
    <ele>153.216</ele>
    <time>2024-06-28T07:33:45.068846</time>
</trkpt>
<trkpt lat="48.7194733" lon="2.2090206">
    <ele>156.119</ele>
    <time>2024-06-28T07:33:45.068846</time>
</trkpt>
<trkpt lat="48.721141" lon="2.2039276">
    <ele>151.074</ele>
    <time>2024-06-28T07:33:45.068846</time>
</trkpt>
<trkpt lat="48.7211865" lon="2.2037706">
    <ele>150.659</ele>
    <time>2024-06-28T07:33:45.068846</time>
</trkpt>
<trkpt lat="48.7210293" lon="2.2037215">
    <ele>150.706</ele>
    <time>2024-06-28T07:33:45.068846</time>
</trkpt>
<trkpt lat="48.7199924" lon="2.2034551">
    <ele>153.543</ele>
    <time>2024-06-28T07:33:45.068846</time>
</trkpt>
<trkpt lat="48.7187453" lon="2.2031541">
    <ele>153.54</ele>
    <time>2024-06-28T07:33:45.068846</time>
</trkpt>
<trkpt lat="48.7182287" lon="2.2030235">
    <ele>153.949</ele>
    <time>2024-06-28T07:33:45.069848</time>
</trkpt>
<trkpt lat="48.7181492" lon="2.2030061">
    <ele>154.046</ele>
    <time>2024-06-28T07:33:45.069848</time>
</trkpt>
<trkpt lat="48.7185435" lon="2.1993328">
    <ele>153.88</ele>
    <time>2024-06-28T07:33:45.069848</time>
</trkpt>
<trkpt lat="48.7191204" lon="2.1938613">
    <ele>154.794</ele>
    <time>2024-06-28T07:33:45.069848</time>
</trkpt>
<trkpt lat="48.7191362" lon="2.1937107">
    <ele>154.799</ele>
    <time>2024-06-28T07:33:45.069848</time>
</trkpt>
<trkpt lat="48.719162" lon="2.1935085">
    <ele>154.802</ele>
    <time>2024-06-28T07:33:45.069848</time>
</trkpt>
<trkpt lat="48.7177162" lon="2.1931529">
    <ele>155.264</ele>
    <time>2024-06-28T07:33:45.069848</time>
</trkpt>
<trkpt lat="48.7177248" lon="2.1930477">
    <ele>155.348</ele>
    <time>2024-06-28T07:33:45.069848</time>
</trkpt>
<trkpt lat="48.7178161" lon="2.192241">
    <ele>155.479</ele>
    <time>2024-06-28T07:33:45.069848</time>
</trkpt>
<trkpt lat="48.7159946" lon="2.1897293">
    <ele>156.084</ele>
    <time>2024-06-28T07:33:45.069848</time>
</trkpt>
<trkpt lat="48.7158594" lon="2.1896976">
    <ele>156.348</ele>
    <time>2024-06-28T07:33:45.070814</time>
</trkpt>
<trkpt lat="48.7160628" lon="2.1879181">
    <ele>157.347</ele>
    <time>2024-06-28T07:33:45.070814</time>
</trkpt>
<trkpt lat="48.7163761" lon="2.1849704">
    <ele>158.376</ele>
    <time>2024-06-28T07:33:45.070814</time>
</trkpt>
<trkpt lat="48.7163605" lon="2.1837549">
    <ele>158.679</ele>
    <time>2024-06-28T07:33:45.071078</time>
</trkpt>
<trkpt lat="48.715319" lon="2.1803804">
    <ele>156.137</ele>
    <time>2024-06-28T07:33:45.071078</time>
</trkpt>
<trkpt lat="48.7152585" lon="2.180256">
    <ele>156.202</ele>
    <time>2024-06-28T07:33:45.071078</time>
</trkpt>
<trkpt lat="48.7151541" lon="2.1800618">
    <ele>156.432</ele>
    <time>2024-06-28T07:33:45.071078</time>
</trkpt>
<trkpt lat="48.7154455" lon="2.1778538">
    <ele>154.798</ele>
    <time>2024-06-28T07:33:45.071078</time>
</trkpt>
<trkpt lat="48.7152416" lon="2.1777137">
    <ele>154.194</ele>
    <time>2024-06-28T07:33:45.071078</time>
</trkpt>
<trkpt lat="48.7119693" lon="2.1753145">
    <ele>150.47</ele>
    <time>2024-06-28T07:33:45.071078</time>
</trkpt>
<trkpt lat="48.7119343" lon="2.1752399">
    <ele>150.596</ele>
    <time>2024-06-28T07:33:45.071838</time>
</trkpt>
<trkpt lat="48.7117211" lon="2.1754026">
    <ele>151.249</ele>
    <time>2024-06-28T07:33:45.071838</time>
</trkpt>
<trkpt lat="48.7116888" lon="2.1754194">
    <ele>151.386</ele>
    <time>2024-06-28T07:33:45.071838</time>
</trkpt>
<trkpt lat="48.7117224" lon="2.1725894">
    <ele>153.067</ele>
    <time>2024-06-28T07:33:45.071838</time>
</trkpt>
<trkpt lat="48.7110559" lon="2.1725881">
    <ele>153.874</ele>
    <time>2024-06-28T07:33:45.071838</time>
</trkpt>
<trkpt lat="48.7110144" lon="2.1725883">
    <ele>153.982</ele>
    <time>2024-06-28T07:33:45.071838</time>
</trkpt>
<trkpt lat="48.7096344" lon="2.1725701">
    <ele>154.445</ele>
    <time>2024-06-28T07:33:45.071838</time>
</trkpt>
<trkpt lat="48.7092557" lon="2.1725687">
    <ele>154.507</ele>
    <time>2024-06-28T07:33:45.071838</time>
</trkpt>
<trkpt lat="48.7089126" lon="2.1725603">
    <ele>155.095</ele>
    <time>2024-06-28T07:33:45.071838</time>
</trkpt>
<trkpt lat="48.7082369" lon="2.1725412">
    <ele>155.262</ele>
    <time>2024-06-28T07:33:45.071838</time>
</trkpt>
<trkpt lat="48.7081333" lon="2.1725392">
    <ele>155.48</ele>
    <time>2024-06-28T07:33:45.072808</time>
</trkpt>
<trkpt lat="48.7079435" lon="2.1741228">
    <ele>155.493</ele>
    <time>2024-06-28T07:33:45.072808</time>
</trkpt>
<trkpt lat="48.70793" lon="2.1747509">
    <ele>155.512</ele>
    <time>2024-06-28T07:33:45.072808</time>
</trkpt>
<trkpt lat="48.7078957" lon="2.175954">
    <ele>154.475</ele>
    <time>2024-06-28T07:33:45.073088</time>
</trkpt>
<trkpt lat="48.707886" lon="2.17633">
    <ele>154.531</ele>
    <time>2024-06-28T07:33:45.073088</time>
</trkpt>
<trkpt lat="48.7078844" lon="2.1763673">
    <ele>154.553</ele>
    <time>2024-06-28T07:33:45.073088</time>
</trkpt>
<trkpt lat="48.7077144" lon="2.1766249">
    <ele>155.338</ele>
    <time>2024-06-28T07:33:45.073088</time>
</trkpt>
<trkpt lat="48.7076549" lon="2.1767566">
    <ele>155.728</ele>
    <time>2024-06-28T07:33:45.073088</time>
</trkpt>
<trkpt lat="48.7076289" lon="2.1768422">
    <ele>155.83</ele>
    <time>2024-06-28T07:33:45.073088</time>
</trkpt>
<trkpt lat="48.7075943" lon="2.1780342">
    <ele>153.706</ele>
    <time>2024-06-28T07:33:45.073088</time>
</trkpt>
<trkpt lat="48.7077542" lon="2.1799843">
    <ele>151.507</ele>
    <time>2024-06-28T07:33:45.073088</time>
</trkpt>
<trkpt lat="48.7077296" lon="2.1854938">
    <ele>109.627</ele>
    <time>2024-06-28T07:33:45.073838</time>
</trkpt>
<trkpt lat="48.7077086" lon="2.1855004">
    <ele>109.809</ele>
    <time>2024-06-28T07:33:45.073838</time>
</trkpt>
<trkpt lat="48.7058096" lon="2.1856358">
    <ele>115.894</ele>
    <time>2024-06-28T07:33:45.073838</time>
</trkpt>
<trkpt lat="48.7060815" lon="2.1872948">
    <ele>98.792</ele>
    <time>2024-06-28T07:33:45.073838</time>
</trkpt>
<trkpt lat="48.7061163" lon="2.1874533">
    <ele>97.165</ele>
    <time>2024-06-28T07:33:45.073838</time>
</trkpt>
<trkpt lat="48.704719" lon="2.1884501">
    <ele>100.317</ele>
    <time>2024-06-28T07:33:45.073838</time>
</trkpt>
<trkpt lat="48.7051294" lon="2.1909449">
    <ele>78.624</ele>
    <time>2024-06-28T07:33:45.073838</time>
</trkpt>
<trkpt lat="48.7052546" lon="2.1909514">
    <ele>78.361</ele>
    <time>2024-06-28T07:33:45.073838</time>
</trkpt>
<trkpt lat="48.7054537" lon="2.1913824">
    <ele>75.839</ele>
    <time>2024-06-28T07:33:45.073838</time>
</trkpt>
<trkpt lat="48.7061705" lon="2.1922288">
    <ele>78.247</ele>
    <time>2024-06-28T07:33:45.073838</time>
</trkpt>
<trkpt lat="48.706407" lon="2.1925133">
    <ele>81.997</ele>
    <time>2024-06-28T07:33:45.074830</time>
</trkpt>
<trkpt lat="48.7064325" lon="2.1925422">
    <ele>82.198</ele>
    <time>2024-06-28T07:33:45.074830</time>
</trkpt>
<trkpt lat="48.706503" lon="2.1926267">
    <ele>82.945</ele>
    <time>2024-06-28T07:33:45.074830</time>
</trkpt>
<trkpt lat="48.7067014" lon="2.1928651">
    <ele>85.208</ele>
    <time>2024-06-28T07:33:45.074830</time>
</trkpt>
<trkpt lat="48.7071262" lon="2.1934133">
    <ele>89.943</ele>
    <time>2024-06-28T07:33:45.074830</time>
</trkpt>
<trkpt lat="48.7067984" lon="2.1953003">
    <ele>88.249</ele>
    <time>2024-06-28T07:33:45.074830</time>
</trkpt>
<trkpt lat="48.7068623" lon="2.1957482">
    <ele>89.767</ele>
    <time>2024-06-28T07:33:45.074830</time>
</trkpt>
<trkpt lat="48.7072327" lon="2.1972353">
    <ele>93.273</ele>
    <time>2024-06-28T07:33:45.074830</time>
</trkpt>
<trkpt lat="48.706947" lon="2.1988864">
    <ele>87.522</ele>
    <time>2024-06-28T07:33:45.074830</time>
</trkpt>
<trkpt lat="48.706824" lon="2.1996254">
    <ele>87.617</ele>
    <time>2024-06-28T07:33:45.074830</time>
</trkpt>
<trkpt lat="48.7065983" lon="2.2007988">
    <ele>88.207</ele>
    <time>2024-06-28T07:33:45.075830</time>
</trkpt>
<trkpt lat="48.7064875" lon="2.2011532">
    <ele>87.785</ele>
    <time>2024-06-28T07:33:45.075830</time>
</trkpt>
<trkpt lat="48.7062283" lon="2.2047757">
    <ele>85.564</ele>
    <time>2024-06-28T07:33:45.075830</time>
</trkpt>
<trkpt lat="48.7059835" lon="2.2053206">
    <ele>82.127</ele>
    <time>2024-06-28T07:33:45.075830</time>
</trkpt>
<trkpt lat="48.7059295" lon="2.2060349">
    <ele>82.333</ele>
    <time>2024-06-28T07:33:45.075830</time>
</trkpt>
<trkpt lat="48.7061499" lon="2.2107211">
    <ele>83.964</ele>
    <time>2024-06-28T07:33:45.075830</time>
</trkpt>
<trkpt lat="48.7062346" lon="2.2112758">
    <ele>84.416</ele>
    <time>2024-06-28T07:33:45.075830</time>
</trkpt>
<trkpt lat="48.7062731" lon="2.212308">
    <ele>87.408</ele>
    <time>2024-06-28T07:33:45.075830</time>
</trkpt>
<trkpt lat="48.7061137" lon="2.2124972">
    <ele>87.172</ele>
    <time>2024-06-28T07:33:45.075830</time>
</trkpt>
<trkpt lat="48.7057626" lon="2.2138729">
    <ele>85.414</ele>
    <time>2024-06-28T07:33:45.076796</time>
</trkpt>
<trkpt lat="48.705678" lon="2.2178418">
    <ele>85.524</ele>
    <time>2024-06-28T07:33:45.076796</time>
</trkpt>
<trkpt lat="48.7057657" lon="2.2194881">
    <ele>91.41</ele>
    <time>2024-06-28T07:33:45.076796</time>
</trkpt>
<trkpt lat="48.7060418" lon="2.2230032">
    <ele>94.365</ele>
    <time>2024-06-28T07:33:45.076796</time>
</trkpt>
<trkpt lat="48.7061331" lon="2.2247599">
    <ele>88.605</ele>
    <time>2024-06-28T07:33:45.076796</time>
</trkpt>
<trkpt lat="48.706176" lon="2.2255194">
    <ele>86.412</ele>
    <time>2024-06-28T07:33:45.076796</time>
</trkpt>
<trkpt lat="48.7061949" lon="2.2258496">
    <ele>86.78</ele>
    <time>2024-06-28T07:33:45.077795</time>
</trkpt>
<trkpt lat="48.7061461" lon="2.2295652">
    <ele>93.366</ele>
    <time>2024-06-28T07:33:45.077795</time>
</trkpt>
<trkpt lat="48.7053945" lon="2.2323447">
    <ele>88.858</ele>
    <time>2024-06-28T07:33:45.077795</time>
</trkpt>
<trkpt lat="48.7055664" lon="2.2343573">
    <ele>91.678</ele>
    <time>2024-06-28T07:33:45.077795</time>
</trkpt>
<trkpt lat="48.7079891" lon="2.2368218">
    <ele>91.018</ele>
    <time>2024-06-28T07:33:45.077795</time>
</trkpt>
<trkpt lat="48.7097769" lon="2.2369952">
    <ele>86.528</ele>
    <time>2024-06-28T07:33:45.077795</time>
</trkpt>
<trkpt lat="48.7103427" lon="2.2372107">
    <ele>86.482</ele>
    <time>2024-06-28T07:33:45.077795</time>
</trkpt>
<trkpt lat="48.7107563" lon="2.2374052">
    <ele>90.177</ele>
    <time>2024-06-28T07:33:45.077795</time>
</trkpt>
<trkpt lat="48.7107938" lon="2.2374462">
    <ele>90.602</ele>
    <time>2024-06-28T07:33:45.077795</time>
</trkpt>
<trkpt lat="48.7111901" lon="2.2386617">
    <ele>90.756</ele>
    <time>2024-06-28T07:33:45.077795</time>
</trkpt>
<trkpt lat="48.7113528" lon="2.2382365">
    <ele>94.35</ele>
    <time>2024-06-28T07:33:45.078829</time>
</trkpt>
<trkpt lat="48.7129835" lon="2.2396952">
    <ele>96.567</ele>
    <time>2024-06-28T07:33:45.078829</time>
</trkpt>
<trkpt lat="48.7130933" lon="2.240525">
    <ele>93.516</ele>
    <time>2024-06-28T07:33:45.078829</time>
</trkpt>
<trkpt lat="48.7129456" lon="2.2409559">
    <ele>90.224</ele>
    <time>2024-06-28T07:33:45.078829</time>
</trkpt>
<trkpt lat="48.7128796" lon="2.2411584">
    <ele>87.99</ele>
    <time>2024-06-28T07:33:45.078829</time>
</trkpt>
<trkpt lat="48.713973" lon="2.2425815">
    <ele>93.103</ele>
    <time>2024-06-28T07:33:45.078829</time>
</trkpt>
<trkpt lat="48.714078" lon="2.2427209">
    <ele>93.21</ele>
    <time>2024-06-28T07:33:45.078829</time>
</trkpt>
<trkpt lat="48.7142686" lon="2.2429429">
    <ele>95.091</ele>
    <time>2024-06-28T07:33:45.078829</time>
</trkpt>
<trkpt lat="48.7141056" lon="2.2432479">
    <ele>91.774</ele>
    <time>2024-06-28T07:33:45.078829</time>
</trkpt>
<trkpt lat="48.7175076" lon="2.2468067">
    <ele>92.746</ele>
    <time>2024-06-28T07:33:45.079825</time>
</trkpt>
<trkpt lat="48.7175708" lon="2.2473185">
    <ele>91.076</ele>
    <time>2024-06-28T07:33:45.079825</time>
</trkpt>
<trkpt lat="48.7175182" lon="2.2478678">
    <ele>87.863</ele>
    <time>2024-06-28T07:33:45.079825</time>
</trkpt>
<trkpt lat="48.7171842" lon="2.2476824">
    <ele>87.441</ele>
    <time>2024-06-28T07:33:45.079825</time>
</trkpt>
<trkpt lat="48.7168912" lon="2.2486534">
    <ele>83.325</ele>
    <time>2024-06-28T07:33:45.079825</time>
</trkpt>
<trkpt lat="48.7173599" lon="2.248884">
    <ele>86.524</ele>
    <time>2024-06-28T07:33:45.079825</time>
</trkpt>
<trkpt lat="48.7174226" lon="2.2489162">
    <ele>87.104</ele>
    <time>2024-06-28T07:33:45.079825</time>
</trkpt>
<trkpt lat="48.7178323" lon="2.2491419">
    <ele>88.823</ele>
    <time>2024-06-28T07:33:45.079825</time>
</trkpt>
<trkpt lat="48.717884" lon="2.2491664">
    <ele>89.242</ele>
    <time>2024-06-28T07:33:45.080823</time>
</trkpt>
<trkpt lat="48.7180067" lon="2.2496474">
    <ele>90.322</ele>
    <time>2024-06-28T07:33:45.080823</time>
</trkpt>
<trkpt lat="48.7180432" lon="2.2498136">
    <ele>91.567</ele>
    <time>2024-06-28T07:33:45.080823</time>
</trkpt>
<trkpt lat="48.7181637" lon="2.2498223">
    <ele>91.293</ele>
    <time>2024-06-28T07:33:45.080823</time>
</trkpt>
<trkpt lat="48.7182001" lon="2.2497618">
    <ele>91.408</ele>
    <time>2024-06-28T07:33:45.080823</time>
</trkpt>
<trkpt lat="48.7182179" lon="2.2497322">
    <ele>91.645</ele>
    <time>2024-06-28T07:33:45.080823</time>
</trkpt>
<trkpt lat="48.7187443" lon="2.2494505">
    <ele>93.646</ele>
    <time>2024-06-28T07:33:45.080823</time>
</trkpt>
<trkpt lat="48.7189544" lon="2.2497332">
    <ele>95.192</ele>
    <time>2024-06-28T07:33:45.081599</time>
</trkpt>
<trkpt lat="48.7195095" lon="2.2505283">
    <ele>95.952</ele>
    <time>2024-06-28T07:33:45.081782</time>
</trkpt>
<trkpt lat="48.7197696" lon="2.2508772">
    <ele>96.249</ele>
    <time>2024-06-28T07:33:45.081782</time>
</trkpt>
<trkpt lat="48.7198683" lon="2.2509292">
    <ele>95.775</ele>
    <time>2024-06-28T07:33:45.081782</time>
</trkpt>
<trkpt lat="48.7199095" lon="2.2509509">
    <ele>95.606</ele>
    <time>2024-06-28T07:33:45.081782</time>
</trkpt>
<trkpt lat="48.7210947" lon="2.2513639">
    <ele>93.621</ele>
    <time>2024-06-28T07:33:45.081782</time>
</trkpt>
<trkpt lat="48.7211647" lon="2.2513938">
    <ele>94.211</ele>
    <time>2024-06-28T07:33:45.081782</time>
</trkpt>
<trkpt lat="48.7238046" lon="2.2546215">
    <ele>88.282</ele>
    <time>2024-06-28T07:33:45.081782</time>
</trkpt>
<trkpt lat="48.7242759" lon="2.2550011">
    <ele>88.972</ele>
    <time>2024-06-28T07:33:45.082781</time>
</trkpt>
<trkpt lat="48.7246381" lon="2.2554013">
    <ele>87.008</ele>
    <time>2024-06-28T07:33:45.082781</time>
</trkpt>
<trkpt lat="48.7247878" lon="2.2555862">
    <ele>86.645</ele>
    <time>2024-06-28T07:33:45.082781</time>
</trkpt>
<trkpt lat="48.7251228" lon="2.2559864">
    <ele>85.19</ele>
    <time>2024-06-28T07:33:45.082781</time>
</trkpt>
<trkpt lat="48.7251916" lon="2.2560471">
    <ele>85.405</ele>
    <time>2024-06-28T07:33:45.082781</time>
</trkpt>
<trkpt lat="48.7258602" lon="2.2566398">
    <ele>85.652</ele>
    <time>2024-06-28T07:33:45.082781</time>
</trkpt>
<trkpt lat="48.7263751" lon="2.2571149">
    <ele>85.112</ele>
    <time>2024-06-28T07:33:45.082781</time>
</trkpt>
<trkpt lat="48.7264076" lon="2.2570619">
    <ele>85.074</ele>
    <time>2024-06-28T07:33:45.082781</time>
</trkpt>
<trkpt lat="48.7268669" lon="2.2575591">
    <ele>84.698</ele>
    <time>2024-06-28T07:33:45.082781</time>
</trkpt>
<trkpt lat="48.7271291" lon="2.2578703">
    <ele>84.846</ele>
    <time>2024-06-28T07:33:45.082781</time>
</trkpt>
<trkpt lat="48.7271572" lon="2.2580041">
    <ele>85.061</ele>
    <time>2024-06-28T07:33:45.083809</time>
</trkpt>
<trkpt lat="48.7275445" lon="2.2584649">
    <ele>83.856</ele>
    <time>2024-06-28T07:33:45.083809</time>
</trkpt>
<trkpt lat="48.7282185" lon="2.2592786">
    <ele>83.432</ele>
    <time>2024-06-28T07:33:45.083809</time>
</trkpt>
<trkpt lat="48.7292841" lon="2.2605897">
    <ele>83.433</ele>
    <time>2024-06-28T07:33:45.083809</time>
</trkpt>
<trkpt lat="48.729745" lon="2.2611402">
    <ele>82.049</ele>
    <time>2024-06-28T07:33:45.083809</time>
</trkpt>
<trkpt lat="48.7301507" lon="2.2614733">
    <ele>81.219</ele>
    <time>2024-06-28T07:33:45.083809</time>
</trkpt>
<trkpt lat="48.7321379" lon="2.2658161">
    <ele>74.922</ele>
    <time>2024-06-28T07:33:45.083809</time>
</trkpt>
<trkpt lat="48.7322725" lon="2.2661387">
    <ele>72.121</ele>
    <time>2024-06-28T07:33:45.083809</time>
</trkpt>
<trkpt lat="48.7324632" lon="2.2661364">
    <ele>71.764</ele>
    <time>2024-06-28T07:33:45.083809</time>
</trkpt>
<trkpt lat="48.7327159" lon="2.2665144">
    <ele>71.003</ele>
    <time>2024-06-28T07:33:45.083809</time>
</trkpt>
<trkpt lat="48.7337076" lon="2.2688772">
    <ele>65.494</ele>
    <time>2024-06-28T07:33:45.083809</time>
</trkpt>
<trkpt lat="48.7345904" lon="2.2703901">
    <ele>63.143</ele>
    <time>2024-06-28T07:33:45.084812</time>
</trkpt>
<trkpt lat="48.7350289" lon="2.270823">
    <ele>67.033</ele>
    <time>2024-06-28T07:33:45.084812</time>
</trkpt>
<trkpt lat="48.7352347" lon="2.2709877">
    <ele>67.232</ele>
    <time>2024-06-28T07:33:45.084812</time>
</trkpt>
<trkpt lat="48.7353734" lon="2.2710806">
    <ele>66.615</ele>
    <time>2024-06-28T07:33:45.084812</time>
</trkpt>
<trkpt lat="48.7370849" lon="2.2722547">
    <ele>60.612</ele>
    <time>2024-06-28T07:33:45.084812</time>
</trkpt>
<trkpt lat="48.7374911" lon="2.2725319">
    <ele>57.328</ele>
    <time>2024-06-28T07:33:45.084812</time>
</trkpt>
<trkpt lat="48.7374995" lon="2.2725507">
    <ele>57.423</ele>
    <time>2024-06-28T07:33:45.084812</time>
</trkpt>
<trkpt lat="48.7374946" lon="2.272889">
    <ele>59.232</ele>
    <time>2024-06-28T07:33:45.084812</time>
</trkpt>
<trkpt lat="48.737486" lon="2.2729069">
    <ele>59.297</ele>
    <time>2024-06-28T07:33:45.084812</time>
</trkpt>
<trkpt lat="48.7379833" lon="2.2727745">
    <ele>57.202</ele>
    <time>2024-06-28T07:33:45.084812</time>
</trkpt>
<trkpt lat="48.7380491" lon="2.2726525">
    <ele>57.174</ele>
    <time>2024-06-28T07:33:45.085771</time>
</trkpt>
<trkpt lat="48.7385039" lon="2.2733906">
    <ele>59.445</ele>
    <time>2024-06-28T07:33:45.085771</time>
</trkpt>
<trkpt lat="48.7403309" lon="2.274643">
    <ele>61.056</ele>
    <time>2024-06-28T07:33:45.085771</time>
</trkpt>
<trkpt lat="48.7403812" lon="2.2746664">
    <ele>60.952</ele>
    <time>2024-06-28T07:33:45.085771</time>
</trkpt>
<trkpt lat="48.7404256" lon="2.2747179">
    <ele>61.164</ele>
    <time>2024-06-28T07:33:45.085771</time>
</trkpt>
<trkpt lat="48.7404801" lon="2.274781">
    <ele>61.68</ele>
    <time>2024-06-28T07:33:45.085771</time>
</trkpt>
<trkpt lat="48.7408752" lon="2.2747592">
    <ele>62.162</ele>
    <time>2024-06-28T07:33:45.085771</time>
</trkpt>
<trkpt lat="48.7445482" lon="2.2773778">
    <ele>66.131</ele>
    <time>2024-06-28T07:33:45.085771</time>
</trkpt>
<trkpt lat="48.7446174" lon="2.2774065">
    <ele>66.442</ele>
    <time>2024-06-28T07:33:45.085771</time>
</trkpt>
<trkpt lat="48.7449164" lon="2.2778405">
    <ele>68.034</ele>
    <time>2024-06-28T07:33:45.085771</time>
</trkpt>
<trkpt lat="48.7453152" lon="2.2780145">
    <ele>69.744</ele>
    <time>2024-06-28T07:33:45.086768</time>
</trkpt>
<trkpt lat="48.7453745" lon="2.2779793">
    <ele>70.45</ele>
    <time>2024-06-28T07:33:45.086768</time>
</trkpt>
<trkpt lat="48.7470654" lon="2.2782767">
    <ele>80.626</ele>
    <time>2024-06-28T07:33:45.086768</time>
</trkpt>
<trkpt lat="48.7475491" lon="2.2784239">
    <ele>82.185</ele>
    <time>2024-06-28T07:33:45.086768</time>
</trkpt>
<trkpt lat="48.7477449" lon="2.2786901">
    <ele>82.183</ele>
    <time>2024-06-28T07:33:45.086768</time>
</trkpt>
<trkpt lat="48.7484571" lon="2.2790425">
    <ele>80.249</ele>
    <time>2024-06-28T07:33:45.086768</time>
</trkpt>
<trkpt lat="48.749134" lon="2.2798979">
    <ele>81.176</ele>
    <time>2024-06-28T07:33:45.086768</time>
</trkpt>
<trkpt lat="48.7512488" lon="2.2815297">
    <ele>79.779</ele>
    <time>2024-06-28T07:33:45.086768</time>
</trkpt>
<trkpt lat="48.7513068" lon="2.2819879">
    <ele>81.394</ele>
    <time>2024-06-28T07:33:45.086768</time>
</trkpt>
<trkpt lat="48.7513874" lon="2.2820844">
    <ele>82.476</ele>
    <time>2024-06-28T07:33:45.086768</time>
</trkpt>
<trkpt lat="48.7508304" lon="2.2796626">
    <ele>79.024</ele>
    <time>2024-06-28T07:33:45.087766</time>
</trkpt>
<trkpt lat="48.7508684" lon="2.279409">
    <ele>79.903</ele>
    <time>2024-06-28T07:33:45.087766</time>
</trkpt>
<trkpt lat="48.7511125" lon="2.2787981">
    <ele>82.822</ele>
    <time>2024-06-28T07:33:45.087766</time>
</trkpt>
<trkpt lat="48.7511842" lon="2.277807">
    <ele>84.286</ele>
    <time>2024-06-28T07:33:45.087766</time>
</trkpt>
<trkpt lat="48.7526697" lon="2.2770336">
    <ele>86.191</ele>
    <time>2024-06-28T07:33:45.087766</time>
</trkpt>
<trkpt lat="48.7535788" lon="2.2758235">
    <ele>87.097</ele>
    <time>2024-06-28T07:33:45.087766</time>
</trkpt>
<trkpt lat="48.7538582" lon="2.2754652">
    <ele>87.614</ele>
    <time>2024-06-28T07:33:45.087766</time>
</trkpt>
<trkpt lat="48.7542844" lon="2.2749188">
    <ele>88.128</ele>
    <time>2024-06-28T07:33:45.087766</time>
</trkpt>
<trkpt lat="48.7545257" lon="2.2746052">
    <ele>88.219</ele>
    <time>2024-06-28T07:33:45.087766</time>
</trkpt>
<trkpt lat="48.7545779" lon="2.2745322">
    <ele>88.034</ele>
    <time>2024-06-28T07:33:45.087766</time>
</trkpt>
<trkpt lat="48.7546496" lon="2.2744465">
    <ele>88.281</ele>
    <time>2024-06-28T07:33:45.088763</time>
</trkpt>
<trkpt lat="48.7547376" lon="2.2743612">
    <ele>88.528</ele>
    <time>2024-06-28T07:33:45.088763</time>
</trkpt>
<trkpt lat="48.754947" lon="2.2740608">
    <ele>88.705</ele>
    <time>2024-06-28T07:33:45.088763</time>
</trkpt>
<trkpt lat="48.755263" lon="2.2735345">
    <ele>89.714</ele>
    <time>2024-06-28T07:33:45.088763</time>
</trkpt>
<trkpt lat="48.7559867" lon="2.2723501">
    <ele>92.315</ele>
    <time>2024-06-28T07:33:45.088763</time>
</trkpt>
<trkpt lat="48.7566741" lon="2.2712338">
    <ele>95.768</ele>
    <time>2024-06-28T07:33:45.088763</time>
</trkpt>
<trkpt lat="48.7568682" lon="2.2709927">
    <ele>97.462</ele>
    <time>2024-06-28T07:33:45.088763</time>
</trkpt>
<trkpt lat="48.7570039" lon="2.2707598">
    <ele>97.202</ele>
    <time>2024-06-28T07:33:45.088763</time>
</trkpt>
<trkpt lat="48.7576559" lon="2.2695862">
    <ele>100.275</ele>
    <time>2024-06-28T07:33:45.088763</time>
</trkpt>
<trkpt lat="48.7595558" lon="2.2705173">
    <ele>107.092</ele>
    <time>2024-06-28T07:33:45.088763</time>
</trkpt>
<trkpt lat="48.7601395" lon="2.2707798">
    <ele>109.28</ele>
    <time>2024-06-28T07:33:45.089760</time>
</trkpt>
<trkpt lat="48.7608157" lon="2.270955">
    <ele>113.773</ele>
    <time>2024-06-28T07:33:45.089760</time>
</trkpt>
<trkpt lat="48.7624871" lon="2.2711945">
    <ele>113.466</ele>
    <time>2024-06-28T07:33:45.089760</time>
</trkpt>
<trkpt lat="48.7638463" lon="2.2719775">
    <ele>101.744</ele>
    <time>2024-06-28T07:33:45.089760</time>
</trkpt>
<trkpt lat="48.7640432" lon="2.2720329">
    <ele>102.081</ele>
    <time>2024-06-28T07:33:45.089760</time>
</trkpt>
<trkpt lat="48.7640533" lon="2.2719133">
    <ele>102.12</ele>
    <time>2024-06-28T07:33:45.089760</time>
</trkpt>
<trkpt lat="48.7641695" lon="2.2707015">
    <ele>105.683</ele>
    <time>2024-06-28T07:33:45.089760</time>
</trkpt>
<trkpt lat="48.7643129" lon="2.26935">
    <ele>110.606</ele>
    <time>2024-06-28T07:33:45.089760</time>
</trkpt>
<trkpt lat="48.7644363" lon="2.2684059">
    <ele>114.133</ele>
    <time>2024-06-28T07:33:45.089760</time>
</trkpt>
<trkpt lat="48.7648767" lon="2.265351">
    <ele>124.711</ele>
    <time>2024-06-28T07:33:45.089760</time>
</trkpt>
<trkpt lat="48.7652811" lon="2.2622814">
    <ele>136.152</ele>
    <time>2024-06-28T07:33:45.090758</time>
</trkpt>
<trkpt lat="48.7654117" lon="2.2611974">
    <ele>140.733</ele>
    <time>2024-06-28T07:33:45.090758</time>
</trkpt>
<trkpt lat="48.7655337" lon="2.2603485">
    <ele>142.132</ele>
    <time>2024-06-28T07:33:45.090758</time>
</trkpt>
<trkpt lat="48.765766" lon="2.258673">
    <ele>151.583</ele>
    <time>2024-06-28T07:33:45.090758</time>
</trkpt>
<trkpt lat="48.7661616" lon="2.2556541">
    <ele>159.78</ele>
    <time>2024-06-28T07:33:45.090758</time>
</trkpt>
<trkpt lat="48.7673149" lon="2.2533835">
    <ele>160.698</ele>
    <time>2024-06-28T07:33:45.090758</time>
</trkpt>
<trkpt lat="48.7676556" lon="2.2527766">
    <ele>160.92</ele>
    <time>2024-06-28T07:33:45.090758</time>
</trkpt>
<trkpt lat="48.7686971" lon="2.2510325">
    <ele>160.035</ele>
    <time>2024-06-28T07:33:45.090758</time>
</trkpt>
<trkpt lat="48.7687431" lon="2.2509525">
    <ele>160.217</ele>
    <time>2024-06-28T07:33:45.090758</time>
</trkpt>
<trkpt lat="48.7691535" lon="2.2501762">
    <ele>161.637</ele>
    <time>2024-06-28T07:33:45.090758</time>
</trkpt>
<trkpt lat="48.7694892" lon="2.2496353">
    <ele>162.932</ele>
    <time>2024-06-28T07:33:45.091755</time>
</trkpt>
<trkpt lat="48.7705578" lon="2.2484508">
    <ele>164.994</ele>
    <time>2024-06-28T07:33:45.091755</time>
</trkpt>
<trkpt lat="48.7706642" lon="2.2484665">
    <ele>165.315</ele>
    <time>2024-06-28T07:33:45.091755</time>
</trkpt>
<trkpt lat="48.7763311" lon="2.2500756">
    <ele>172.29</ele>
    <time>2024-06-28T07:33:45.091755</time>
</trkpt>
<trkpt lat="48.7764043" lon="2.2500976">
    <ele>172.113</ele>
    <time>2024-06-28T07:33:45.091755</time>
</trkpt>
<trkpt lat="48.7780754" lon="2.2507559">
    <ele>170.994</ele>
    <time>2024-06-28T07:33:45.091755</time>
</trkpt>
<trkpt lat="48.7791327" lon="2.2514899">
    <ele>170.077</ele>
    <time>2024-06-28T07:33:45.091755</time>
</trkpt>
<trkpt lat="48.779503" lon="2.2517908">
    <ele>169.147</ele>
    <time>2024-06-28T07:33:45.091755</time>
</trkpt>
<trkpt lat="48.7814667" lon="2.2529249">
    <ele>164.9</ele>
    <time>2024-06-28T07:33:45.091755</time>
</trkpt>
<trkpt lat="48.7821535" lon="2.2531739">
    <ele>163.625</ele>
    <time>2024-06-28T07:33:45.092753</time>
</trkpt>
<trkpt lat="48.7822701" lon="2.2532029">
    <ele>163.529</ele>
    <time>2024-06-28T07:33:45.092753</time>
</trkpt>
<trkpt lat="48.7848483" lon="2.2535169">
    <ele>166.07</ele>
    <time>2024-06-28T07:33:45.092753</time>
</trkpt>
<trkpt lat="48.7851025" lon="2.2534022">
    <ele>166.198</ele>
    <time>2024-06-28T07:33:45.092753</time>
</trkpt>
<trkpt lat="48.7874709" lon="2.2529797">
    <ele>165.138</ele>
    <time>2024-06-28T07:33:45.092753</time>
</trkpt>
<trkpt lat="48.7876262" lon="2.2529457">
    <ele>165.281</ele>
    <time>2024-06-28T07:33:45.093282</time>
</trkpt>
<trkpt lat="48.7879203" lon="2.2528856">
    <ele>165.654</ele>
    <time>2024-06-28T07:33:45.093282</time>
</trkpt>
<trkpt lat="48.7882153" lon="2.2528253">
    <ele>166.14</ele>
    <time>2024-06-28T07:33:45.093282</time>
</trkpt>
<trkpt lat="48.788394" lon="2.2527827">
    <ele>166.691</ele>
    <time>2024-06-28T07:33:45.093750</time>
</trkpt>
<trkpt lat="48.788879" lon="2.2527202">
    <ele>167.824</ele>
    <time>2024-06-28T07:33:45.093750</time>
</trkpt>
<trkpt lat="48.7895772" lon="2.252686">
    <ele>168.342</ele>
    <time>2024-06-28T07:33:45.093750</time>
</trkpt>
<trkpt lat="48.7897361" lon="2.252662">
    <ele>168.675</ele>
    <time>2024-06-28T07:33:45.093750</time>
</trkpt>
<trkpt lat="48.7915682" lon="2.2525357">
    <ele>166.366</ele>
    <time>2024-06-28T07:33:45.093750</time>
</trkpt>
<trkpt lat="48.7919513" lon="2.2525687">
    <ele>166.424</ele>
    <time>2024-06-28T07:33:45.094748</time>
</trkpt>
<trkpt lat="48.7921355" lon="2.2525503">
    <ele>166.634</ele>
    <time>2024-06-28T07:33:45.094748</time>
</trkpt>
<trkpt lat="48.79257" lon="2.2525119">
    <ele>167.691</ele>
    <time>2024-06-28T07:33:45.094748</time>
</trkpt>
<trkpt lat="48.797349" lon="2.2530298">
    <ele>169.639</ele>
    <time>2024-06-28T07:33:45.094748</time>
</trkpt>
<trkpt lat="48.8031537" lon="2.2569709">
    <ele>129.874</ele>
    <time>2024-06-28T07:33:45.094748</time>
</trkpt>
<trkpt lat="48.8031625" lon="2.2570524">
    <ele>129.743</ele>
    <time>2024-06-28T07:33:45.094748</time>
</trkpt>
<trkpt lat="48.8033763" lon="2.2573207">
    <ele>128.24</ele>
    <time>2024-06-28T07:33:45.094748</time>
</trkpt>
<trkpt lat="48.80341" lon="2.2573169">
    <ele>128.252</ele>
    <time>2024-06-28T07:33:45.094748</time>
</trkpt>
<trkpt lat="48.8035745" lon="2.2573743">
    <ele>128.253</ele>
    <time>2024-06-28T07:33:45.094748</time>
</trkpt>
<trkpt lat="48.8042054" lon="2.2580229">
    <ele>126.281</ele>
    <time>2024-06-28T07:33:45.095744</time>
</trkpt>
<trkpt lat="48.8034063" lon="2.2595391">
    <ele>120.279</ele>
    <time>2024-06-28T07:33:45.095744</time>
</trkpt>
<trkpt lat="48.8043048" lon="2.2606801">
    <ele>116.867</ele>
    <time>2024-06-28T07:33:45.095744</time>
</trkpt>
<trkpt lat="48.8044652" lon="2.2604561">
    <ele>118.181</ele>
    <time>2024-06-28T07:33:45.095744</time>
</trkpt>
<trkpt lat="48.8048141" lon="2.2599699">
    <ele>120.109</ele>
    <time>2024-06-28T07:33:45.095744</time>
</trkpt>
<trkpt lat="48.805179" lon="2.259392">
    <ele>121.68</ele>
    <time>2024-06-28T07:33:45.095744</time>
</trkpt>
<trkpt lat="48.8052194" lon="2.25941">
    <ele>121.687</ele>
    <time>2024-06-28T07:33:45.095744</time>
</trkpt>
        </trkseg>
    </trk>
</gpx>