<?xml version="1.0"?>
<gpx version="1.1" creator="GDAL 3.6.4" xmlns:xsi="http://www.w3.org/2001/XMLSchema-instance" xmlns:ogr="http://osgeo.org/gdal" xmlns="http://www.topografix.com/GPX/1/1" xsi:schemaLocation="http://www.topografix.com/GPX/1/1 http://www.topografix.com/GPX/1/1/gpx.xsd">
<metadata><bounds minlat="48.802518399999997" minlon="2.262689000000000" maxlat="48.824275100000001" maxlon="2.286165400000000"/></metadata>                    
<wpt lat="48.8240136" lon="2.262689">
  <extensions>
    <ogr:y>48.8240136</ogr:y>
    <ogr:x>2.262689</ogr:x>
    <ogr:highway>unclassified</ogr:highway>
    <ogr:street_count>3</ogr:street_count>
    <ogr:elevation>32.288</ogr:elevation>
    <ogr:cum_dist>0.0</ogr:cum_dist>
  </extensions>
</wpt>
<wpt lat="48.8241768" lon="2.2633668">
  <extensions>
    <ogr:y>48.8241768</ogr:y>
    <ogr:x>2.2633668</ogr:x>
    <ogr:highway>secondary</ogr:highway>
    <ogr:street_count>3</ogr:street_count>
    <ogr:elevation>29.767</ogr:elevation>
    <ogr:cum_dist>0.032211</ogr:cum_dist>
  </extensions>
</wpt>
<wpt lat="48.8242751" lon="2.2637807">
  <extensions>
    <ogr:y>48.8242751</ogr:y>
    <ogr:x>2.2637807</ogr:x>
    <ogr:highway>residential</ogr:highway>
    <ogr:street_count>4</ogr:street_count>
    <ogr:elevation>29.544</ogr:elevation>
    <ogr:cum_dist>0.194547</ogr:cum_dist>
  </extensions>
</wpt>
<wpt lat="48.823692" lon="2.2658135">
  <extensions>
    <ogr:y>48.823692</ogr:y>
    <ogr:x>2.2658135</ogr:x>
    <ogr:highway>residential</ogr:highway>
    <ogr:street_count>4</ogr:street_count>
    <ogr:elevation>30.188</ogr:elevation>
    <ogr:cum_dist>0.356435</ogr:cum_dist>
  </extensions>
</wpt>
<wpt lat="48.8231254" lon="2.2678505">
  <extensions>
    <ogr:y>48.8231254</ogr:y>
    <ogr:x>2.2678505</ogr:x>
    <ogr:highway>cycleway</ogr:highway>
    <ogr:street_count>4</ogr:street_count>
    <ogr:elevation>32.14</ogr:elevation>
    <ogr:cum_dist>0.36805</ogr:cum_dist>
  </extensions>
</wpt>
<wpt lat="48.8230211" lon="2.2678592">
  <extensions>
    <ogr:y>48.8230211</ogr:y>
    <ogr:x>2.2678592</ogr:x>
    <ogr:highway>living_street</ogr:highway>
    <ogr:street_count>3</ogr:street_count>
    <ogr:elevation>32.227</ogr:elevation>
    <ogr:cum_dist>0.374519</ogr:cum_dist>
  </extensions>
</wpt>
<wpt lat="48.8230247" lon="2.2679474">
  <extensions>
    <ogr:y>48.8230247</ogr:y>
    <ogr:x>2.2679474</ogr:x>
    <ogr:highway>secondary</ogr:highway>
    <ogr:street_count>3</ogr:street_count>
    <ogr:elevation>32.374</ogr:elevation>
    <ogr:cum_dist>0.376905</ogr:cum_dist>
  </extensions>
</wpt>
<wpt lat="48.8230033" lon="2.2679497">
  <extensions>
    <ogr:y>48.8230033</ogr:y>
    <ogr:x>2.2679497</ogr:x>
    <ogr:highway>secondary</ogr:highway>
    <ogr:street_count>3</ogr:street_count>
    <ogr:elevation>32.403</ogr:elevation>
    <ogr:cum_dist>0.421877</ogr:cum_dist>
  </extensions>
</wpt>
<wpt lat="48.8225999" lon="2.2679938">
  <extensions>
    <ogr:y>48.8225999</ogr:y>
    <ogr:x>2.2679938</ogr:x>
    <ogr:highway>secondary</ogr:highway>
    <ogr:street_count>5</ogr:street_count>
    <ogr:elevation>33.641</ogr:elevation>
    <ogr:cum_dist>0.440364</ogr:cum_dist>
  </extensions>
</wpt>
<wpt lat="48.8224411" lon="2.2680161">
  <extensions>
    <ogr:y>48.8224411</ogr:y>
    <ogr:x>2.2680161</ogr:x>
    <ogr:highway>unclassified</ogr:highway>
    <ogr:street_count>3</ogr:street_count>
    <ogr:elevation>34.312</ogr:elevation>
    <ogr:cum_dist>0.449992</ogr:cum_dist>
  </extensions>
</wpt>
<wpt lat="48.8224747" lon="2.2681373">
  <extensions>
    <ogr:y>48.8224747</ogr:y>
    <ogr:x>2.2681373</ogr:x>
    <ogr:highway>tertiary</ogr:highway>
    <ogr:street_count>3</ogr:street_count>
    <ogr:elevation>34.654</ogr:elevation>
    <ogr:cum_dist>0.50187</ogr:cum_dist>
  </extensions>
</wpt>
<wpt lat="48.8222511" lon="2.2687553">
  <extensions>
    <ogr:y>48.8222511</ogr:y>
    <ogr:x>2.2687553</ogr:x>
    <ogr:highway>tertiary</ogr:highway>
    <ogr:street_count>3</ogr:street_count>
    <ogr:elevation>38.779</ogr:elevation>
    <ogr:cum_dist>0.539475</ogr:cum_dist>
  </extensions>
</wpt>
<wpt lat="48.822111" lon="2.2692228">
  <extensions>
    <ogr:y>48.822111</ogr:y>
    <ogr:x>2.2692228</ogr:x>
    <ogr:highway>tertiary</ogr:highway>
    <ogr:street_count>3</ogr:street_count>
    <ogr:elevation>41.772</ogr:elevation>
    <ogr:cum_dist>0.632631</ogr:cum_dist>
  </extensions>
</wpt>
<wpt lat="48.8217794" lon="2.2703911">
  <extensions>
    <ogr:y>48.8217794</ogr:y>
    <ogr:x>2.2703911</ogr:x>
    <ogr:highway>tertiary</ogr:highway>
    <ogr:street_count>4</ogr:street_count>
    <ogr:elevation>48.74</ogr:elevation>
    <ogr:cum_dist>0.71643</ogr:cum_dist>
  </extensions>
</wpt>
<wpt lat="48.8216154" lon="2.2715078">
  <extensions>
    <ogr:y>48.8216154</ogr:y>
    <ogr:x>2.2715078</ogr:x>
    <ogr:highway>tertiary</ogr:highway>
    <ogr:street_count>4</ogr:street_count>
    <ogr:elevation>53.763</ogr:elevation>
    <ogr:cum_dist>0.881288</ogr:cum_dist>
  </extensions>
</wpt>
<wpt lat="48.821268" lon="2.2736937">
  <extensions>
    <ogr:y>48.821268</ogr:y>
    <ogr:x>2.2736937</ogr:x>
    <ogr:highway>secondary</ogr:highway>
    <ogr:street_count>6</ogr:street_count>
    <ogr:elevation>62.62</ogr:elevation>
    <ogr:cum_dist>1.012377</ogr:cum_dist>
  </extensions>
</wpt>
<wpt lat="48.8202312" lon="2.2745455">
  <extensions>
    <ogr:y>48.8202312</ogr:y>
    <ogr:x>2.2745455</ogr:x>
    <ogr:highway>secondary</ogr:highway>
    <ogr:street_count>3</ogr:street_count>
    <ogr:elevation>70.956</ogr:elevation>
    <ogr:cum_dist>1.098277</ogr:cum_dist>
  </extensions>
</wpt>
<wpt lat="48.8194664" lon="2.2743801">
  <extensions>
    <ogr:y>48.8194664</ogr:y>
    <ogr:x>2.2743801</ogr:x>
    <ogr:highway>secondary</ogr:highway>
    <ogr:street_count>4</ogr:street_count>
    <ogr:elevation>74.392</ogr:elevation>
    <ogr:cum_dist>1.139122</ogr:cum_dist>
  </extensions>
</wpt>
<wpt lat="48.8191054" lon="2.2742783">
  <extensions>
    <ogr:y>48.8191054</ogr:y>
    <ogr:x>2.2742783</ogr:x>
    <ogr:highway>secondary</ogr:highway>
    <ogr:street_count>3</ogr:street_count>
    <ogr:elevation>76.692</ogr:elevation>
    <ogr:cum_dist>1.151919</ogr:cum_dist>
  </extensions>
</wpt>
<wpt lat="48.8189922" lon="2.2742468">
  <extensions>
    <ogr:y>48.8189922</ogr:y>
    <ogr:x>2.2742468</ogr:x>
    <ogr:highway>secondary</ogr:highway>
    <ogr:street_count>3</ogr:street_count>
    <ogr:elevation>77.337</ogr:elevation>
    <ogr:cum_dist>1.238534</ogr:cum_dist>
  </extensions>
</wpt>
<wpt lat="48.8182258" lon="2.2740354">
  <extensions>
    <ogr:y>48.8182258</ogr:y>
    <ogr:x>2.2740354</ogr:x>
    <ogr:highway>secondary</ogr:highway>
    <ogr:street_count>3</ogr:street_count>
    <ogr:elevation>78.82</ogr:elevation>
    <ogr:cum_dist>1.247311</ogr:cum_dist>
  </extensions>
</wpt>
<wpt lat="48.8181486" lon="2.2740104">
  <extensions>
    <ogr:y>48.8181486</ogr:y>
    <ogr:x>2.2740104</ogr:x>
    <ogr:highway>secondary</ogr:highway>
    <ogr:street_count>3</ogr:street_count>
    <ogr:elevation>79.041</ogr:elevation>
    <ogr:cum_dist>1.33917</ogr:cum_dist>
  </extensions>
</wpt>
<wpt lat="48.8173406" lon="2.2737492">
  <extensions>
    <ogr:y>48.8173406</ogr:y>
    <ogr:x>2.2737492</ogr:x>
    <ogr:highway>secondary</ogr:highway>
    <ogr:street_count>4</ogr:street_count>
    <ogr:elevation>80.084</ogr:elevation>
    <ogr:cum_dist>1.464029</ogr:cum_dist>
  </extensions>
</wpt>
<wpt lat="48.8166059" lon="2.2750387">
  <extensions>
    <ogr:y>48.8166059</ogr:y>
    <ogr:x>2.2750387</ogr:x>
    <ogr:highway>secondary</ogr:highway>
    <ogr:street_count>4</ogr:street_count>
    <ogr:elevation>75.247</ogr:elevation>
    <ogr:cum_dist>1.674145</ogr:cum_dist>
  </extensions>
</wpt>
<wpt lat="48.8153479" lon="2.2771799">
  <extensions>
    <ogr:y>48.8153479</ogr:y>
    <ogr:x>2.2771799</ogr:x>
    <ogr:highway>secondary</ogr:highway>
    <ogr:street_count>3</ogr:street_count>
    <ogr:elevation>63.875</ogr:elevation>
    <ogr:cum_dist>1.692496</ogr:cum_dist>
  </extensions>
</wpt>
<wpt lat="48.8152402" lon="2.2773698">
  <extensions>
    <ogr:y>48.8152402</ogr:y>
    <ogr:x>2.2773698</ogr:x>
    <ogr:highway>secondary</ogr:highway>
    <ogr:street_count>4</ogr:street_count>
    <ogr:elevation>63.582</ogr:elevation>
    <ogr:cum_dist>1.719898</ogr:cum_dist>
  </extensions>
</wpt>
<wpt lat="48.8150962" lon="2.2776735">
  <extensions>
    <ogr:y>48.8150962</ogr:y>
    <ogr:x>2.2776735</ogr:x>
    <ogr:highway>secondary</ogr:highway>
    <ogr:street_count>3</ogr:street_count>
    <ogr:elevation>63.036</ogr:elevation>
    <ogr:cum_dist>1.728001</ogr:cum_dist>
  </extensions>
</wpt>
<wpt lat="48.8150422" lon="2.2777478">
  <extensions>
    <ogr:y>48.8150422</ogr:y>
    <ogr:x>2.2777478</ogr:x>
    <ogr:highway>secondary</ogr:highway>
    <ogr:street_count>3</ogr:street_count>
    <ogr:elevation>62.976</ogr:elevation>
    <ogr:cum_dist>1.742312</ogr:cum_dist>
  </extensions>
</wpt>
<wpt lat="48.8149468" lon="2.277879">
  <extensions>
    <ogr:y>48.8149468</ogr:y>
    <ogr:x>2.277879</ogr:x>
    <ogr:highway>secondary</ogr:highway>
    <ogr:street_count>3</ogr:street_count>
    <ogr:elevation>64.147</ogr:elevation>
    <ogr:cum_dist>1.755737</ogr:cum_dist>
  </extensions>
</wpt>
<wpt lat="48.8148578" lon="2.2779987">
  <extensions>
    <ogr:y>48.8148578</ogr:y>
    <ogr:x>2.2779987</ogr:x>
    <ogr:highway>secondary</ogr:highway>
    <ogr:street_count>3</ogr:street_count>
    <ogr:elevation>65.87</ogr:elevation>
    <ogr:cum_dist>1.761717</ogr:cum_dist>
  </extensions>
</wpt>
<wpt lat="48.814807" lon="2.2780255">
  <extensions>
    <ogr:y>48.814807</ogr:y>
    <ogr:x>2.2780255</ogr:x>
    <ogr:highway>secondary</ogr:highway>
    <ogr:street_count>3</ogr:street_count>
    <ogr:elevation>66.796</ogr:elevation>
    <ogr:cum_dist>1.827886</ogr:cum_dist>
  </extensions>
</wpt>
<wpt lat="48.8142416" lon="2.2782308">
  <extensions>
    <ogr:y>48.8142416</ogr:y>
    <ogr:x>2.2782308</ogr:x>
    <ogr:highway>secondary</ogr:highway>
    <ogr:street_count>6</ogr:street_count>
    <ogr:elevation>65.949</ogr:elevation>
    <ogr:cum_dist>2.019612</ogr:cum_dist>
  </extensions>
</wpt>
<wpt lat="48.8128067" lon="2.2796823">
  <extensions>
    <ogr:y>48.8128067</ogr:y>
    <ogr:x>2.2796823</ogr:x>
    <ogr:highway>secondary</ogr:highway>
    <ogr:street_count>4</ogr:street_count>
    <ogr:elevation>71.956</ogr:elevation>
    <ogr:cum_dist>2.081864</ogr:cum_dist>
  </extensions>
</wpt>
<wpt lat="48.8123401" lon="2.2801521">
  <extensions>
    <ogr:y>48.8123401</ogr:y>
    <ogr:x>2.2801521</ogr:x>
    <ogr:highway>secondary</ogr:highway>
    <ogr:street_count>3</ogr:street_count>
    <ogr:elevation>73.31</ogr:elevation>
    <ogr:cum_dist>2.147753</ogr:cum_dist>
  </extensions>
</wpt>
<wpt lat="48.811862" lon="2.2806836">
  <extensions>
    <ogr:y>48.811862</ogr:y>
    <ogr:x>2.2806836</ogr:x>
    <ogr:highway>secondary</ogr:highway>
    <ogr:street_count>3</ogr:street_count>
    <ogr:elevation>74.367</ogr:elevation>
    <ogr:cum_dist>2.155636</ogr:cum_dist>
  </extensions>
</wpt>
<wpt lat="48.8118024" lon="2.2807419">
  <extensions>
    <ogr:y>48.8118024</ogr:y>
    <ogr:x>2.2807419</ogr:x>
    <ogr:highway>secondary</ogr:highway>
    <ogr:street_count>3</ogr:street_count>
    <ogr:elevation>75.039</ogr:elevation>
    <ogr:cum_dist>2.171313</ogr:cum_dist>
  </extensions>
</wpt>
<wpt lat="48.8116839" lon="2.2808579">
  <extensions>
    <ogr:y>48.8116839</ogr:y>
    <ogr:x>2.2808579</ogr:x>
    <ogr:highway>secondary</ogr:highway>
    <ogr:street_count>3</ogr:street_count>
    <ogr:elevation>76.022</ogr:elevation>
    <ogr:cum_dist>2.288226</ogr:cum_dist>
  </extensions>
</wpt>
<wpt lat="48.8107855" lon="2.2816866">
  <extensions>
    <ogr:y>48.8107855</ogr:y>
    <ogr:x>2.2816866</ogr:x>
    <ogr:highway>secondary</ogr:highway>
    <ogr:street_count>3</ogr:street_count>
    <ogr:elevation>79.473</ogr:elevation>
    <ogr:cum_dist>2.321373</ogr:cum_dist>
  </extensions>
</wpt>
<wpt lat="48.8105402" lon="2.2819438">
  <extensions>
    <ogr:y>48.8105402</ogr:y>
    <ogr:x>2.2819438</ogr:x>
    <ogr:highway>secondary</ogr:highway>
    <ogr:street_count>3</ogr:street_count>
    <ogr:elevation>80.118</ogr:elevation>
    <ogr:cum_dist>2.354874</ogr:cum_dist>
  </extensions>
</wpt>
<wpt lat="48.8102923" lon="2.2822038">
  <extensions>
    <ogr:y>48.8102923</ogr:y>
    <ogr:x>2.2822038</ogr:x>
    <ogr:highway>secondary</ogr:highway>
    <ogr:street_count>4</ogr:street_count>
    <ogr:elevation>80.676</ogr:elevation>
    <ogr:cum_dist>2.401035</ogr:cum_dist>
  </extensions>
</wpt>
<wpt lat="48.8099447" lon="2.2825484">
  <extensions>
    <ogr:y>48.8099447</ogr:y>
    <ogr:x>2.2825484</ogr:x>
    <ogr:highway>secondary</ogr:highway>
    <ogr:street_count>4</ogr:street_count>
    <ogr:elevation>81.81</ogr:elevation>
    <ogr:cum_dist>2.677343</ogr:cum_dist>
  </extensions>
</wpt>
<wpt lat="48.8078717" lon="2.2846283">
  <extensions>
    <ogr:y>48.8078717</ogr:y>
    <ogr:x>2.2846283</ogr:x>
    <ogr:highway>secondary</ogr:highway>
    <ogr:street_count>3</ogr:street_count>
    <ogr:elevation>86.196</ogr:elevation>
    <ogr:cum_dist>2.711706</ogr:cum_dist>
  </extensions>
</wpt>
<wpt lat="48.8076125" lon="2.2848838">
  <extensions>
    <ogr:y>48.8076125</ogr:y>
    <ogr:x>2.2848838</ogr:x>
    <ogr:highway>residential</ogr:highway>
    <ogr:street_count>4</ogr:street_count>
    <ogr:elevation>86.789</ogr:elevation>
    <ogr:cum_dist>2.734806</ogr:cum_dist>
  </extensions>
</wpt>
<wpt lat="48.8074899" lon="2.2846343">
  <extensions>
    <ogr:y>48.8074899</ogr:y>
    <ogr:x>2.2846343</ogr:x>
    <ogr:highway>residential</ogr:highway>
    <ogr:street_count>3</ogr:street_count>
    <ogr:elevation>86.9</ogr:elevation>
    <ogr:cum_dist>2.748639</ogr:cum_dist>
  </extensions>
</wpt>
<wpt lat="48.8073759" lon="2.2845588">
  <extensions>
    <ogr:y>48.8073759</ogr:y>
    <ogr:x>2.2845588</ogr:x>
    <ogr:highway>residential</ogr:highway>
    <ogr:street_count>3</ogr:street_count>
    <ogr:elevation>87.167</ogr:elevation>
    <ogr:cum_dist>2.791492</ogr:cum_dist>
  </extensions>
</wpt>
<wpt lat="48.8070217" lon="2.2843282">
  <extensions>
    <ogr:y>48.8070217</ogr:y>
    <ogr:x>2.2843282</ogr:x>
    <ogr:highway>residential</ogr:highway>
    <ogr:street_count>4</ogr:street_count>
    <ogr:elevation>88.931</ogr:elevation>
    <ogr:cum_dist>2.869559</ogr:cum_dist>
  </extensions>
</wpt>
<wpt lat="48.8063794" lon="2.2838978">
  <extensions>
    <ogr:y>48.8063794</ogr:y>
    <ogr:x>2.2838978</ogr:x>
    <ogr:highway>residential</ogr:highway>
    <ogr:street_count>3</ogr:street_count>
    <ogr:elevation>90.035</ogr:elevation>
    <ogr:cum_dist>2.92372</ogr:cum_dist>
  </extensions>
</wpt>
<wpt lat="48.8059376" lon="2.2835864">
  <extensions>
    <ogr:y>48.8059376</ogr:y>
    <ogr:x>2.2835864</ogr:x>
    <ogr:highway>residential</ogr:highway>
    <ogr:street_count>3</ogr:street_count>
    <ogr:elevation>90.699</ogr:elevation>
    <ogr:cum_dist>3.008143</ogr:cum_dist>
  </extensions>
</wpt>
<wpt lat="48.805249" lon="2.2831009">
  <extensions>
    <ogr:y>48.805249</ogr:y>
    <ogr:x>2.2831009</ogr:x>
    <ogr:highway>residential</ogr:highway>
    <ogr:street_count>4</ogr:street_count>
    <ogr:elevation>91.809</ogr:elevation>
    <ogr:cum_dist>3.11102</ogr:cum_dist>
  </extensions>
</wpt>
<wpt lat="48.8044036" lon="2.2825302">
  <extensions>
    <ogr:y>48.8044036</ogr:y>
    <ogr:x>2.2825302</ogr:x>
    <ogr:highway>residential</ogr:highway>
    <ogr:street_count>4</ogr:street_count>
    <ogr:elevation>93.242</ogr:elevation>
    <ogr:cum_dist>3.23633</ogr:cum_dist>
  </extensions>
</wpt>
<wpt lat="48.8037343" lon="2.2839043">
  <extensions>
    <ogr:y>48.8037343</ogr:y>
    <ogr:x>2.2839043</ogr:x>
    <ogr:highway>residential</ogr:highway>
    <ogr:street_count>3</ogr:street_count>
    <ogr:elevation>97.139</ogr:elevation>
    <ogr:cum_dist>3.287409</ogr:cum_dist>
  </extensions>
</wpt>
<wpt lat="48.8034597" lon="2.2844622">
  <extensions>
    <ogr:y>48.8034597</ogr:y>
    <ogr:x>2.2844622</ogr:x>
    <ogr:highway>residential</ogr:highway>
    <ogr:street_count>4</ogr:street_count>
    <ogr:elevation>99.317</ogr:elevation>
    <ogr:cum_dist>3.414616</ogr:cum_dist>
  </extensions>
</wpt>
<wpt lat="48.8027167" lon="2.28578">
  <extensions>
    <ogr:y>48.8027167</ogr:y>
    <ogr:x>2.28578</ogr:x>
    <ogr:highway>residential</ogr:highway>
    <ogr:street_count>3</ogr:street_count>
    <ogr:elevation>100.853</ogr:elevation>
    <ogr:cum_dist>3.450439</ogr:cum_dist>
  </extensions>
</wpt>
<wpt lat="48.8025184" lon="2.2861654">
  <extensions>
    <ogr:y>48.8025184</ogr:y>
    <ogr:x>2.2861654</ogr:x>
    <ogr:highway>residential</ogr:highway>
    <ogr:street_count>4</ogr:street_count>
    <ogr:elevation>100.936</ogr:elevation>
    <ogr:cum_dist>3.467452</ogr:cum_dist>
  </extensions>
</wpt>
</gpx>
