<?xml version="1.0" encoding="UTF-8"?>
<gpx version="1.1" creator="YourAppName - https://yourappurl.com"
     xmlns:xsi="http://www.w3.org/2001/XMLSchema-instance"
     xmlns="http://www.topografix.com/GPX/1/1"
     xsi:schemaLocation="http://www.topografix.com/GPX/1/1
                         http://www.topografix.com/GPX/1/1/gpx.xsd">
    <metadata>
        <name>My Route</name>
        <author>
            <name>Your Name or App</name>
        </author>
        <time>2024-07-23T00:08:34.617264</time>
    </metadata>
    <trk>
        <name>My Route</name>
        <trkseg>
            <trkpt lat="48.8212246" lon="2.3343062">
    <ele>78.643</ele>
    <time>2024-07-23T00:08:34.600229</time>
</trkpt>
<trkpt lat="48.8212047" lon="2.3344104">
    <ele>78.57</ele>
    <time>2024-07-23T00:08:34.600229</time>
</trkpt>
<trkpt lat="48.8213319" lon="2.3344697">
    <ele>78.274</ele>
    <time>2024-07-23T00:08:34.600229</time>
</trkpt>
<trkpt lat="48.8213573" lon="2.3343721">
    <ele>78.293</ele>
    <time>2024-07-23T00:08:34.600229</time>
</trkpt>
<trkpt lat="48.8213749" lon="2.3343041">
    <ele>78.322</ele>
    <time>2024-07-23T00:08:34.600229</time>
</trkpt>
<trkpt lat="48.8214843" lon="2.3338923">
    <ele>78.249</ele>
    <time>2024-07-23T00:08:34.600229</time>
</trkpt>
<trkpt lat="48.8222238" lon="2.3304387">
    <ele>75.307</ele>
    <time>2024-07-23T00:08:34.600229</time>
</trkpt>
<trkpt lat="48.8222335" lon="2.3303979">
    <ele>75.231</ele>
    <time>2024-07-23T00:08:34.600229</time>
</trkpt>
<trkpt lat="48.822257" lon="2.3302992">
    <ele>75.033</ele>
    <time>2024-07-23T00:08:34.600229</time>
</trkpt>
<trkpt lat="48.8230075" lon="2.326631">
    <ele>68.651</ele>
    <time>2024-07-23T00:08:34.600229</time>
</trkpt>
<trkpt lat="48.8232351" lon="2.3256156">
    <ele>67.89</ele>
    <time>2024-07-23T00:08:34.600229</time>
</trkpt>
<trkpt lat="48.8232714" lon="2.3254625">
    <ele>67.656</ele>
    <time>2024-07-23T00:08:34.600229</time>
</trkpt>
<trkpt lat="48.8230689" lon="2.3253998">
    <ele>68.107</ele>
    <time>2024-07-23T00:08:34.600229</time>
</trkpt>
<trkpt lat="48.8221178" lon="2.3251445">
    <ele>68.977</ele>
    <time>2024-07-23T00:08:34.600229</time>
</trkpt>
<trkpt lat="48.8219675" lon="2.3251074">
    <ele>69.129</ele>
    <time>2024-07-23T00:08:34.601226</time>
</trkpt>
<trkpt lat="48.8205511" lon="2.3242291">
    <ele>70.807</ele>
    <time>2024-07-23T00:08:34.601226</time>
</trkpt>
<trkpt lat="48.8209583" lon="2.3215939">
    <ele>66.759</ele>
    <time>2024-07-23T00:08:34.601226</time>
</trkpt>
<trkpt lat="48.8219899" lon="2.3168688">
    <ele>66.424</ele>
    <time>2024-07-23T00:08:34.601226</time>
</trkpt>
<trkpt lat="48.8233373" lon="2.3111348">
    <ele>64.971</ele>
    <time>2024-07-23T00:08:34.601226</time>
</trkpt>
<trkpt lat="48.8247459" lon="2.3047878">
    <ele>63.929</ele>
    <time>2024-07-23T00:08:34.601226</time>
</trkpt>
<trkpt lat="48.8254424" lon="2.3023173">
    <ele>57.725</ele>
    <time>2024-07-23T00:08:34.601226</time>
</trkpt>
<trkpt lat="48.8258438" lon="2.3002826">
    <ele>60.935</ele>
    <time>2024-07-23T00:08:34.601226</time>
</trkpt>
<trkpt lat="48.8267517" lon="2.2958486">
    <ele>57.902</ele>
    <time>2024-07-23T00:08:34.601226</time>
</trkpt>
<trkpt lat="48.8328052" lon="2.2797641">
    <ele>36.083</ele>
    <time>2024-07-23T00:08:34.601226</time>
</trkpt>
<trkpt lat="48.8341321" lon="2.2773182">
    <ele>31.808</ele>
    <time>2024-07-23T00:08:34.601226</time>
</trkpt>
<trkpt lat="48.8341341" lon="2.2771345">
    <ele>31.678</ele>
    <time>2024-07-23T00:08:34.601226</time>
</trkpt>
<trkpt lat="48.8336391" lon="2.2768355">
    <ele>32.789</ele>
    <time>2024-07-23T00:08:34.601226</time>
</trkpt>
<trkpt lat="48.8336166" lon="2.276458">
    <ele>33.427</ele>
    <time>2024-07-23T00:08:34.601226</time>
</trkpt>
<trkpt lat="48.8324065" lon="2.2686459">
    <ele>30.162</ele>
    <time>2024-07-23T00:08:34.601226</time>
</trkpt>
<trkpt lat="48.8315459" lon="2.2672182">
    <ele>30.481</ele>
    <time>2024-07-23T00:08:34.601226</time>
</trkpt>
<trkpt lat="48.8310917" lon="2.2665758">
    <ele>30.181</ele>
    <time>2024-07-23T00:08:34.601226</time>
</trkpt>
<trkpt lat="48.8303616" lon="2.2655439">
    <ele>30.248</ele>
    <time>2024-07-23T00:08:34.602285</time>
</trkpt>
<trkpt lat="48.8291434" lon="2.2638267">
    <ele>30.541</ele>
    <time>2024-07-23T00:08:34.602285</time>
</trkpt>
<trkpt lat="48.8297607" lon="2.2611724">
    <ele>33.548</ele>
    <time>2024-07-23T00:08:34.602285</time>
</trkpt>
<trkpt lat="48.8298138" lon="2.2608529">
    <ele>33.942</ele>
    <time>2024-07-23T00:08:34.602285</time>
</trkpt>
<trkpt lat="48.8297031" lon="2.2608072">
    <ele>33.874</ele>
    <time>2024-07-23T00:08:34.602285</time>
</trkpt>
<trkpt lat="48.829585" lon="2.2607639">
    <ele>32.376</ele>
    <time>2024-07-23T00:08:34.602285</time>
</trkpt>
<trkpt lat="48.8278365" lon="2.2604838">
    <ele>31.26</ele>
    <time>2024-07-23T00:08:34.602285</time>
</trkpt>
<trkpt lat="48.8256394" lon="2.2584164">
    <ele>30.958</ele>
    <time>2024-07-23T00:08:34.602285</time>
</trkpt>
<trkpt lat="48.825487" lon="2.2582287">
    <ele>31.034</ele>
    <time>2024-07-23T00:08:34.602285</time>
</trkpt>
<trkpt lat="48.823785" lon="2.2558945">
    <ele>30.487</ele>
    <time>2024-07-23T00:08:34.602285</time>
</trkpt>
<trkpt lat="48.8233469" lon="2.255032">
    <ele>30.565</ele>
    <time>2024-07-23T00:08:34.602285</time>
</trkpt>
<trkpt lat="48.8229803" lon="2.2540471">
    <ele>30.547</ele>
    <time>2024-07-23T00:08:34.602285</time>
</trkpt>
<trkpt lat="48.8224648" lon="2.2524801">
    <ele>30.048</ele>
    <time>2024-07-23T00:08:34.602285</time>
</trkpt>
<trkpt lat="48.8218168" lon="2.2503142">
    <ele>31.35</ele>
    <time>2024-07-23T00:08:34.602285</time>
</trkpt>
<trkpt lat="48.8217256" lon="2.2500004">
    <ele>30.251</ele>
    <time>2024-07-23T00:08:34.602285</time>
</trkpt>
<trkpt lat="48.8213557" lon="2.2499319">
    <ele>31.677</ele>
    <time>2024-07-23T00:08:34.602285</time>
</trkpt>
<trkpt lat="48.8210736" lon="2.2500249">
    <ele>31.949</ele>
    <time>2024-07-23T00:08:34.603221</time>
</trkpt>
<trkpt lat="48.8208966" lon="2.2499737">
    <ele>32.072</ele>
    <time>2024-07-23T00:08:34.603221</time>
</trkpt>
<trkpt lat="48.8200657" lon="2.2472886">
    <ele>32.969</ele>
    <time>2024-07-23T00:08:34.603221</time>
</trkpt>
<trkpt lat="48.8199797" lon="2.24701">
    <ele>32.871</ele>
    <time>2024-07-23T00:08:34.603221</time>
</trkpt>
<trkpt lat="48.818837" lon="2.2436548">
    <ele>37.137</ele>
    <time>2024-07-23T00:08:34.603221</time>
</trkpt>
<trkpt lat="48.8189992" lon="2.2426867">
    <ele>38.216</ele>
    <time>2024-07-23T00:08:34.603221</time>
</trkpt>
<trkpt lat="48.8189949" lon="2.2425515">
    <ele>38.73</ele>
    <time>2024-07-23T00:08:34.603221</time>
</trkpt>
<trkpt lat="48.8187896" lon="2.2393744">
    <ele>54.311</ele>
    <time>2024-07-23T00:08:34.603221</time>
</trkpt>
<trkpt lat="48.8188249" lon="2.2346825">
    <ele>72.414</ele>
    <time>2024-07-23T00:08:34.603221</time>
</trkpt>
<trkpt lat="48.8188591" lon="2.234418">
    <ele>73.789</ele>
    <time>2024-07-23T00:08:34.603221</time>
</trkpt>
<trkpt lat="48.8185933" lon="2.2313411">
    <ele>94.46</ele>
    <time>2024-07-23T00:08:34.603221</time>
</trkpt>
<trkpt lat="48.8185593" lon="2.2312782">
    <ele>94.137</ele>
    <time>2024-07-23T00:08:34.603221</time>
</trkpt>
<trkpt lat="48.8179083" lon="2.2301309">
    <ele>100.284</ele>
    <time>2024-07-23T00:08:34.603221</time>
</trkpt>
<trkpt lat="48.8179417" lon="2.230047">
    <ele>100.447</ele>
    <time>2024-07-23T00:08:34.603221</time>
</trkpt>
<trkpt lat="48.8178965" lon="2.2298789">
    <ele>100.929</ele>
    <time>2024-07-23T00:08:34.603221</time>
</trkpt>
<trkpt lat="48.8178236" lon="2.2298563">
    <ele>101.262</ele>
    <time>2024-07-23T00:08:34.603221</time>
</trkpt>
<trkpt lat="48.8176486" lon="2.2296847">
    <ele>103.758</ele>
    <time>2024-07-23T00:08:34.603221</time>
</trkpt>
<trkpt lat="48.8174952" lon="2.2294764">
    <ele>105.549</ele>
    <time>2024-07-23T00:08:34.604217</time>
</trkpt>
<trkpt lat="48.8166268" lon="2.2271116">
    <ele>109.75</ele>
    <time>2024-07-23T00:08:34.604217</time>
</trkpt>
<trkpt lat="48.8157674" lon="2.224905">
    <ele>111.714</ele>
    <time>2024-07-23T00:08:34.604217</time>
</trkpt>
<trkpt lat="48.8152617" lon="2.2211467">
    <ele>122.3</ele>
    <time>2024-07-23T00:08:34.604217</time>
</trkpt>
<trkpt lat="48.8145258" lon="2.2194562">
    <ele>141.871</ele>
    <time>2024-07-23T00:08:34.604217</time>
</trkpt>
<trkpt lat="48.8132728" lon="2.2168392">
    <ele>155.218</ele>
    <time>2024-07-23T00:08:34.604217</time>
</trkpt>
<trkpt lat="48.8124965" lon="2.2153034">
    <ele>160.319</ele>
    <time>2024-07-23T00:08:34.604217</time>
</trkpt>
<trkpt lat="48.8123411" lon="2.2149055">
    <ele>161.078</ele>
    <time>2024-07-23T00:08:34.604217</time>
</trkpt>
<trkpt lat="48.8122775" lon="2.2147938">
    <ele>161.711</ele>
    <time>2024-07-23T00:08:34.604217</time>
</trkpt>
<trkpt lat="48.8121888" lon="2.2146244">
    <ele>162.629</ele>
    <time>2024-07-23T00:08:34.604217</time>
</trkpt>
<trkpt lat="48.8120217" lon="2.2144181">
    <ele>163.794</ele>
    <time>2024-07-23T00:08:34.604217</time>
</trkpt>
<trkpt lat="48.8116403" lon="2.2123603">
    <ele>164.661</ele>
    <time>2024-07-23T00:08:34.604217</time>
</trkpt>
<trkpt lat="48.8116082" lon="2.2118189">
    <ele>165.176</ele>
    <time>2024-07-23T00:08:34.604217</time>
</trkpt>
<trkpt lat="48.8116382" lon="2.211773">
    <ele>165.191</ele>
    <time>2024-07-23T00:08:34.604217</time>
</trkpt>
<trkpt lat="48.8116701" lon="2.2116081">
    <ele>165.234</ele>
    <time>2024-07-23T00:08:34.604217</time>
</trkpt>
<trkpt lat="48.811639" lon="2.2114819">
    <ele>165.141</ele>
    <time>2024-07-23T00:08:34.604217</time>
</trkpt>
<trkpt lat="48.8115824" lon="2.2114098">
    <ele>165.011</ele>
    <time>2024-07-23T00:08:34.604217</time>
</trkpt>
<trkpt lat="48.811503" lon="2.2108945">
    <ele>167.041</ele>
    <time>2024-07-23T00:08:34.604217</time>
</trkpt>
<trkpt lat="48.8113357" lon="2.210446">
    <ele>167.02</ele>
    <time>2024-07-23T00:08:34.605215</time>
</trkpt>
<trkpt lat="48.8112259" lon="2.2101477">
    <ele>166.72</ele>
    <time>2024-07-23T00:08:34.605285</time>
</trkpt>
<trkpt lat="48.8112006" lon="2.2100781">
    <ele>166.923</ele>
    <time>2024-07-23T00:08:34.605285</time>
</trkpt>
<trkpt lat="48.8107023" lon="2.2087346">
    <ele>168.289</ele>
    <time>2024-07-23T00:08:34.605285</time>
</trkpt>
<trkpt lat="48.8102829" lon="2.207858">
    <ele>169.447</ele>
    <time>2024-07-23T00:08:34.605285</time>
</trkpt>
<trkpt lat="48.8097189" lon="2.2066215">
    <ele>170.911</ele>
    <time>2024-07-23T00:08:34.605285</time>
</trkpt>
<trkpt lat="48.8093075" lon="2.2057244">
    <ele>171.274</ele>
    <time>2024-07-23T00:08:34.605285</time>
</trkpt>
<trkpt lat="48.8092332" lon="2.2055929">
    <ele>171.179</ele>
    <time>2024-07-23T00:08:34.605285</time>
</trkpt>
<trkpt lat="48.8085741" lon="2.1958953">
    <ele>105.419</ele>
    <time>2024-07-23T00:08:34.605285</time>
</trkpt>
<trkpt lat="48.8085461" lon="2.19574">
    <ele>105.549</ele>
    <time>2024-07-23T00:08:34.605285</time>
</trkpt>
<trkpt lat="48.8079345" lon="2.1925171">
    <ele>111.077</ele>
    <time>2024-07-23T00:08:34.605285</time>
</trkpt>
<trkpt lat="48.8076499" lon="2.1908961">
    <ele>107.258</ele>
    <time>2024-07-23T00:08:34.605285</time>
</trkpt>
<trkpt lat="48.8075635" lon="2.188607">
    <ele>96.541</ele>
    <time>2024-07-23T00:08:34.606212</time>
</trkpt>
<trkpt lat="48.8074708" lon="2.1881174">
    <ele>93.152</ele>
    <time>2024-07-23T00:08:34.606212</time>
</trkpt>
<trkpt lat="48.8073789" lon="2.1878975">
    <ele>92.165</ele>
    <time>2024-07-23T00:08:34.606212</time>
</trkpt>
<trkpt lat="48.8073206" lon="2.1878009">
    <ele>92.009</ele>
    <time>2024-07-23T00:08:34.606212</time>
</trkpt>
<trkpt lat="48.8072266" lon="2.1878091">
    <ele>93.153</ele>
    <time>2024-07-23T00:08:34.606212</time>
</trkpt>
<trkpt lat="48.806757" lon="2.1878826">
    <ele>97.507</ele>
    <time>2024-07-23T00:08:34.606212</time>
</trkpt>
<trkpt lat="48.8060258" lon="2.187981">
    <ele>99.946</ele>
    <time>2024-07-23T00:08:34.606212</time>
</trkpt>
<trkpt lat="48.8040954" lon="2.1882476">
    <ele>103.055</ele>
    <time>2024-07-23T00:08:34.606212</time>
</trkpt>
<trkpt lat="48.803889" lon="2.1882754">
    <ele>101.939</ele>
    <time>2024-07-23T00:08:34.607210</time>
</trkpt>
<trkpt lat="48.8020775" lon="2.1882914">
    <ele>98.657</ele>
    <time>2024-07-23T00:08:34.607210</time>
</trkpt>
<trkpt lat="48.800905" lon="2.1871994">
    <ele>97.158</ele>
    <time>2024-07-23T00:08:34.607210</time>
</trkpt>
<trkpt lat="48.8007049" lon="2.1869728">
    <ele>97.17</ele>
    <time>2024-07-23T00:08:34.607210</time>
</trkpt>
<trkpt lat="48.8002844" lon="2.1864238">
    <ele>98.658</ele>
    <time>2024-07-23T00:08:34.607210</time>
</trkpt>
<trkpt lat="48.7995948" lon="2.1856627">
    <ele>100.429</ele>
    <time>2024-07-23T00:08:34.607210</time>
</trkpt>
<trkpt lat="48.7991415" lon="2.1851384">
    <ele>102.584</ele>
    <time>2024-07-23T00:08:34.607210</time>
</trkpt>
<trkpt lat="48.7989525" lon="2.1849314">
    <ele>103.57</ele>
    <time>2024-07-23T00:08:34.607800</time>
</trkpt>
<trkpt lat="48.7982524" lon="2.1841148">
    <ele>106.265</ele>
    <time>2024-07-23T00:08:34.607800</time>
</trkpt>
<trkpt lat="48.7976298" lon="2.1834011">
    <ele>109.915</ele>
    <time>2024-07-23T00:08:34.607800</time>
</trkpt>
<trkpt lat="48.797212" lon="2.1829089">
    <ele>112.144</ele>
    <time>2024-07-23T00:08:34.607800</time>
</trkpt>
<trkpt lat="48.7960078" lon="2.1814471">
    <ele>116.632</ele>
    <time>2024-07-23T00:08:34.608207</time>
</trkpt>
<trkpt lat="48.7958138" lon="2.1810131">
    <ele>116.605</ele>
    <time>2024-07-23T00:08:34.608207</time>
</trkpt>
<trkpt lat="48.7957514" lon="2.1808723">
    <ele>116.771</ele>
    <time>2024-07-23T00:08:34.608207</time>
</trkpt>
<trkpt lat="48.795686" lon="2.1807281">
    <ele>117.313</ele>
    <time>2024-07-23T00:08:34.608207</time>
</trkpt>
<trkpt lat="48.7955779" lon="2.1804877">
    <ele>118.905</ele>
    <time>2024-07-23T00:08:34.608207</time>
</trkpt>
<trkpt lat="48.7883588" lon="2.1790689">
    <ele>171.699</ele>
    <time>2024-07-23T00:08:34.608207</time>
</trkpt>
<trkpt lat="48.7877423" lon="2.1791445">
    <ele>173.446</ele>
    <time>2024-07-23T00:08:34.608207</time>
</trkpt>
<trkpt lat="48.787195" lon="2.1792197">
    <ele>175.014</ele>
    <time>2024-07-23T00:08:34.608207</time>
</trkpt>
<trkpt lat="48.7864723" lon="2.1793246">
    <ele>175.913</ele>
    <time>2024-07-23T00:08:34.608207</time>
</trkpt>
<trkpt lat="48.7858562" lon="2.1794005">
    <ele>175.896</ele>
    <time>2024-07-23T00:08:34.608207</time>
</trkpt>
<trkpt lat="48.7856247" lon="2.1793481">
    <ele>176.158</ele>
    <time>2024-07-23T00:08:34.609206</time>
</trkpt>
<trkpt lat="48.7854769" lon="2.1791951">
    <ele>176.482</ele>
    <time>2024-07-23T00:08:34.609206</time>
</trkpt>
<trkpt lat="48.7853944" lon="2.1790775">
    <ele>176.704</ele>
    <time>2024-07-23T00:08:34.609206</time>
</trkpt>
<trkpt lat="48.7848779" lon="2.1781804">
    <ele>177.115</ele>
    <time>2024-07-23T00:08:34.609206</time>
</trkpt>
<trkpt lat="48.7843498" lon="2.1772581">
    <ele>177.202</ele>
    <time>2024-07-23T00:08:34.609206</time>
</trkpt>
<trkpt lat="48.784075" lon="2.1767953">
    <ele>177.588</ele>
    <time>2024-07-23T00:08:34.609206</time>
</trkpt>
<trkpt lat="48.7839972" lon="2.1766741">
    <ele>177.686</ele>
    <time>2024-07-23T00:08:34.609206</time>
</trkpt>
<trkpt lat="48.7834931" lon="2.1758363">
    <ele>176.686</ele>
    <time>2024-07-23T00:08:34.609206</time>
</trkpt>
<trkpt lat="48.7833804" lon="2.1756443">
    <ele>176.716</ele>
    <time>2024-07-23T00:08:34.609206</time>
</trkpt>
<trkpt lat="48.7831174" lon="2.1752085">
    <ele>176.658</ele>
    <time>2024-07-23T00:08:34.609206</time>
</trkpt>
<trkpt lat="48.7827946" lon="2.1746303">
    <ele>176.258</ele>
    <time>2024-07-23T00:08:34.609206</time>
</trkpt>
<trkpt lat="48.7826905" lon="2.1743892">
    <ele>176.558</ele>
    <time>2024-07-23T00:08:34.609206</time>
</trkpt>
<trkpt lat="48.7825374" lon="2.1739618">
    <ele>177.215</ele>
    <time>2024-07-23T00:08:34.610279</time>
</trkpt>
<trkpt lat="48.7812115" lon="2.1717598">
    <ele>175.803</ele>
    <time>2024-07-23T00:08:34.610279</time>
</trkpt>
<trkpt lat="48.7799861" lon="2.1724465">
    <ele>175.518</ele>
    <time>2024-07-23T00:08:34.610279</time>
</trkpt>
<trkpt lat="48.7792819" lon="2.1747101">
    <ele>176.278</ele>
    <time>2024-07-23T00:08:34.610794</time>
</trkpt>
<trkpt lat="48.7801127" lon="2.1710235">
    <ele>174.272</ele>
    <time>2024-07-23T00:08:34.610794</time>
</trkpt>
<trkpt lat="48.7804701" lon="2.1691981">
    <ele>174.367</ele>
    <time>2024-07-23T00:08:34.611280</time>
</trkpt>
<trkpt lat="48.7805101" lon="2.169047">
    <ele>174.552</ele>
    <time>2024-07-23T00:08:34.611466</time>
</trkpt>
<trkpt lat="48.7804697" lon="2.1689351">
    <ele>175.153</ele>
    <time>2024-07-23T00:08:34.611466</time>
</trkpt>
<trkpt lat="48.7803198" lon="2.1689462">
    <ele>174.526</ele>
    <time>2024-07-23T00:08:34.611466</time>
</trkpt>
<trkpt lat="48.7802868" lon="2.1690715">
    <ele>174.159</ele>
    <time>2024-07-23T00:08:34.611466</time>
</trkpt>
<trkpt lat="48.772704" lon="2.1727363">
    <ele>136.031</ele>
    <time>2024-07-23T00:08:34.611466</time>
</trkpt>
<trkpt lat="48.7716675" lon="2.1735425">
    <ele>128.089</ele>
    <time>2024-07-23T00:08:34.611466</time>
</trkpt>
<trkpt lat="48.7693722" lon="2.1726686">
    <ele>115.354</ele>
    <time>2024-07-23T00:08:34.611466</time>
</trkpt>
<trkpt lat="48.7663009" lon="2.1699445">
    <ele>95.895</ele>
    <time>2024-07-23T00:08:34.611466</time>
</trkpt>
<trkpt lat="48.7662196" lon="2.1698712">
    <ele>94.654</ele>
    <time>2024-07-23T00:08:34.612278</time>
</trkpt>
<trkpt lat="48.7654322" lon="2.1691813">
    <ele>90.893</ele>
    <time>2024-07-23T00:08:34.612278</time>
</trkpt>
<trkpt lat="48.7648697" lon="2.1687176">
    <ele>88.4</ele>
    <time>2024-07-23T00:08:34.612278</time>
</trkpt>
<trkpt lat="48.7648857" lon="2.1680794">
    <ele>88.179</ele>
    <time>2024-07-23T00:08:34.612278</time>
</trkpt>
<trkpt lat="48.7644881" lon="2.1680022">
    <ele>88.621</ele>
    <time>2024-07-23T00:08:34.612278</time>
</trkpt>
<trkpt lat="48.7636531" lon="2.1674488">
    <ele>93.774</ele>
    <time>2024-07-23T00:08:34.612278</time>
</trkpt>
<trkpt lat="48.7636898" lon="2.166691">
    <ele>95.678</ele>
    <time>2024-07-23T00:08:34.612278</time>
</trkpt>
<trkpt lat="48.7627966" lon="2.1677039">
    <ele>101.051</ele>
    <time>2024-07-23T00:08:34.612278</time>
</trkpt>
<trkpt lat="48.762155" lon="2.1697463">
    <ele>104.389</ele>
    <time>2024-07-23T00:08:34.612278</time>
</trkpt>
<trkpt lat="48.7614116" lon="2.1716501">
    <ele>111.147</ele>
    <time>2024-07-23T00:08:34.612278</time>
</trkpt>
<trkpt lat="48.7609969" lon="2.1733576">
    <ele>117.8</ele>
    <time>2024-07-23T00:08:34.613329</time>
</trkpt>
<trkpt lat="48.7608316" lon="2.1750487">
    <ele>121.541</ele>
    <time>2024-07-23T00:08:34.613329</time>
</trkpt>
<trkpt lat="48.7585489" lon="2.1743755">
    <ele>140.614</ele>
    <time>2024-07-23T00:08:34.613329</time>
</trkpt>
<trkpt lat="48.7574957" lon="2.1729029">
    <ele>147.049</ele>
    <time>2024-07-23T00:08:34.613329</time>
</trkpt>
<trkpt lat="48.7570797" lon="2.172541">
    <ele>148.35</ele>
    <time>2024-07-23T00:08:34.613329</time>
</trkpt>
<trkpt lat="48.7554963" lon="2.1709785">
    <ele>150.685</ele>
    <time>2024-07-23T00:08:34.613329</time>
</trkpt>
<trkpt lat="48.755282" lon="2.1707839">
    <ele>150.526</ele>
    <time>2024-07-23T00:08:34.613329</time>
</trkpt>
<trkpt lat="48.7538888" lon="2.169661">
    <ele>153.403</ele>
    <time>2024-07-23T00:08:34.613329</time>
</trkpt>
<trkpt lat="48.7509129" lon="2.1668795">
    <ele>157.15</ele>
    <time>2024-07-23T00:08:34.614273</time>
</trkpt>
<trkpt lat="48.7505017" lon="2.166179">
    <ele>157.384</ele>
    <time>2024-07-23T00:08:34.614273</time>
</trkpt>
<trkpt lat="48.7504823" lon="2.1659545">
    <ele>157.433</ele>
    <time>2024-07-23T00:08:34.614273</time>
</trkpt>
<trkpt lat="48.7504074" lon="2.1658233">
    <ele>157.287</ele>
    <time>2024-07-23T00:08:34.614273</time>
</trkpt>
<trkpt lat="48.7501245" lon="2.1658793">
    <ele>157.481</ele>
    <time>2024-07-23T00:08:34.614273</time>
</trkpt>
<trkpt lat="48.749458" lon="2.1656841">
    <ele>158.28</ele>
    <time>2024-07-23T00:08:34.614273</time>
</trkpt>
<trkpt lat="48.7449286" lon="2.1650604">
    <ele>150.003</ele>
    <time>2024-07-23T00:08:34.614273</time>
</trkpt>
<trkpt lat="48.739178" lon="2.1644307">
    <ele>150.046</ele>
    <time>2024-07-23T00:08:34.614273</time>
</trkpt>
<trkpt lat="48.7356131" lon="2.1640764">
    <ele>153.791</ele>
    <time>2024-07-23T00:08:34.614273</time>
</trkpt>
<trkpt lat="48.7350246" lon="2.1638645">
    <ele>153.887</ele>
    <time>2024-07-23T00:08:34.614273</time>
</trkpt>
<trkpt lat="48.7346443" lon="2.1638457">
    <ele>153.446</ele>
    <time>2024-07-23T00:08:34.614273</time>
</trkpt>
<trkpt lat="48.7339658" lon="2.1638816">
    <ele>153.667</ele>
    <time>2024-07-23T00:08:34.615283</time>
</trkpt>
<trkpt lat="48.7312087" lon="2.163369">
    <ele>156.474</ele>
    <time>2024-07-23T00:08:34.615283</time>
</trkpt>
<trkpt lat="48.730837" lon="2.1631619">
    <ele>156.817</ele>
    <time>2024-07-23T00:08:34.615283</time>
</trkpt>
<trkpt lat="48.7301258" lon="2.1627057">
    <ele>156.499</ele>
    <time>2024-07-23T00:08:34.615283</time>
</trkpt>
<trkpt lat="48.7298974" lon="2.1625875">
    <ele>156.361</ele>
    <time>2024-07-23T00:08:34.615283</time>
</trkpt>
<trkpt lat="48.7294944" lon="2.1623685">
    <ele>156.798</ele>
    <time>2024-07-23T00:08:34.615283</time>
</trkpt>
<trkpt lat="48.7293512" lon="2.1622406">
    <ele>156.321</ele>
    <time>2024-07-23T00:08:34.615283</time>
</trkpt>
<trkpt lat="48.7291498" lon="2.1621222">
    <ele>156.06</ele>
    <time>2024-07-23T00:08:34.615283</time>
</trkpt>
<trkpt lat="48.7281657" lon="2.1609433">
    <ele>155.414</ele>
    <time>2024-07-23T00:08:34.615283</time>
</trkpt>
<trkpt lat="48.7259626" lon="2.1586959">
    <ele>158.034</ele>
    <time>2024-07-23T00:08:34.615283</time>
</trkpt>
<trkpt lat="48.7249493" lon="2.1576816">
    <ele>157.74</ele>
    <time>2024-07-23T00:08:34.615283</time>
</trkpt>
<trkpt lat="48.7230533" lon="2.1557256">
    <ele>158.292</ele>
    <time>2024-07-23T00:08:34.615283</time>
</trkpt>
<trkpt lat="48.7149101" lon="2.147397">
    <ele>159.627</ele>
    <time>2024-07-23T00:08:34.616267</time>
</trkpt>
<trkpt lat="48.7138016" lon="2.1462098">
    <ele>161.682</ele>
    <time>2024-07-23T00:08:34.616267</time>
</trkpt>
<trkpt lat="48.7136633" lon="2.1462652">
    <ele>161.65</ele>
    <time>2024-07-23T00:08:34.616267</time>
</trkpt>
<trkpt lat="48.711007" lon="2.161787">
    <ele>158.195</ele>
    <time>2024-07-23T00:08:34.616267</time>
</trkpt>
<trkpt lat="48.7097655" lon="2.1617546">
    <ele>159.981</ele>
    <time>2024-07-23T00:08:34.616267</time>
</trkpt>
<trkpt lat="48.7097299" lon="2.1648191">
    <ele>159.007</ele>
    <time>2024-07-23T00:08:34.616267</time>
</trkpt>
<trkpt lat="48.7096344" lon="2.1725701">
    <ele>154.445</ele>
    <time>2024-07-23T00:08:34.616267</time>
</trkpt>
<trkpt lat="48.7092557" lon="2.1725687">
    <ele>154.507</ele>
    <time>2024-07-23T00:08:34.616866</time>
</trkpt>
<trkpt lat="48.7081333" lon="2.1725392">
    <ele>155.48</ele>
    <time>2024-07-23T00:08:34.616866</time>
</trkpt>
<trkpt lat="48.7069135" lon="2.1726701">
    <ele>154.04</ele>
    <time>2024-07-23T00:08:34.616866</time>
</trkpt>
        </trkseg>
    </trk>
</gpx>